"";"nombre";"tipo";"direccion";"geometry";"longitud";"latitud";"linea"
"1";"BENIFARAIG";"emt";"Ferrer i Bign� - Aiacor";"POINT (-0.385803848863486 39.52764376726197)";-0,385803848863486;39,527643767262;NA
"2";"BENICALAP";"emt";"Equador - Pintor Matarana";"POINT (-0.392778225524496 39.49607883121975)";-0,392778225524496;39,4960788312197;NA
"3";"BENICALAP";"emt";"General Avil�s (par) - Dr. Nicasi Benlloch";"POINT (-0.391460962857036 39.48803711704195)";-0,391460962857036;39,4880371170419;NA
"4";"BENICALAP";"emt";"Corts Valencianes - Palau de Congressos";"POINT (-0.401818139798389 39.494183715692415)";-0,401818139798389;39,4941837156924;NA
"5";"BENICALAP";"emt";"Florista - Carrasqueta";"POINT (-0.396208839095057 39.494049233440656)";-0,396208839095057;39,4940492334407;NA
"6";"BENICALAP";"emt";"Florista - Faura";"POINT (-0.39403448223015 39.49194918548131)";-0,39403448223015;39,4919491854813;NA
"7";"BENICALAP";"emt";"Dr. Peset Aleixandre - Av. Burjassot";"POINT (-0.388570246131688 39.48893270455264)";-0,388570246131688;39,4889327045526;NA
"8";"BENICALAP";"emt";"Joan XXIII - Germans Machado";"POINT (-0.384842300215999 39.497039556121486)";-0,384842300215999;39,4970395561215;NA
"9";"BENICALAP";"emt";"Joan XXIII - Federico Alcacer Aguilar";"POINT (-0.384097526225865 39.49502149111441)";-0,384097526225865;39,4950214911144;NA
"10";"BENICALAP";"emt";"Joan XXIII (impar) - F�lix del R�o";"POINT (-0.382403322625228 39.49053056749751)";-0,382403322625228;39,4905305674975;NA
"11";"BENICALAP";"emt";"Equador - Verbena";"POINT (-0.390771536735855 39.49406698764656)";-0,390771536735855;39,4940669876466;NA
"12";"BENICALAP";"emt";"Federico Alcacer Aguilar - Poeta Serrano Clavero";"POINT (-0.386254266776117 39.494982731923734)";-0,386254266776117;39,4949827319237;NA
"13";"BENICALAP";"emt";"Riu Nervi�n - Riu Segre";"POINT (-0.382198617977801 39.49565681483716)";-0,382198617977801;39,4956568148372;NA
"14";"BENICALAP";"emt";"Castellonet - Joan XXIII";"POINT (-0.383564556976775 39.49321953677064)";-0,383564556976775;39,4932195367706;NA
"15";"BENICALAP";"emt";"Equador - Music Fayos";"POINT (-0.390846013478566 39.494261177862555)";-0,390846013478566;39,4942611778626;NA
"16";"BENICALAP";"emt";"Cam� de Montcada (impar) - Alemany";"POINT (-0.381096509693065 39.49658988180053)";-0,381096509693065;39,4965898818005;NA
"17";"BENICALAP";"emt";"Burjassot - Pintor Matarana";"POINT (-0.393309681454328 39.49239327713208)";-0,393309681454328;39,4923932771321;NA
"18";"BENICALAP";"emt";"Corts Valencianes (par) - la Safor";"POINT (-0.399523811535687 39.49104606478308)";-0,399523811535687;39,4910460647831;NA
"19";"TORREFIEL";"emt";"Pere Cabanes - Bisbe Laguarda";"POINT (-0.378782914275381 39.49424173601723)";-0,378782914275381;39,4942417360172;NA
"20";"TORREFIEL";"emt";"Sant Dom�nec Savio - Alemany";"POINT (-0.376234033688455 39.49793924075617)";-0,376234033688455;39,4979392407562;NA
"21";"TORREFIEL";"emt";"Pintor Jacomart - Comte de Torrefiel";"POINT (-0.377254859522519 39.496467463898234)";-0,377254859522519;39,4964674638982;NA
"22";"TORREFIEL";"emt";"Comte de Lumiares - Tossal del Rei";"POINT (-0.372348746968391 39.496316076287215)";-0,372348746968391;39,4963160762872;NA
"23";"TORREFIEL";"emt";"Comte de Lumiares - Falcons";"POINT (-0.37273030705366 39.494718802885814)";-0,37273030705366;39,4947188028858;NA
"24";"TORREFIEL";"emt";"Dr. Peset Aleixandre - Montcada";"POINT (-0.37963338512161 39.490916501508266)";-0,37963338512161;39,4909165015083;NA
"25";"TORREFIEL";"emt";"Cam� de Montcada - F�lix del R�o";"POINT (-0.379046888587608 39.491601363680964)";-0,379046888587608;39,491601363681;NA
"26";"TORMOS";"emt";"Dr. Peset Aleixandre - Guardacostes";"POINT (-0.382922228294837 39.48998199984601)";-0,382922228294837;39,489981999846;NA
"27";"TORMOS";"emt";"Constituci� - Dr. Peset Aleixandre";"POINT (-0.374452740783936 39.49152962561542)";-0,374452740783936;39,4915296256154;NA
"28";"SANT ANTONI";"emt";"Primat Reig - Bilbao";"POINT (-0.371558840945691 39.49014270271203)";-0,371558840945691;39,490142702712;NA
"29";"SANT ANTONI";"emt";"Primat Reig - Almassora";"POINT (-0.369074074389299 39.48827489614073)";-0,369074074389299;39,4882748961407;NA
"30";"BENIMACLET";"emt";"Dolores Marqu�s - Benicarl�";"POINT (-0.363394609990823 39.48567424928379)";-0,363394609990823;39,4856742492838;NA
"31";"BENIMACLET";"emt";"Dolores Marqu�s - Assagador d'Alboraia";"POINT (-0.362043079748276 39.488281969006714)";-0,362043079748276;39,4882819690067;NA
"32";"BENIMACLET";"emt";"Primat Reig - Conca Tramoyeres";"POINT (-0.360474513075941 39.48228453283069)";-0,360474513075941;39,4822845328307;NA
"33";"BENIMACLET";"emt";"Emili Bar� - Reverend Rafael Tramoyeres";"POINT (-0.36205010254655 39.485119784431234)";-0,36205010254655;39,4851197844312;NA
"34";"BENIMACLET";"emt";"Catalunya - Guardia Civil";"POINT (-0.354269746778333 39.47969817836995)";-0,354269746778333;39,47969817837;NA
"35";"BENIMACLET";"emt";"Primat Reig - Calder�n de la Barca";"POINT (-0.366171259222875 39.48613270459626)";-0,366171259222875;39,4861327045963;NA
"36";"BENIMACLET";"emt";"Germans Villalonga - Enric Navarro";"POINT (-0.357189289950929 39.48549508398447)";-0,357189289950929;39,4854950839845;NA
"37";"BENIMACLET";"emt";"Germans Villalonga - Dr. Vicent Zaragoz�";"POINT (-0.35757404406791 39.484078559363404)";-0,35757404406791;39,4840785593634;NA
"38";"BENIMACLET";"emt";"Ram�n Asensio - Gu�rdia Civil";"POINT (-0.359174459578562 39.48177419707162)";-0,359174459578562;39,4817741970716;NA
"39";"BENIMACLET";"emt";"Mistral - Murta";"POINT (-0.357820588835768 39.48586627723645)";-0,357820588835768;39,4858662772364;NA
"40";"MARXALENES";"emt";"Burjassot - Marxalenes";"POINT (-0.386812966018187 39.48635749372254)";-0,386812966018187;39,4863574937225;NA
"41";"MARXALENES";"emt";"Constituci� - M�laga";"POINT (-0.378759298694314 39.48522530969868)";-0,378759298694314;39,4852253096987;NA
"42";"MARXALENES";"emt";"Burjassot - Dr. Peset Aleixandre";"POINT (-0.389068856411042 39.48833455459579)";-0,389068856411041;39,4883345545958;NA
"43";"MARXALENES";"emt";"Pla de la Sa�dia - Burjassot";"POINT (-0.381205289274826 39.482982409377264)";-0,381205289274826;39,4829824093773;NA
"44";"EL CALVARI";"emt";"General Avil�s - Conchita Piquer";"POINT (-0.390596854504333 39.48801933698775)";-0,390596854504333;39,4880193369877;NA
"45";"MORVEDRE";"emt";"Argenter Su�rez - Ministre Luis Mayans";"POINT (-0.372969998668439 39.485473749022596)";-0,372969998668439;39,4854737490226;NA
"46";"MORVEDRE";"emt";"Constituci� - Pla de la Sa�dia";"POINT (-0.378839939329111 39.48308799310452)";-0,378839939329111;39,4830879931045;NA
"47";"MORVEDRE";"emt";"Cronista Rivelles - Santa Am�lia";"POINT (-0.374011121268418 39.48090757992308)";-0,374011121268418;39,4809075799231;NA
"48";"MORVEDRE";"emt";"Guadalaviar - Sagunt";"POINT (-0.37549619662076 39.48200605885308)";-0,37549619662076;39,4820060588531;NA
"49";"TRINITAT";"emt";"Molinell (par) - Alboraia";"POINT (-0.369712257268435 39.48494105537715)";-0,369712257268435;39,4849410553771;NA
"50";"TRINITAT";"emt";"Cabanilles - �lvaro de Baz�n";"POINT (-0.365261896671986 39.48199409226757)";-0,365261896671986;39,4819940922676;NA
"51";"TRINITAT";"emt";"Cabanilles - Vivers";"POINT (-0.366183597378527 39.48014188377589)";-0,366183597378527;39,4801418837759;NA
"52";"TRINITAT";"emt";"Alboraia - Jaca";"POINT (-0.369378912664264 39.48413398096493)";-0,369378912664264;39,4841339809649;NA
"53";"LES TENDETES";"emt";"Pare Ferr�s - Men�ndez Pidal";"POINT (-0.384989740882885 39.483100789035255)";-0,384989740882885;39,4831007890353;NA
"54";"LES TENDETES";"emt";"Joaqu�m Ballester - Pare Ferr�s";"POINT (-0.386569219300259 39.4846303415136)";-0,386569219300259;39,4846303415136;NA
"55";"LES TENDETES";"emt";"Joaqu�m Ballester (impar) - Pare Ferris";"POINT (-0.385471613084134 39.48481366339586)";-0,385471613084134;39,4848136633959;NA
"56";"LES TENDETES";"emt";"Pare Ferris - Gregori Gea";"POINT (-0.384558994148234 39.48291208995815)";-0,384558994148234;39,4829120899581;NA
"57";"LES TENDETES";"emt";"Pare Ferr�s - Joaqu�m Ballester";"POINT (-0.386398991047368 39.484897947778165)";-0,386398991047368;39,4848979477782;NA
"58";"CAMPANAR";"emt";"Campanar (par) - la Fe";"POINT (-0.391946736634951 39.48372577931639)";-0,391946736634951;39,4837257793164;NA
"59";"CAMPANAR";"emt";"Campanar (impar) - la Fe";"POINT (-0.391507121534477 39.484112659277606)";-0,391507121534477;39,4841126592776;NA
"60";"CAMPANAR";"emt";"Pius XII (impar) - Monestir de Poblet";"POINT (-0.396103592058122 39.48504131725152)";-0,396103592058122;39,4850413172515;NA
"61";"CAMPANAR";"emt";"Vall de la Ballestera (impar) - Mestre Rodrigo";"POINT (-0.397790057418861 39.47915535179728)";-0,397790057418861;39,4791553517973;NA
"62";"CAMPANAR";"emt";"General Avil�s (illeta) - Pius XII";"POINT (-0.395881990513572 39.48558985228374)";-0,395881990513572;39,4855898522837;NA
"63";"CAMPANAR";"emt";"Men�ndez Pidal - Estaci� d'autobusos (riu)";"POINT (-0.387566268944343 39.480012419854894)";-0,387566268944343;39,4800124198549;NA
"64";"CAMPANAR";"emt";"Joaqu�m Ballester (par) - Ricardo Mic�";"POINT (-0.389696200404275 39.482990126740766)";-0,389696200404275;39,4829901267408;NA
"65";"CAMPANAR";"emt";"Joaqu�m Ballester - Campanar";"POINT (-0.391925494711242 39.48200173830809)";-0,391925494711242;39,4820017383081;NA
"66";"CAMPANAR";"emt";"Campanar - Tirso de Molina";"POINT (-0.394769553432147 39.47777563031264)";-0,394769553432147;39,4777756303126;NA
"67";"CAMPANAR";"emt";"Pius XII - Campanar";"POINT (-0.393283870955687 39.48223347469082)";-0,393283870955687;39,4822334746908;NA
"68";"CAMPANAR";"emt";"Vall de la Ballestera - Campanar";"POINT (-0.393545485113117 39.48091270611318)";-0,393545485113117;39,4809127061132;NA
"69";"JAUME ROIG";"emt";"Primat Reig - Dr. G�mez Ferrer";"POINT (-0.360317075555786 39.48181205051496)";-0,360317075555786;39,481812050515;NA
"70";"JAUME ROIG";"emt";"Primat Reig - Jaume Roig";"POINT (-0.363380335320216 39.48407378921563)";-0,363380335320216;39,4840737892156;NA
"71";"EL CARME";"emt";"Blanqueria - Pare d' �rfens";"POINT (-0.377758991438298 39.48037493312812)";-0,377758991438298;39,4803749331281;NA
"72";"EL CARME";"emt";"Guillem de Castro - Na Jordana";"POINT (-0.382931307860638 39.48002289886695)";-0,382931307860638;39,4800228988669;NA
"73";"CIUTAT UNIVERSITARIA";"emt";"Blasco Ib��ez - Dr. Moliner";"POINT (-0.361921106855253 39.478211909227944)";-0,361921106855253;39,4782119092279;NA
"74";"CIUTAT UNIVERSITARIA";"emt";"Blasco Ib��ez (central) - Hospital Cl�nic";"POINT (-0.363939496206747 39.478716980540995)";-0,363939496206747;39,478716980541;NA
"75";"CIUTAT UNIVERSITARIA";"emt";"Blasco Ib��ez - Almela i Vives";"POINT (-0.35607284780181 39.47689181946896)";-0,35607284780181;39,476891819469;NA
"76";"CIUTAT UNIVERSITARIA";"emt";"Blasco Ib��ez - Gasc� Oliag";"POINT (-0.357522461391183 39.477320637554044)";-0,357522461391183;39,4773206375541;NA
"77";"CIUTAT UNIVERSITARIA";"emt";"Blasco Ib��ez - Hospital Cl�nic";"POINT (-0.363076205992258 39.47899162010702)";-0,363076205992258;39,478991620107;NA
"78";"EL BOTANIC";"emt";"Ferran el Cat�lic - Juan de Mena";"POINT (-0.386131817645403 39.472321778587094)";-0,386131817645403;39,4723217785871;NA
"79";"EL BOTANIC";"emt";"Ferran el Cat�lic (par) - Quart";"POINT (-0.388011404888916 39.47494299203561)";-0,388011404888916;39,4749429920356;NA
"80";"EL BOTANIC";"emt";"Quart - Guillem de Castro";"POINT (-0.384671343399494 39.475720463105716)";-0,384671343399494;39,4757204631057;NA
"81";"EXPOSICIO";"emt";"Blasco Ib��ez - Facultat de Geografia";"POINT (-0.36142480369254 39.477484353947006)";-0,36142480369254;39,477484353947;NA
"82";"EXPOSICIO";"emt";"Misser Masc� - Dr. Moliner";"POINT (-0.362503803017958 39.47554944150895)";-0,362503803017958;39,475549441509;NA
"83";"LA SEU";"emt";"Pla�a de la Reina";"POINT (-0.375188769178854 39.473767246457165)";-0,375188769178854;39,4737672464572;NA
"84";"LA SEU";"emt";"Torres dels Serrans - Comte de Tr�nor";"POINT (-0.375251055121561 39.47909356777751)";-0,375251055121561;39,4790935677775;NA
"85";"LA VEGA BAIXA";"emt";"Ramon Llull - Garc�a Donato";"POINT (-0.346870129598771 39.4768142295909)";-0,346870129598771;39,4768142295909;NA
"86";"LA VEGA BAIXA";"emt";"Ramon Llull - Leandro de Saralegui";"POINT (-0.347545411094772 39.47521716927397)";-0,347545411094772;39,475217169274;NA
"87";"LA PETXINA";"emt";"P�rez Gald�s - Calixt III";"POINT (-0.391763547590034 39.469621437463296)";-0,391763547590034;39,4696214374633;NA
"88";"LA PETXINA";"emt";"Ferran el Cat�lic - Gabriel Mir�";"POINT (-0.387292949697452 39.4730321087598)";-0,387292949697452;39,4730321087598;NA
"89";"LA PETXINA";"emt";"Mestre Guerrero - Joan Llorens";"POINT (-0.391854648225837 39.473809609030965)";-0,391854648225837;39,473809609031;NA
"90";"LA PETXINA";"emt";"Quart - Terol";"POINT (-0.391280311524937 39.47461183487472)";-0,391280311524937;39,4746118348747;NA
"91";"BETERO";"emt";"Blasco Ib��ez (impar) - Jos� Mar�a Haro";"POINT (-0.336485827931609 39.47109810116613)";-0,336485827931609;39,4710981011661;NA
"92";"BETERO";"emt";"Mar� Blas de Lezo - Cam� Cabanyal";"POINT (-0.334274117863456 39.472427975985575)";-0,334274117863456;39,4724279759856;NA
"93";"CABANYAL-CANYAMELAR";"emt";"Dr. Lluch - Mare de D�u del Sufragi";"POINT (-0.328305619163158 39.46723349691897)";-0,328305619163158;39,467233496919;NA
"94";"CABANYAL-CANYAMELAR";"emt";"Mediterr�nia - Dr. Lluch";"POINT (-0.3285674534067 39.46757139797909)";-0,3285674534067;39,4675713979791;NA
"95";"CABANYAL-CANYAMELAR";"emt";"Serradora - Poliesportiu";"POINT (-0.335037187742865 39.46667718163825)";-0,335037187742865;39,4666771816382;NA
"96";"CABANYAL-CANYAMELAR";"emt";"Mart� Grajales - Serradora";"POINT (-0.334555285599325 39.4682547311923)";-0,334555285599325;39,4682547311923;NA
"97";"CABANYAL-CANYAMELAR";"emt";"Reina - Pescadors";"POINT (-0.328529587980686 39.469860907531356)";-0,328529587980686;39,4698609075314;NA
"98";"CABANYAL-CANYAMELAR";"emt";"Llu�s Peix� - Comte Melito";"POINT (-0.333448149959552 39.475144707608514)";-0,333448149959552;39,4751447076085;NA
"99";"CABANYAL-CANYAMELAR";"emt";"Marcos Sopena - Eug�nia Vi�es";"POINT (-0.325407253725883 39.463170373253035)";-0,325407253725883;39,463170373253;NA
"100";"CABANYAL-CANYAMELAR";"emt";"Passeig Mar�tim - Mediterr�nia";"POINT (-0.324575965523476 39.46830720500591)";-0,324575965523476;39,4683072050059;NA
"101";"CABANYAL-CANYAMELAR";"emt";"Pintor Ferrandis - Josep Benlliure";"POINT (-0.329575337440598 39.47194821277114)";-0,329575337440598;39,4719482127711;NA
"102";"CABANYAL-CANYAMELAR";"emt";"Esgl�sia dels �ngels - Pintor Ferrandis";"POINT (-0.331789863619322 39.472401501401905)";-0,331789863619322;39,4724015014019;NA
"103";"CABANYAL-CANYAMELAR";"emt";"Eug�nia Vi�es - Camps";"POINT (-0.325669345444872 39.47252133956445)";-0,325669345444872;39,4725213395645;NA
"104";"CABANYAL-CANYAMELAR";"emt";"Eug�nia Vi�es - Francesc Miralles";"POINT (-0.325700285899262 39.46959601771084)";-0,325700285899262;39,4695960177108;NA
"105";"MESTALLA";"emt";"Arag� - Ernest Ferrer";"POINT (-0.356893411175871 39.472815642538706)";-0,356893411175871;39,4728156425387;NA
"106";"MESTALLA";"emt";"Amadeu de Savoia - Mu�oz Seca";"POINT (-0.362098017249942 39.47361127252344)";-0,362098017249942;39,4736112725234;NA
"107";"MESTALLA";"emt";"Albereda - Armando Palacio Vald�s";"POINT (-0.364430697191043 39.47381491757256)";-0,364430697191043;39,4738149175726;NA
"108";"MESTALLA";"emt";"Port - Saragossa";"POINT (-0.360000123579523 39.46794684126069)";-0,360000123579523;39,4679468412607;NA
"109";"MESTALLA";"emt";"Blasco Ib��ez - Su�cia";"POINT (-0.356929923049909 39.47616124722011)";-0,356929923049909;39,4761612472201;NA
"110";"MESTALLA";"emt";"Cardenal Benlloch - Ernest Ferrer";"POINT (-0.354259689323291 39.47204888196909)";-0,354259689323291;39,4720488819691;NA
"111";"MESTALLA";"emt";"Amadeu de Savoia - Su�cia";"POINT (-0.359491458891524 39.47303055689049)";-0,359491458891524;39,4730305568905;NA
"112";"MESTALLA";"emt";"Finl�ndia - General Gil Dolz";"POINT (-0.360330836354344 39.47272269811785)";-0,360330836354344;39,4727226981178;NA
"113";"LA XEREA";"emt";"Tetuan";"POINT (-0.369882363789264 39.473944288271376)";-0,369882363789264;39,4739442882714;NA
"114";"LA XEREA";"emt";"Porta de la Mar (par) - Palau de Just�cia";"POINT (-0.369426641667578 39.472203205460815)";-0,369426641667578;39,4722032054608;NA
"115";"EL MERCAT";"emt";"Carda - Moro Zeit";"POINT (-0.380872996883443 39.47511258638515)";-0,380872996883443;39,4751125863852;NA
"116";"EL MERCAT";"emt";"Editor Manuel Aguilar - Guillem Sorolla";"POINT (-0.380412328784568 39.472712168556434)";-0,380412328784568;39,4727121685564;NA
"117";"EL PILAR";"emt";"Av. de l'Oest - Hospital";"POINT (-0.379805701663639 39.47143266594265)";-0,379805701663639;39,4714326659427;NA
"118";"EL PILAR";"emt";"Guillem de Castro - Torres de Quart";"POINT (-0.38394828314839 39.47501402357978)";-0,38394828314839;39,4750140235798;NA
"119";"SANT FRANCESC";"emt";"Guillem de Castro - Sant Agust�";"POINT (-0.380278288505877 39.46851572967579)";-0,380278288505877;39,4685157296758;NA
"120";"SANT FRANCESC";"emt";"Pl. de l'Ajuntament - Mercat Central - Llotja";"POINT (-0.376862598031618 39.4720853525868)";-0,376862598031618;39,4720853525868;NA
"121";"SANT FRANCESC";"emt";"Porta de la Mar (impar) - Palau de Just�cia";"POINT (-0.369568138618417 39.472075780989066)";-0,369568138618417;39,4720757809891;NA
"122";"SANT FRANCESC";"emt";"Porta de la Mar -  Col�n";"POINT (-0.369197149641258 39.471467127571806)";-0,369197149641258;39,4714671275718;NA
"123";"SANT FRANCESC";"emt";"X�tiva - Estaci� del Nord";"POINT (-0.37649527099215 39.4675144646991)";-0,37649527099215;39,4675144646991;NA
"124";"SANT FRANCESC";"emt";"Av. de l'Oest (impar) - Sant Agust�";"POINT (-0.37955776906375 39.46949117420052)";-0,37955776906375;39,4694911742005;NA
"125";"SANT FRANCESC";"emt";"Marqu�s de Sotelo - Periodista Azzati";"POINT (-0.377100515129238 39.46863035326306)";-0,377100515129238;39,4686303532631;NA
"126";"EL PLA DEL REMEI";"emt";"Comte de Salvatierra - Ciril Amor�s";"POINT (-0.367812813402364 39.469262050347254)";-0,367812813402364;39,4692620503473;NA
"127";"EL PLA DEL REMEI";"emt";"Pl. Am�rica - Navarro Reverter";"POINT (-0.365870260761571 39.47068412458924)";-0,365870260761571;39,4706841245892;NA
"128";"EL PLA DEL REMEI";"emt";"Porta de la Mar (impar) - Navarro Reverter";"POINT (-0.36774082986781 39.47182152734822)";-0,36774082986781;39,4718215273482;NA
"129";"EL PLA DEL REMEI";"emt";"Marqu�s del T�ria (impar) - C�novas";"POINT (-0.36581861288965 39.468488864689924)";-0,365818612889651;39,4684888646899;NA
"130";"EL PLA DEL REMEI";"emt";"Marqu�s del T�ria - Hern�n Cort�s";"POINT (-0.370766088693746 39.466443208149585)";-0,370766088693746;39,4664432081496;NA
"131";"EL PLA DEL REMEI";"emt";"Am�rica - Marqu�s del T�ria";"POINT (-0.364878991905582 39.46952681509829)";-0,364878991905582;39,4695268150983;NA
"132";"EL PLA DEL REMEI";"emt";"F�lix Pizcueta - Ciril Amor�s";"POINT (-0.372523147732682 39.46603439880883)";-0,372523147732682;39,4660343988088;NA
"133";"EL PLA DEL REMEI";"emt";"Hern�n Cort�s - Ciril Amor�s";"POINT (-0.370616847583939 39.467020448347206)";-0,370616847583939;39,4670204483472;NA
"134";"ALBORS";"emt";"Sants Just i Pastor - Llu�s de Mil�";"POINT (-0.35284872626788 39.4708923659718)";-0,35284872626788;39,4708923659718;NA
"135";"ALBORS";"emt";"Sants Just i Pastor - Duc de Gaeta";"POINT (-0.349070335343696 39.46978590365663)";-0,349070335343696;39,4697859036566;NA
"136";"ARRANCAPINS";"emt";"Giorgeta - Albacete";"POINT (-0.386002694993465 39.46154289038019)";-0,386002694993465;39,4615428903802;NA
"137";"ARRANCAPINS";"emt";"P�rez Gald�s - Mart�nez Aloy";"POINT (-0.387536069121874 39.463668586957226)";-0,387536069121874;39,4636685869572;NA
"138";"ARRANCAPINS";"emt";"P�rez Gald�s - Heroi Romeu";"POINT (-0.390179388201697 39.46739555821404)";-0,390179388201697;39,467395558214;NA
"139";"ARRANCAPINS";"emt";"Estaci� J. Sorolla - Mestre Sosa";"POINT (-0.381951740931186 39.46071811730741)";-0,381951740931186;39,4607181173074;NA
"140";"ARRANCAPINS";"emt";"Ferran el Cat�lic (impar) - �ngel Guimer�";"POINT (-0.38510279785219 39.46999048190105)";-0,38510279785219;39,469990481901;NA
"141";"ARRANCAPINS";"emt";"Ferran el Cat�lic (central) - �ngel Guimer�";"POINT (-0.385139373476827 39.470484897558826)";-0,385139373476827;39,4704848975588;NA
"142";"AIORA";"emt";"Dr. Manuel Candela (par) - Port";"POINT (-0.350947308600259 39.46597115226733)";-0,350947308600259;39,4659711522673;NA
"143";"AIORA";"emt";"Dr. Manuel Candela (par) - Rodr�guez de Cepeda";"POINT (-0.350040395912034 39.46811762414188)";-0,350040395912034;39,4681176241419;NA
"144";"AIORA";"emt";"Sants Just i Pastor - Ind�stria";"POINT (-0.343027377647489 39.46806668060438)";-0,343027377647489;39,4680666806044;NA
"145";"AIORA";"emt";"Sants Just i Pastor - Escultor Esteve Edo";"POINT (-0.339058419405388 39.466912295970026)";-0,339058419405388;39,46691229597;NA
"146";"AIORA";"emt";"Serradora - Peanya";"POINT (-0.337580109091982 39.462791617831904)";-0,337580109091982;39,4627916178319;NA
"147";"AIORA";"emt";"Serradora - Jeroni de Montsoriu";"POINT (-0.336183584916527 39.46457406781298)";-0,336183584916527;39,464574067813;NA
"148";"LA ROQUETA";"emt";"Estaci� del Nord - Bail�n";"POINT (-0.37771207576385 39.46724535782602)";-0,37771207576385;39,467245357826;NA
"149";"LA ROQUETA";"emt";"Espanya - Julio Antonio";"POINT (-0.381215670024839 39.46596619352814)";-0,381215670024839;39,4659661935281;NA
"150";"LA GRAN VIA";"emt";"Jacinto Benavente - Borriana";"POINT (-0.362831833422293 39.466328474745225)";-0,362831833422293;39,4663284747452;NA
"151";"LA GRAN VIA";"emt";"Jacinto Benavente - Palau de la M�sica";"POINT (-0.362558412244817 39.46683757217342)";-0,362558412244817;39,4668375721734;NA
"152";"LA GRAN VIA";"emt";"Regne de Val�ncia - Joaqu�n Costa";"POINT (-0.364236241923049 39.46321185480006)";-0,364236241923049;39,4632118548001;NA
"153";"LA GRAN VIA";"emt";"Regne de Val�ncia - Mestre Gozalbo";"POINT (-0.367661508806521 39.46384488114191)";-0,367661508806521;39,4638448811419;NA
"154";"LA GRAN VIA";"emt";"Ciscar - Mestre Racional";"POINT (-0.363825385525915 39.46350766354142)";-0,363825385525915;39,4635076635414;NA
"155";"LA GRAN VIA";"emt";"Ciscar - Borriana";"POINT (-0.365125264564825 39.46545610413703)";-0,365125264564825;39,465456104137;NA
"156";"LA GRAN VIA";"emt";"Ciscar - Comte d'Altea";"POINT (-0.366316646988388 39.467176761909506)";-0,366316646988388;39,4671767619095;NA
"157";"TRES FORQUES";"emt";"Tres Creus - Llombai";"POINT (-0.405260751754051 39.46439755677277)";-0,405260751754051;39,4643975567728;NA
"158";"TRES FORQUES";"emt";"Cid - Josep Maestre";"POINT (-0.402520515073844 39.46896508519518)";-0,402520515073844;39,4689650851952;NA
"159";"TRES FORQUES";"emt";"Cid - �nguera";"POINT (-0.396604094733863 39.46797568737925)";-0,396604094733863;39,4679756873793;NA
"160";"TRES FORQUES";"emt";"Tres Forques - Santa Cruz de Tenerife";"POINT (-0.399663939290613 39.46395120895064)";-0,399663939290613;39,4639512089506;NA
"161";"TRES FORQUES";"emt";"Tres Creus (carril bus) - Llombai";"POINT (-0.40544800341482 39.464103184193775)";-0,40544800341482;39,4641031841938;NA
"162";"CAMI FONDO";"emt";"Tom�s Monta�ana (impar) - Ast�ries";"POINT (-0.351917623016684 39.46329135610718)";-0,351917623016684;39,4632913561072;NA
"163";"CAMI FONDO";"emt";"Tom�s Monta�ana (par) - Ast�ries";"POINT (-0.352307636531053 39.46360780180353)";-0,352307636531053;39,4636078018035;NA
"164";"CAMI FONDO";"emt";"Port - Riu Escalona";"POINT (-0.352663236343778 39.465773052999566)";-0,352663236343778;39,4657730529996;NA
"165";"PATRAIX";"emt";"Arxiduc Carles (impar) - Tres Forques";"POINT (-0.396427778188286 39.46344353879806)";-0,396427778188286;39,4634435387981;NA
"166";"PATRAIX";"emt";"Cid - Aiora";"POINT (-0.392311273650476 39.46723377908242)";-0,392311273650476;39,4672337790824;NA
"167";"PATRAIX";"emt";"P�rez Gald�s - Lladr� i Mall�";"POINT (-0.387345196550586 39.46291467213292)";-0,387345196550586;39,4629146721329;NA
"168";"PATRAIX";"emt";"Tres Forques (impar) - Arxiduc Carles";"POINT (-0.396888480427216 39.4637960143069)";-0,396888480427216;39,4637960143069;NA
"169";"PATRAIX";"emt";"Tres Forques - Churat i Saur�";"POINT (-0.391919891236905 39.46400190918527)";-0,391919891236905;39,4640019091853;NA
"170";"PATRAIX";"emt";"Tres Forques - P�rez Gald�s";"POINT (-0.389069331431588 39.46411195382883)";-0,389069331431588;39,4641119538288;NA
"171";"PATRAIX";"emt";"Jes�s (Pla�a) - Beat Nicolau Factor";"POINT (-0.388743392832128 39.460240655941426)";-0,388743392832128;39,4602406559414;NA
"172";"PATRAIX";"emt";"Conca - Moss�n Fenollar";"POINT (-0.390308938188488 39.46172786341891)";-0,390308938188488;39,4617278634189;NA
"173";"PATRAIX";"emt";"Conca - P�rez Gald�s";"POINT (-0.388570690044697 39.463774270536945)";-0,388570690044697;39,4637742705369;NA
"174";"PATRAIX";"emt";"Gaspar Aguilar - Jes�s";"POINT (-0.388602566924827 39.45929814133013)";-0,388602566924827;39,4592981413301;NA
"175";"PATRAIX";"emt";"Aiora - Mariano Ribera";"POINT (-0.393327897761816 39.46467258467682)";-0,393327897761816;39,4646725846768;NA
"176";"RUSSAFA";"emt";"Filipines - Gibraltar";"POINT (-0.378820590564681 39.4607581682316)";-0,378820590564681;39,4607581682316;NA
"177";"RUSSAFA";"emt";"Alacant - Castell�";"POINT (-0.376955109546882 39.46614307452049)";-0,376955109546882;39,4661430745205;NA
"178";"RUSSAFA";"emt";"Germanies - Castell�";"POINT (-0.375009892120028 39.464579728738755)";-0,375009892120028;39,4645797287388;NA
"179";"RUSSAFA";"emt";"Germanies - Sevilla";"POINT (-0.374659396770712 39.46435614075085)";-0,374659396770712;39,4643561407509;NA
"180";"RUSSAFA";"emt";"Cadis - Puerto Rico";"POINT (-0.373688538268446 39.46186651360417)";-0,373688538268446;39,4618665136042;NA
"181";"RUSSAFA";"emt";"Cadis - dels Centelles";"POINT (-0.371806711826821 39.459266102962765)";-0,371806711826821;39,4592661029628;NA
"182";"RUSSAFA";"emt";"Pintor Salvador Abril - Mestre J. Serrano";"POINT (-0.370936975159655 39.46375695760685)";-0,370936975159655;39,4637569576068;NA
"183";"RUSSAFA";"emt";"Peris i Valero - Pintor Salvador Abril";"POINT (-0.367811691225994 39.46042503063265)";-0,367811691225994;39,4604250306326;NA
"184";"PENYA-ROJA";"emt";"Fran�a - Albereda";"POINT (-0.356590346045555 39.46155967389087)";-0,356590346045555;39,4615596738909;NA
"185";"PENYA-ROJA";"emt";"Albereda - Pont del Regne";"POINT (-0.35679206338968 39.46097427682594)";-0,35679206338968;39,4609742768259;NA
"186";"PENYA-ROJA";"emt";"Menorca - Fran�a";"POINT (-0.343502223638204 39.458958960016034)";-0,343502223638204;39,458958960016;NA
"187";"PENYA-ROJA";"emt";"Albereda - Eduard Bosc�";"POINT (-0.358412293362391 39.463167097325396)";-0,358412293362391;39,4631670973254;NA
"188";"PENYA-ROJA";"emt";"Albereda - Pont �ngel Custodi";"POINT (-0.358793015290691 39.4631861106446)";-0,358793015290691;39,4631861106446;NA
"189";"PENYA-ROJA";"emt";"Fran�a-Trafalgar";"POINT (-0.345602394353062 39.45861515524532)";-0,345602394353062;39,4586151552453;NA
"190";"PENYA-ROJA";"emt";"Albereda (riu) - L'Hemisf�ric";"POINT (-0.352962193573413 39.459435343777365)";-0,352962193573413;39,4594353437774;NA
"191";"PENYA-ROJA";"emt";"Albereda (riu) - Museu de les Ci�ncies";"POINT (-0.35026109982505 39.45757014406331)";-0,35026109982505;39,4575701440633;NA
"192";"PENYA-ROJA";"emt";"Menorca (par) - Centre Comercial";"POINT (-0.345891181515928 39.45742880946139)";-0,345891181515928;39,4574288094614;NA
"193";"PENYA-ROJA";"emt";"Pintor Maella - Luis Bolinches Compa�";"POINT (-0.348178843264035 39.4575659832341)";-0,348178843264035;39,4575659832341;NA
"194";"PENYA-ROJA";"emt";"Eduard Bosc� - Balears";"POINT (-0.35772842380462 39.46429782795898)";-0,35772842380462;39,464297827959;NA
"195";"LA CREU DEL GRAU";"emt";"Eivissa - Prof.Vicente Llorens";"POINT (-0.339545112958274 39.461045407643695)";-0,339545112958274;39,4610454076437;NA
"196";"LA CREU DEL GRAU";"emt";"Illes Can�ries - Trafalgar";"POINT (-0.344618160839368 39.463105251510754)";-0,344618160839368;39,4631052515108;NA
"197";"LA CREU DEL GRAU";"emt";"Port - Noguera";"POINT (-0.341827675348232 39.462537418305075)";-0,341827675348232;39,4625374183051;NA
"198";"LA CREU DEL GRAU";"emt";"Pere II El Cerimonios - Luis Merelo y Mas";"POINT (-0.349147202762181 39.463160540196)";-0,349147202762181;39,463160540196;NA
"199";"MONT-OLIVET";"emt";"Regne de Val�ncia (impar) - Alcalde Reig";"POINT (-0.361179249798225 39.46242754503716)";-0,361179249798225;39,4624275450372;NA
"200";"MONT-OLIVET";"emt";"Alcalde Reig - Pont del Regne";"POINT (-0.360132542305357 39.461807121832805)";-0,360132542305357;39,4618071218328;NA
"201";"MONT-OLIVET";"emt";"Alcalde Reig (impar) - Pere Aleixandre";"POINT (-0.358717008018068 39.459861493499595)";-0,358717008018068;39,4598614934996;NA
"202";"MONT-OLIVET";"emt";"Peris i Valero - Escultor Josep Capuz";"POINT (-0.363177535719752 39.462132549161765)";-0,363177535719752;39,4621325491618;NA
"203";"MONT-OLIVET";"emt";"la Plata - Sapadors";"POINT (-0.365744273562781 39.455844060247586)";-0,365744273562781;39,4558440602476;NA
"204";"MONT-OLIVET";"emt";"Peris i Valero - Pere Aleixandre";"POINT (-0.365600113126539 39.46106769649227)";-0,365600113126539;39,4610676964923;NA
"205";"MONT-OLIVET";"emt";"Escultor J. Capuz (impar) - Pere Aleixandre";"POINT (-0.361295756879039 39.459867190398676)";-0,361295756879039;39,4598671903987;NA
"206";"MONT-OLIVET";"emt";"Escultor J. Capuz (impar) - Llu�s Oliag";"POINT (-0.3623830826831 39.46152867971114)";-0,3623830826831;39,4615286797111;NA
"207";"MONT-OLIVET";"emt";"Escultor J. Capuz (par) - Llu�s Oliag";"POINT (-0.362602167785322 39.46151914762836)";-0,362602167785322;39,4615191476284;NA
"208";"LA RAIOSA";"emt";"Carcaixent - Giorgeta";"POINT (-0.386196915504676 39.460713402068755)";-0,386196915504676;39,4607134020688;NA
"209";"LA RAIOSA";"emt";"Uruguai (par) - Jeroni Muny�s";"POINT (-0.386971116713817 39.45831059062129)";-0,386971116713817;39,4583105906213;NA
"210";"LA RAIOSA";"emt";"Giorgeta - Ctra. D'Escriv�";"POINT (-0.383933737438978 39.45799713059618)";-0,383933737438978;39,4579971305962;NA
"211";"LA RAIOSA";"emt";"Sant Vicent M�rtir - Dolores Alcaide";"POINT (-0.38407417676807 39.45587033537401)";-0,38407417676807;39,455870335374;NA
"212";"SAFRANAR";"emt";"Jos� Roca Coll - M�sic Gomis";"POINT (-0.398589520267973 39.45929139588407)";-0,398589520267973;39,4592913958841;NA
"213";"SAFRANAR";"emt";"Arxiduc Carles - M�sic Gomis";"POINT (-0.401318406387666 39.458800833712964)";-0,401318406387666;39,458800833713;NA
"214";"SAFRANAR";"emt";"Arxiduc Carles - Fra Jun�per Serra";"POINT (-0.399211616366586 39.46082078610567)";-0,399211616366586;39,4608207861057;NA
"215";"CIUTAT DE LES ARTS I DE LES CIENCIES";"emt";"Inst. Obrer de Val. (impar) - Autopista Saler";"POINT (-0.357837881972911 39.45581142962912)";-0,357837881972911;39,4558114296291;NA
"216";"CIUTAT DE LES ARTS I DE LES CIENCIES";"emt";"Montolivet - Pere Aleixandre";"POINT (-0.358574362631142 39.45917142170531)";-0,358574362631142;39,4591714217053;NA
"217";"CIUTAT DE LES ARTS I DE LES CIENCIES";"emt";"Actor Antonio Ferrandis (par) - Amado Granell Mesado";"POINT (-0.358131461210656 39.450866961204134)";-0,358131461210656;39,4508669612041;NA
"218";"CIUTAT DE LES ARTS I DE LES CIENCIES";"emt";"Actor Antonio Ferrandis (par) - En Corts";"POINT (-0.362639128635278 39.448848573516734)";-0,362639128635278;39,4488485735167;NA
"219";"CIUTAT DE LES ARTS I DE LES CIENCIES";"emt";"Amado Granell Mesado (impar) - Antonio Ferrandis";"POINT (-0.359339860414313 39.45139828460346)";-0,359339860414313;39,4513982846035;NA
"220";"EN CORTS";"emt";"la Plata - Ausi�s March";"POINT (-0.372036476911595 39.45318765032579)";-0,372036476911595;39,4531876503258;NA
"221";"EN CORTS";"emt";"la Plata - Fonteta Sant Llu�s";"POINT (-0.371796411601765 39.4528969128417)";-0,371796411601765;39,4528969128417;NA
"222";"EN CORTS";"emt";"la Plata - Actriu Pepita Serrador";"POINT (-0.368828603209788 39.45412586037055)";-0,368828603209788;39,4541258603706;NA
"223";"EN CORTS";"emt";"Fonteta Sant Llu�s - B�rnia";"POINT (-0.371621617221309 39.45396293656684)";-0,371621617221309;39,4539629365668;NA
"224";"EN CORTS";"emt";"Puigcampana - Fonteta Sant Llu�s";"POINT (-0.371225857357299 39.454949909722735)";-0,371225857357299;39,4549499097227;NA
"225";"NA ROVELLA";"emt";"la Plata - M�sic �scar Espl�";"POINT (-0.362742084105596 39.45678324782116)";-0,362742084105596;39,4567832478212;NA
"226";"NA ROVELLA";"emt";"Amado Granell Mesado (par) - Arabista Ambrosio Huici";"POINT (-0.362674664044686 39.455528053948)";-0,362674664044686;39,455528053948;NA
"227";"NA ROVELLA";"emt";"Fonteta Sant Llu�s - Alg�mia d'Alfara";"POINT (-0.370664355832295 39.45161529943054)";-0,370664355832295;39,4516152994305;NA
"228";"NA ROVELLA";"emt";"Fonteta Sant Llu�s (impar) - �ngel Villena";"POINT (-0.368403051602577 39.448582834672706)";-0,368403051602577;39,4485828346727;NA
"229";"NA ROVELLA";"emt";"Fonteta Sant Llu�s - Germans Maristes";"POINT (-0.369564963308586 39.45024189393834)";-0,369564963308586;39,4502418939383;NA
"230";"NA ROVELLA";"emt";"Germans Maristes - Jos� Dur�n Mart�nez";"POINT (-0.363150717029329 39.453621062739685)";-0,363150717029329;39,4536210627397;NA
"231";"NA ROVELLA";"emt";"Germans Maristes (par) - Poliesportiu";"POINT (-0.366444728353371 39.4519405644653)";-0,366444728353371;39,4519405644653;NA
"232";"NA ROVELLA";"emt";"Germans Maristes - Institut Jordi de Sant Jordi";"POINT (-0.362914077571615 39.45341290560313)";-0,362914077571615;39,4534129056031;NA
"233";"NA ROVELLA";"emt";"Fonteta Sant Llu�s (par) - �ngel Villena";"POINT (-0.368622425828102 39.448505911378014)";-0,368622425828102;39,448505911378;NA
"234";"NA ROVELLA";"emt";"la Plata - Poeta Miguel Hern�ndez";"POINT (-0.3657235785492 39.455462248659714)";-0,3657235785492;39,4554622486597;NA
"235";"SANT ISIDRE";"emt";"Arquitecte Segura de Lago - Dr. Rafael Bartual";"POINT (-0.403087528333864 39.45352254228501)";-0,403087528333864;39,453522542285;NA
"236";"SANT ISIDRE";"emt";"Jos� Andreu Alabarta - Mariano de Cavia";"POINT (-0.403743785200962 39.45258046308132)";-0,403743785200962;39,4525804630813;NA
"237";"SANT ISIDRE";"emt";"Jos� Andreu Alabarta - Professor �ngel Lacalle";"POINT (-0.404771381334554 39.454266538026744)";-0,404771381334554;39,4542665380267;NA
"238";"MALILLA";"emt";"Malilla (par) - Bernat Descoll";"POINT (-0.379312906328518 39.45048750531328)";-0,379312906328518;39,4504875053133;NA
"239";"MALILLA";"emt";"Malilla (impar) - Illa Formentera";"POINT (-0.379861470936197 39.4468878733452)";-0,379861470936197;39,4468878733452;NA
"240";"MALILLA";"emt";"Malilla (impar) - Illa Cabrera";"POINT (-0.379293706841254 39.44936069884599)";-0,379293706841254;39,449360698846;NA
"241";"MALILLA";"emt";"Pedreguer - Juan Ram�n Jim�nez";"POINT (-0.37605004351617 39.45375859247738)";-0,37605004351617;39,4537585924774;NA
"242";"MALILLA";"emt";"Bulevard Sud (impar) - Hospital la Fe";"POINT (-0.377274913243172 39.44545289725402)";-0,377274913243172;39,445452897254;NA
"243";"MALILLA";"emt";"Bulevard Sud - Ausi�s March";"POINT (-0.369540054297488 39.44559215096376)";-0,369540054297488;39,4455921509638;NA
"244";"MALILLA";"emt";"Ausi�s March - Pianista Mart�nez Carrasco";"POINT (-0.369580900127411 39.44755339390632)";-0,369580900127411;39,4475533939063;NA
"245";"MALILLA";"emt";"Bulevard Sud - Ing. Joaqu�n Benlloch";"POINT (-0.37329215259463 39.44548421724759)";-0,37329215259463;39,4454842172476;NA
"246";"MALILLA";"emt";"Olt� - Joaqu�n Benlloch";"POINT (-0.376667530525118 39.45254661159856)";-0,376667530525118;39,4525466115986;NA
"247";"FAVARA";"emt";"Tres Creus - Gaspar Aguilar";"POINT (-0.395198164504421 39.45032740268518)";-0,395198164504421;39,4503274026852;NA
"248";"L'HORT DE SENABRE";"emt";"Dr. Tom�s Sala - Jer�nima Gal�s";"POINT (-0.393463993419144 39.44907179012227)";-0,393463993419144;39,4490717901223;NA
"249";"L'HORT DE SENABRE";"emt";"Primer de Maig - Gaspar Aguilar";"POINT (-0.393953270570453 39.45038111661185)";-0,393953270570453;39,4503811166119;NA
"250";"L'HORT DE SENABRE";"emt";"Gaspar Aguilar - Calvo Acacio";"POINT (-0.391738205763562 39.45411973713018)";-0,391738205763562;39,4541197371302;NA
"251";"NATZARET";"emt";"Cam� del Canal (impar) - Guitarrista T�rrega";"POINT (-0.33536191339339 39.44726283111445)";-0,33536191339339;39,4472628311145;NA
"252";"NATZARET";"emt";"Punta al Mar - Algemes�";"POINT (-0.333287263697986 39.44458955353036)";-0,333287263697986;39,4445895535304;NA
"253";"NATZARET";"emt";"Punta al Mar - Cam� Canal";"POINT (-0.335218922692874 39.444836644354936)";-0,335218922692874;39,4448366443549;NA
"254";"LA CREU COBERTA";"emt";"Sant Vicent M�rtir - Altamira";"POINT (-0.385278923540447 39.44914622710475)";-0,385278923540447;39,4491462271047;NA
"255";"LA CREU COBERTA";"emt";"Carters (impar) - Primer de Maig";"POINT (-0.389386192226988 39.44834469621467)";-0,389386192226988;39,4483446962147;NA
"256";"LA CREU COBERTA";"emt";"Carters - Moss�n Febrer";"POINT (-0.388974219900704 39.45017108355651)";-0,388974219900704;39,4501710835565;NA
"257";"CAMI REAL";"emt";"Cam� vell Picassent - Tanatori Municipal";"POINT (-0.397940433828818 39.44294462969568)";-0,397940433828818;39,4429446296957;NA
"258";"CAMI REAL";"emt";"Gaspar Aguilar -Crematorio";"POINT (-0.395486872935855 39.449110110563154)";-0,395486872935855;39,4491101105632;NA
"259";"CAMI REAL";"emt";"Jos� Soto Mic� - S�ndic Mojol�";"POINT (-0.388694436379327 39.44010948516621)";-0,388694436379327;39,4401094851662;NA
"260";"CAMI REAL";"emt";"Sant Vicent M�rtir (impar) - Arquebisbe Olaechea";"POINT (-0.387111412216923 39.44423329523164)";-0,387111412216923;39,4442332952316;NA
"261";"CAMI REAL";"emt";"Sant Vicent M�rtir - Rambleta";"POINT (-0.385839971835226 39.447393745828656)";-0,385839971835226;39,4473937458287;NA
"262";"LA FONTETA S.LLUIS";"emt";"Gravador Jord�n - Escultor Pastor";"POINT (-0.367516642430476 39.44431915951616)";-0,367516642430476;39,4443191595162;NA
"263";"SANT MARCEL.LI";"emt";"Dr. Tom�s Sala - Carters";"POINT (-0.390555271544551 39.447666187077964)";-0,390555271544551;39,447666187078;NA
"264";"SANT MARCEL.LI";"emt";"Pius IX - Salvador Perles";"POINT (-0.393722168685805 39.44323173621581)";-0,393722168685805;39,4432317362158;NA
"265";"SANT MARCEL.LI";"emt";"Pius IX - Cabanilles";"POINT (-0.392978669514509 39.445156380092705)";-0,392978669514509;39,4451563800927;NA
"266";"L'AMISTAT";"emt";"Dr. Manuel Candela (impar) - Blasco Ib��ez";"POINT (-0.348411997440467 39.472937552143755)";-0,348411997440467;39,4729375521438;NA
"267";"L'AMISTAT";"emt";"Blasco Ib��ez - Rep�blica Argentina";"POINT (-0.350892284374141 39.474750827898674)";-0,350892284374141;39,4747508278987;NA
"268";"L'AMISTAT";"emt";"Sants Just i Pastor - Rep�blica Argentina";"POINT (-0.352827166969234 39.471175831087805)";-0,352827166969234;39,4711758310878;NA
"269";"L'AMISTAT";"emt";"Cardenal Benlloch - Dr. Vicente Pallar�s";"POINT (-0.352849726404145 39.47417319954802)";-0,352849726404145;39,474173199548;NA
"270";"LA PUNTA";"emt";"Jes�s Morante Borr�s (III)";"POINT (-0.344028783672526 39.447905249383)";-0,344028783672526;39,447905249383;NA
"271";"LA PUNTA";"emt";"Jes�s Morante Borr�s (IX)";"POINT (-0.344280996960301 39.44937376800648)";-0,344280996960301;39,4493737680065;NA
"272";"LA PUNTA";"emt";"Font d'en Corts (par) - Davant Alqueria Reial";"POINT (-0.359659161350969 39.4474420273821)";-0,359659161350969;39,4474420273821;NA
"273";"LA PUNTA";"emt";"Punta al Mar (par) - Canal";"POINT (-0.338268176521987 39.44528983829806)";-0,338268176521987;39,4452898382981;NA
"274";"LA PUNTA";"emt";"Eduardo Primo Y�fera - Front Oceanogr�fic";"POINT (-0.347712208657256 39.45208916997466)";-0,347712208657256;39,4520891699747;NA
"275";"LA PUNTA";"emt";"Barraques del Figuero (impar) - Llauradors";"POINT (-0.34038445093481 39.45073021501919)";-0,34038445093481;39,4507302150192;NA
"276";"LA PUNTA";"emt";"Font d'en Corts - Levantina Alegre";"POINT (-0.360719777376501 39.44867906167321)";-0,360719777376501;39,4486790616732;NA
"277";"LA PUNTA";"emt";"Font d'en Corts (par) - Roig de lagarda";"POINT (-0.358257360851878 39.445592378421466)";-0,358257360851878;39,4455923784215;NA
"278";"LA PUNTA";"emt";"Font d'en Corts (par) - Matador d'en Corts";"POINT (-0.356017966253402 39.44271548748933)";-0,356017966253402;39,4427154874893;NA
"279";"LA PUNTA";"emt";"Font d'en Corts (impar) - Mercavalencia";"POINT (-0.354785974432929 39.43715190627819)";-0,354785974432929;39,4371519062782;NA
"280";"LA PUNTA";"emt";"Font d'en Corts (impar) - Matador d'en Corts";"POINT (-0.356750893504841 39.44336016117471)";-0,356750893504841;39,4433601611747;NA
"281";"LA PUNTA";"emt";"Font d'en Corts - Casa de Roc";"POINT (-0.360671507077655 39.44871724391699)";-0,360671507077655;39,448717243917;NA
"282";"LA PUNTA";"emt";"Carrera del Riu - Entrada casa Rosquilla";"POINT (-0.342995095766761 39.43211300210331)";-0,342995095766761;39,4321130021033;NA
"283";"LA CARRASCA";"emt";"Ramon Llull - Bernat Fenollar";"POINT (-0.346259175004876 39.476993876858906)";-0,346259175004876;39,4769938768589;NA
"284";"LA CARRASCA";"emt";"Tarongers - Ramon Llull";"POINT (-0.344696123269438 39.47990610196957)";-0,344696123269438;39,4799061019696;NA
"285";"LA CARRASCA";"emt";"Catalunya - Clariano";"POINT (-0.351856667163578 39.48077570159943)";-0,351856667163578;39,4807757015994;NA
"286";"LA CARRASCA";"emt";"Tarongers - Facultat d'Economia";"POINT (-0.340036037151851 39.4781153383509)";-0,340036037151851;39,4781153383509;NA
"287";"LA CARRASCA";"emt";"Tarongers - Aparcament";"POINT (-0.335931992053432 39.47692955297913)";-0,335931992053432;39,4769295529791;NA
"288";"LA CARRASCA";"emt";"Tarongers - Col.legi Major";"POINT (-0.339907147267004 39.478523276358096)";-0,339907147267004;39,4785232763581;NA
"289";"EL GRAU";"emt";"Marcos Sopena - Port";"POINT (-0.328409801019433 39.46290404122742)";-0,328409801019433;39,4629040412274;NA
"290";"EL GRAU";"emt";"Port - Joan Josep Sister";"POINT (-0.333232778009229 39.45999093834055)";-0,333232778009229;39,4599909383406;NA
"291";"CIUTAT JARDI";"emt";"Blasco Ib��ez - Hondures";"POINT (-0.345929628389608 39.473890944637155)";-0,345929628389608;39,4738909446372;NA
"292";"CIUTAT JARDI";"emt";"Blasco Ib��ez - Actriu Encarna M��ez";"POINT (-0.346215855073137 39.472987867898)";-0,346215855073137;39,472987867898;NA
"293";"CIUTAT JARDI";"emt";"Sants Just i Pastor - Humanista Furi�";"POINT (-0.345229018870389 39.46896805392755)";-0,345229018870389;39,4689680539275;NA
"294";"NOU MOLES";"emt";"Petxina - P�rez Galdos";"POINT (-0.396753852343552 39.474647644059075)";-0,396753852343552;39,4746476440591;NA
"295";"NOU MOLES";"emt";"Rac� d'Adem�s - Conselleries";"POINT (-0.40275559778262 39.471037956782695)";-0,40275559778262;39,4710379567827;NA
"296";"NOU MOLES";"emt";"Democr�cia - Baladre";"POINT (-0.397398676949965 39.47398903822188)";-0,397398676949965;39,4739890382219;NA
"297";"NOU MOLES";"emt";"P�rez Gald�s - Torres Torres";"POINT (-0.394104817593372 39.472380841000344)";-0,394104817593372;39,4723808410003;NA
"298";"NOU MOLES";"emt";"Petxina - Rac� d'Adem�s";"POINT (-0.402464001570354 39.473523372195054)";-0,402464001570354;39,4735233721951;NA
"299";"NOU MOLES";"emt";"Brasil - Artur Piera";"POINT (-0.395186590160549 39.47071891238284)";-0,395186590160549;39,4707189123828;NA
"300";"BENIMAMET";"emt";"Fires(par) - Cementeri";"POINT (-0.424304690792806 39.50567764369276)";-0,424304690792806;39,5056776436928;NA
"301";"BENIMAMET";"emt";"Moss�n Miguel Tarin (impar) - Miquel Agra�t";"POINT (-0.416348520031262 39.49876077988764)";-0,416348520031262;39,4987607798876;NA
"302";"BENIMAMET";"emt";"Campament (par) - Joaqu�n Mar�n";"POINT (-0.422766621516215 39.50159272074667)";-0,422766621516215;39,5015927207467;NA
"303";"BENIMAMET";"emt";"Polvor� - Campament";"POINT (-0.425126414896004 39.50065812310018)";-0,425126414896004;39,5006581231002;NA
"304";"BENIMAMET";"emt";"Moss�n Miguel Tarin (par) - Carretera de Paterna";"POINT (-0.416241551621997 39.49763995654948)";-0,416241551621997;39,4976399565495;NA
"305";"SOTERNES";"emt";"Nou d'Octubre (par) - Democr�cia";"POINT (-0.405593132617809 39.47208312163937)";-0,405593132617809;39,4720831216394;NA
"306";"SOTERNES";"emt";"Cid - Pere Maria Orts";"POINT (-0.414158491911775 39.46971974751851)";-0,414158491911775;39,4697197475185;NA
"307";"LA LLUM";"emt";"Cid (via servici) - Alejandro Volta";"POINT (-0.414760041024482 39.46914746544203)";-0,414760041024482;39,469147465442;NA
"308";"LA LLUM";"emt";"Marconi - Barri de la Llum";"POINT (-0.414457721204988 39.46747770567076)";-0,414457721204988;39,4674777056708;NA
"309";"LA LLUM";"emt";"Pare Esteban Pernet (impar) - Miquel Adlert";"POINT (-0.412594247830284 39.4669902943755)";-0,412594247830284;39,4669902943755;NA
"310";"LA LLUM";"emt";"Cid - Marconi";"POINT (-0.413211080921849 39.4692331758326)";-0,413211080921849;39,4692331758326;NA
"311";"BENIFERRI";"emt";"Camp de T�ria - Palau de Congressos";"POINT (-0.400991230648756 39.495496452987915)";-0,400991230648756;39,4954964529879;NA
"312";"EL PALMAR";"emt";"Vicent Baldov� - Pintor Mart� Girb�s";"POINT (-0.317539483672634 39.31408586690827)";-0,317539483672634;39,3140858669083;NA
"313";"EL PALMAR";"emt";"Albufera - Pl. de la Sequiota";"POINT (-0.317688908295219 39.31058800095439)";-0,317688908295219;39,3105880009544;NA
"314";"LA FONTSANTA";"emt";"Pare Esteban Pernet - Casa Miseric�rdia";"POINT (-0.409533189206523 39.46713858582493)";-0,409533189206523;39,4671385858249;NA
"315";"LA FONTSANTA";"emt";"Nou d'Octubre - Av. del Cid";"POINT (-0.406090500639121 39.46987498723146)";-0,406090500639121;39,4698749872315;NA
"316";"LA FONTSANTA";"emt";"Escultor Salzillo - Casa de la Miseric�rdia";"POINT (-0.409652569385612 39.46574415462234)";-0,409652569385612;39,4657441546223;NA
"317";"LA FONTSANTA";"emt";"Col�nia Esp. de M�xic - Casa de la Miseric�rdia";"POINT (-0.409185435537413 39.46459502324851)";-0,409185435537413;39,4645950232485;NA
"318";"SANT LLORENS";"emt";"Valladolid - Vinar�s";"POINT (-0.362462558009394 39.489573617512995)";-0,362462558009394;39,489573617513;NA
"319";"SANT LLORENS";"emt";"Alfahuir - Cercle de Belles Arts";"POINT (-0.362544368489408 39.491016965149136)";-0,362544368489408;39,4910169651491;NA
"320";"SANT LLORENS";"emt";"Alfahuir - Dr. Jos� Chabas Bordehore";"POINT (-0.361475418593366 39.492258155583386)";-0,361475418593366;39,4922581555834;NA
"321";"SANT LLORENS";"emt";"Alfahuir - Arquitecte Tols�";"POINT (-0.364319915764872 39.490656724966605)";-0,364319915764872;39,4906567249666;NA
"322";"ELS ORRIOLS";"emt";"Sant Vicent de Pa�l - Pe��scola";"POINT (-0.370581469389112 39.49088065902218)";-0,370581469389112;39,4908806590222;NA
"323";"ELS ORRIOLS";"emt";"Santiago Rusi�ol - Sant Joan Bosco";"POINT (-0.368873772258834 39.496929850508835)";-0,368873772258834;39,4969298505088;NA
"324";"ELS ORRIOLS";"emt";"Duc de Mandas - Sant Vicent de Pa�l";"POINT (-0.368276252121434 39.492938231744716)";-0,368276252121434;39,4929382317447;NA
"325";"ELS ORRIOLS";"emt";"Duc de Mandas (impar) - Arquitecto Rodr�guez";"POINT (-0.370131547412438 39.49435524564815)";-0,370131547412438;39,4943552456482;NA
"326";"ELS ORRIOLS";"emt";"Pare Vi�as - Reig Genov�s";"POINT (-0.371618842150538 39.492169860957766)";-0,371618842150538;39,4921698609578;NA
"327";"ELS ORRIOLS";"emt";"Constituci� - Sant Joan de la Penya";"POINT (-0.370815519083011 39.49653480852322)";-0,370815519083011;39,4965348085232;NA
"328";"EL PERELLONET";"emt";"Gavines - Entrada Trenca Perols";"POINT (-0.294625818572496 39.30518311578943)";-0,294625818572496;39,3051831157894;NA
"329";"EL PERELLONET";"emt";"Gavines (par) - Platja";"POINT (-0.289231504513478 39.2975961245906)";-0,289231504513478;39,2975961245906;NA
"330";"EL PERELLONET";"emt";"Gavines (par) - Sirena";"POINT (-0.287075377442423 39.29380159573338)";-0,287075377442423;39,2938015957334;NA
"331";"EL PERELLONET";"emt";"Gavines - Entrada Paridera";"POINT (-0.285814994780213 39.29168916552907)";-0,285814994780213;39,2916891655291;NA
"332";"EL PERELLONET";"emt";"Gavines (par) - Les Escales";"POINT (-0.282038427479419 39.285076860228195)";-0,282038427479419;39,2850768602282;NA
"333";"EL PERELLONET";"emt";"Gavines (impar) - Les Escales";"POINT (-0.281926094646341 39.285205765839756)";-0,281926094646341;39,2852057658398;NA
"334";"EL PERELLONET";"emt";"Gavines (impar) - Sirena";"POINT (-0.286942298874404 39.293804078055445)";-0,286942298874404;39,2938040780554;NA
"335";"EL PERELLONET";"emt";"Gavines (impar) - Platja";"POINT (-0.289152315546704 39.29762310788901)";-0,289152315546704;39,297623107889;NA
"336";"EL PERELLONET";"emt";"Gavines - Les dunes";"POINT (-0.291694378033598 39.30210161929569)";-0,291694378033598;39,3021016192957;NA
"337";"VARA DE QUART";"emt";"Tres Creus - Segona Rep�blica Espanyola";"POINT (-0.402776572045271 39.45862874771576)";-0,402776572045271;39,4586287477158;NA
"338";"VARA DE QUART";"emt";"Fra Jun�per Serra (par) - Torrent";"POINT (-0.400566460555594 39.46151802172516)";-0,400566460555594;39,4615180217252;NA
"339";"VARA DE QUART";"emt";"Fra Jun�per Serra - Tres Forques";"POINT (-0.400673645703972 39.46313453303588)";-0,400673645703972;39,4631345330359;NA
"340";"VARA DE QUART";"emt";"Arxiduc Carles (par) - Fra Jun�per Serra";"POINT (-0.399453644377692 39.461028270299046)";-0,399453644377692;39,461028270299;NA
"341";"VARA DE QUART";"emt";"Arxiduc Carles - Puebla Valverde";"POINT (-0.401147485529419 39.45950889079816)";-0,401147485529419;39,4595088907982;NA
"342";"CIUTAT FALLERA";"emt";"Andreu Alfaro - Louis Braille";"POINT (-0.394939889012024 39.49751232788578)";-0,394939889012024;39,4975123278858;NA
"343";"LA MALVA-ROSA";"emt";"Passeig Mar�tim - Riu Tajo";"POINT (-0.324621484271308 39.47706058630089)";-0,324621484271308;39,4770605863009;NA
"344";"LA MALVA-ROSA";"emt";"Passeig Mar�tim - Mendiz�bal";"POINT (-0.325202418774579 39.48355230572199)";-0,325202418774579;39,483552305722;NA
"345";"LA MALVA-ROSA";"emt";"Isabel de Villena - Font d'en Carr�s";"POINT (-0.325800357040019 39.481158039795865)";-0,325800357040019;39,4811580397959;NA
"346";"LA MALVA-ROSA";"emt";"Isabel de Villena - Vicent la Roda";"POINT (-0.325857508568648 39.478965913291994)";-0,325857508568648;39,478965913292;NA
"347";"LA MALVA-ROSA";"emt";"Tarongers - Pare Ant�n Mart�";"POINT (-0.329062021668043 39.47543585553358)";-0,329062021668043;39,4754358555336;NA
"348";"LA MALVA-ROSA";"emt";"Cavite - Vicent la Roda";"POINT (-0.326664700972855 39.479115473196565)";-0,326664700972855;39,4791154731966;NA
"349";"LA MALVA-ROSA";"emt";"la Malva-rosa - Mendiz�bal";"POINT (-0.327856911553802 39.48392796448914)";-0,327856911553802;39,4839279644891;NA
"350";"LA MALVA-ROSA";"emt";"la Malva-rosa - Sant Rafael";"POINT (-0.328148407391962 39.47911770719247)";-0,328148407391962;39,4791177071925;NA
"351";"LA MALVA-ROSA";"emt";"la Malva-rosa - Sant Joan de Deu";"POINT (-0.328164430156983 39.477378401724025)";-0,328164430156983;39,477378401724;NA
"352";"LA MALVA-ROSA";"emt";"la Malva-rosa - Riu Tajo";"POINT (-0.327852553284888 39.47624874368729)";-0,327852553284888;39,4762487436873;NA
"353";"CARPESA";"emt";"Palmaret - Rosa dels Vents (davant)";"POINT (-0.381422022698824 39.516148119016556)";-0,381422022698824;39,5161481190166;NA
"354";"CARPESA";"emt";"Palmaret - Rosa dels Vents";"POINT (-0.381396363325439 39.51621501617718)";-0,381396363325439;39,5162150161772;NA
"355";"BORBOTO";"emt";"Guillermina Medrano (impar) - Borbot�";"POINT (-0.388667802034172 39.51418136047701)";-0,388667802034172;39,514181360477;NA
"356";"BORBOTO";"emt";"Guillermina Medrano (par) - Borbot�";"POINT (-0.388588370451871 39.514168764549986)";-0,388588370451871;39,51416876455;NA
"357";"BORBOTO";"emt";"Cam� de Montcada (impar) - Matador";"POINT (-0.387011432391209 39.515336247200096)";-0,387011432391209;39,5153362472001;NA
"358";"POBLE NOU";"emt";"Cam� de Montcada - Cam� Alqueria de Marquet";"POINT (-0.386330862273919 39.512201565781844)";-0,386330862273919;39,5122015657818;NA
"359";"POBLE NOU";"emt";"Constituci� - Cam� �ngel";"POINT (-0.370300392640589 39.49911632107663)";-0,370300392640589;39,4991163210766;NA
"360";"POBLE NOU";"emt";"Cam� de Montcada - Entrada Cam� Carpesa";"POINT (-0.382736765843683 39.50287550396186)";-0,382736765843683;39,5028755039619;NA
"361";"POBLE NOU";"emt";"Cam� de Montcada - Poble Nou";"POINT (-0.383659140286066 39.505061174673976)";-0,383659140286066;39,505061174674;NA
"362";"POBLE NOU";"emt";"Cam� de Montcada - Alqueria Paella";"POINT (-0.385823182845219 39.51007128309256)";-0,385823182845219;39,5100712830926;NA
"363";"LES CASES DE BARCENA";"emt";"Cases de B�rcena - Rotonda";"POINT (-0.357115551867011 39.52284512812437)";-0,357115551867011;39,5228451281244;NA
"364";"LES CASES DE BARCENA";"emt";"Cases de B�rcena II";"POINT (-0.358622057494862 39.52056154099681)";-0,358622057494862;39,5205615409968;NA
"365";"LES CASES DE BARCENA";"emt";"Cases de B�rcena V";"POINT (-0.358761997551269 39.520613459856335)";-0,358761997551269;39,5206134598563;NA
"366";"SANT PAU";"emt";"Camp de T�ria (impar) - Corts Valencianes";"POINT (-0.403370772981297 39.49391464639543)";-0,403370772981297;39,4939146463954;NA
"367";"SANT PAU";"emt";"Corts Valencianes (impar) - la Safor";"POINT (-0.400013880478136 39.49077172266539)";-0,400013880478136;39,4907717226654;NA
"368";"SANT PAU";"emt";"Mestre Rodrigo - General Avil�s";"POINT (-0.401860555507556 39.48376660662514)";-0,401860555507556;39,4837666066251;NA
"369";"SANT PAU";"emt";"la Safor - Mestre Rodrigo";"POINT (-0.404428021054875 39.48828145603774)";-0,404428021054875;39,4882814560377;NA
"370";"SANT PAU";"emt";"Mestre Rodrigo (Impar) - la Safor";"POINT (-0.404582606368925 39.48696385635098)";-0,404582606368925;39,486963856351;NA
"371";"SANT PAU";"emt";"Terrateig - Jorge Com�n";"POINT (-0.403549266435096 39.48109017465347)";-0,403549266435096;39,4810901746535;NA
"372";"SANT PAU";"emt";"Vall de la Ballestera (impar) - Hern�ndez L�zaro";"POINT (-0.402888184204892 39.47846806832238)";-0,402888184204892;39,4784680683224;NA
"373";"SANT PAU";"emt";"Corts Valencianes - l'Alt Maestrat";"POINT (-0.402256448631946 39.49395081859544)";-0,402256448631946;39,4939508185954;NA
"374";"SANT PAU";"emt";"Manuel de Falla - Grup Parpall�";"POINT (-0.401163460040423 39.47563821559847)";-0,401163460040423;39,4756382155985;NA
"375";"FAITANAR";"emt";"Real de Madrid (par) - Eduardo Dato";"POINT (-0.392912098410768 39.42992901172951)";-0,392912098410768;39,4299290117295;NA
"376";"PINEDO";"emt";"Rotonda Carretera Montanyars - Pinedo";"POINT (-0.335974110067591 39.41949503157411)";-0,335974110067591;39,4194950315741;NA
"377";"PINEDO";"emt";"Carrera del Riu (par) - Camping Valencia";"POINT (-0.331681196656138 39.38808229054205)";-0,331681196656138;39,3880822905421;NA
"378";"PINEDO";"emt";"Carrera del Riu - Montanyars";"POINT (-0.335259205600236 39.40979165576675)";-0,335259205600236;39,4097916557668;NA
"379";"PINEDO";"emt";"Carrera del Riu - Rotonda Apolo de Pinedo";"POINT (-0.340989098699466 39.42484621889218)";-0,340989098699466;39,4248462188922;NA
"380";"PINEDO";"emt";"Travessia de Pinedo al Mar - Pasqual tatay";"POINT (-0.335788449932319 39.4217952279481)";-0,335788449932319;39,4217952279481;NA
"381";"PINEDO";"emt";"Carrera del Riu - Trav. Pinedo a la Mar";"POINT (-0.340624952143502 39.42169714921403)";-0,340624952143502;39,421697149214;NA
"382";"PINEDO";"emt";"Carrera del Riu - Moss�n Cuenca";"POINT (-0.34034199912552 39.421675901319446)";-0,34034199912552;39,4216759013194;NA
"383";"CASTELLAR-L'OLIVERAL";"emt";"Principal - El Caroig";"POINT (-0.36270710904873 39.432436236290506)";-0,36270710904873;39,4324362362905;NA
"384";"CASTELLAR-L'OLIVERAL";"emt";"Crist del Refugi - Davant Sant Agust�";"POINT (-0.363944389260679 39.42448599066685)";-0,363944389260679;39,4244859906669;NA
"385";"CASTELLAR-L'OLIVERAL";"emt";"Vicent Puchol - Arbres";"POINT (-0.36391501758219 39.42785309699309)";-0,36391501758219;39,4278530969931;NA
"386";"CASTELLAR-L'OLIVERAL";"emt";"Rib�s(par) - Dr. Ruiz Comes";"POINT (-0.359874854382689 39.431119896463585)";-0,359874854382689;39,4311198964636;NA
"387";"CASTELLAR-L'OLIVERAL";"emt";"el Tremolar - Crist del Refugi";"POINT (-0.361143800669863 39.42362174427913)";-0,361143800669863;39,4236217442791;NA
"388";"CASTELLAR-L'OLIVERAL";"emt";"Principal - Cam� del Rib�s";"POINT (-0.362442227438779 39.43266130258768)";-0,362442227438779;39,4326613025877;NA
"389";"CASTELLAR-L'OLIVERAL";"emt";"Rib�s (par) - Ador";"POINT (-0.360760839693136 39.432339270570075)";-0,360760839693136;39,4323392705701;NA
"390";"CASTELLAR-L'OLIVERAL";"emt";"Gl�ria (par) - Oliveral";"POINT (-0.364322887973154 39.422133176469906)";-0,364322887973154;39,4221331764699;NA
"391";"CASTELLAR-L'OLIVERAL";"emt";"Cam� de les Vaques (impar)";"POINT (-0.370426823801024 39.423549765306745)";-0,370426823801024;39,4235497653067;NA
"392";"CASTELLAR-L'OLIVERAL";"emt";"el Tremolar - Cases Grill";"POINT (-0.359511070869642 39.42329665668537)";-0,359511070869642;39,4232966566854;NA
"393";"LA TORRE";"emt";"Real de Madrid - Algar del Pal�ncia";"POINT (-0.391611576420545 39.433295368310496)";-0,391611576420545;39,4332953683105;NA
"394";"BENIFARAIG";"emt";"Ferrer i Bign� - Sant�ssima Creu";"POINT (-0.385665742647265 39.52955699809077)";-0,385665742647265;39,5295569980908;NA
"395";"BENIFARAIG";"emt";"Benifaraig a Montcada - Casa Silvestre";"POINT (-0.386045345615822 39.525253416878314)";-0,386045345615822;39,5252534168783;NA
"396";"BENIFARAIG";"emt";"Benifaraig a Montcada - Boquera";"POINT (-0.386220977473509 39.525266377435614)";-0,386220977473509;39,5252663774356;NA
"397";"BENICALAP";"emt";"Joan XXIII - Francisco Comes Martinez";"POINT (-0.383721443942592 39.49511572360757)";-0,383721443942592;39,4951157236076;NA
"398";"BENICALAP";"emt";"Pere Cabanes - Cam� Montcada";"POINT (-0.381563819915175 39.49361995112007)";-0,381563819915175;39,4936199511201;NA
"399";"BENICALAP";"emt";"Equador - General Llorens";"POINT (-0.388186160210307 39.493284955928594)";-0,388186160210307;39,4932849559286;NA
"400";"BENICALAP";"emt";"Dr. Peset Aleixandre - Joan XXIII";"POINT (-0.382982637517231 39.49017858073073)";-0,382982637517231;39,4901785807307;NA
"401";"BENICALAP";"emt";"Cam� de Montcada (impar) - Cambrils";"POINT (-0.380323140967834 39.494887266965634)";-0,380323140967834;39,4948872669656;NA
"402";"BENICALAP";"emt";"Louis Braille - Betx�";"POINT (-0.396210682171758 39.495678695386815)";-0,396210682171758;39,4956786953868;NA
"403";"TORREFIEL";"emt";"Pere Cabanes - Sant Dom�nec Savio";"POINT (-0.375328579526074 39.49498481632072)";-0,375328579526074;39,4949848163207;NA
"404";"TORREFIEL";"emt";"Sant Dom�nec Savio - Josep Esteve";"POINT (-0.375515906489423 39.49602289360078)";-0,375515906489423;39,4960228936008;NA
"405";"TORREFIEL";"emt";"M�sic Esp� - Gravador Fabregat";"POINT (-0.374198204867615 39.49696922166084)";-0,374198204867615;39,4969692216608;NA
"406";"TORREFIEL";"emt";"Dr. Peset Aleixandre - Felip Rinaldi";"POINT (-0.37611830285058 39.49173679404741)";-0,37611830285058;39,4917367940474;NA
"407";"TORREFIEL";"emt";"Pintor Jacomart - Alcany�s";"POINT (-0.379947383753308 39.49588894803474)";-0,379947383753308;39,4958889480347;NA
"408";"TORREFIEL";"emt";"Constituci� - Coronel Montesinos";"POINT (-0.373365748705412 39.49328618177368)";-0,373365748705412;39,4932861817737;NA
"409";"TORREFIEL";"emt";"Cecili Pla - Germans Machado";"POINT (-0.37715248147069 39.49852806996378)";-0,37715248147069;39,4985280699638;NA
"410";"TORREFIEL";"emt";"F�lix del R�o - Cam� de Montcada";"POINT (-0.379474786751787 39.491987581611475)";-0,379474786751787;39,4919875816115;NA
"411";"TORREFIEL";"emt";"Sant Dom�nec Savio - Constituci�";"POINT (-0.374108723472223 39.49239687321522)";-0,374108723472223;39,4923968732152;NA
"412";"TORREFIEL";"emt";"Cam� de Montcada (par) - Cambrils";"POINT (-0.380150691156228 39.494698789025186)";-0,380150691156228;39,4946987890252;NA
"413";"TORMOS";"emt";"Dr. Peset Aleixandre - Cam� de Montcada";"POINT (-0.378675153152933 39.490884077525905)";-0,378675153152933;39,4908840775259;NA
"414";"TORMOS";"emt";"Constituci� - Xest";"POINT (-0.375997647271162 39.48931260157838)";-0,375997647271162;39,4893126015784;NA
"415";"TORMOS";"emt";"Constituci� - Sarri�n";"POINT (-0.377473384587629 39.487358672043165)";-0,377473384587629;39,4873586720432;NA
"416";"SANT ANTONI";"emt";"Primat Reig - Ministre Luis Mayans";"POINT (-0.370742526633183 39.48954118678307)";-0,370742526633183;39,4895411867831;NA
"417";"BENIMACLET";"emt";"T�rig - Gu�rdia Civil";"POINT (-0.359115636208626 39.4822287934973)";-0,359115636208626;39,4822287934973;NA
"418";"BENIMACLET";"emt";"Lliri Blau - Mestre Ventura Pascual";"POINT (-0.357137026155388 39.48698529398155)";-0,357137026155388;39,4869852939815;NA
"419";"BENIMACLET";"emt";"Emili Bar� - Francesc Mart�nez";"POINT (-0.360459797380048 39.48829727334436)";-0,360459797380048;39,4882972733444;NA
"420";"BENIMACLET";"emt";"Primat Reig - Cam� Vera";"POINT (-0.357527672683902 39.48009959834807)";-0,357527672683902;39,4800995983481;NA
"421";"MARXALENES";"emt";"Reus - Alqueria de la Estrella";"POINT (-0.382809024185723 39.485722619222585)";-0,382809024185723;39,4857226192226;NA
"422";"MARXALENES";"emt";"Burjassot - M�laga";"POINT (-0.383178056838339 39.483812508872944)";-0,383178056838339;39,4838125088729;NA
"423";"MARXALENES";"emt";"Burjassot - Reus";"POINT (-0.385629912807477 39.485485046797045)";-0,385629912807477;39,485485046797;NA
"424";"MARXALENES";"emt";"Pla de la Sa�dia - Pont Sant Josep";"POINT (-0.381429099340115 39.482656650372085)";-0,381429099340115;39,4826566503721;NA
"425";"MARXALENES";"emt";"Pla de la Sa�dia (riu) - Constituci�";"POINT (-0.37953199363761 39.48281910430538)";-0,37953199363761;39,4828191043054;NA
"426";"EL CALVARI";"emt";"General Avil�s - Miguel Servet (impar)";"POINT (-0.392637843525747 39.487183281248726)";-0,392637843525747;39,4871832812487;NA
"427";"EL CALVARI";"emt";"Campanar - Dr. Nicasi Benlloch";"POINT (-0.389585970282984 39.488117890022174)";-0,389585970282984;39,4881178900222;NA
"428";"MORVEDRE";"emt";"Ruaya (par) - Visitaci�";"POINT (-0.377084955486215 39.48555868934324)";-0,377084955486215;39,4855586893432;NA
"429";"MORVEDRE";"emt";"Almassora - Argenter Su�rez";"POINT (-0.370655538753327 39.48632732249213)";-0,370655538753327;39,4863273224921;NA
"430";"MORVEDRE";"emt";"Sagunt - Sant Guillem";"POINT (-0.374740786215709 39.48437587091976)";-0,374740786215709;39,4843758709198;NA
"431";"MORVEDRE";"emt";"Pla de la Sa�dia - Constituci�";"POINT (-0.377766791947909 39.48292378457313)";-0,377766791947909;39,4829237845731;NA
"432";"MORVEDRE";"emt";"Guadalaviar - Pont dels Serrans";"POINT (-0.37535953339768 39.48164307130683)";-0,37535953339768;39,4816430713068;NA
"433";"TRINITAT";"emt";"Molinell (par) - Pintor Genaro Lahuerta";"POINT (-0.3670531224286 39.484831915074466)";-0,3670531224286;39,4848319150745;NA
"434";"TRINITAT";"emt";"Alboraia - Pintor Vilar";"POINT (-0.370571720957123 39.48185698472828)";-0,370571720957123;39,4818569847283;NA
"435";"TRINITAT";"emt";"General El�o - Vivers";"POINT (-0.367406899766191 39.477682822336455)";-0,367406899766191;39,4776828223365;NA
"436";"TRINITAT";"emt";"Sant Pius V - Alboraia";"POINT (-0.371287318379964 39.47905640066478)";-0,371287318379964;39,4790564006648;NA
"437";"CAMPANAR";"emt";"Marqu�s de Sant Joan - Campanar";"POINT (-0.395161611991716 39.47866755320089)";-0,395161611991716;39,4786675532009;NA
"438";"CAMPANAR";"emt";"Tirso de Molina - Pius XII";"POINT (-0.392915330310955 39.47842195843607)";-0,392915330310955;39,4784219584361;NA
"439";"CAMPANAR";"emt";"Pius XII - Melchor Hoyos Perez";"POINT (-0.394820419141701 39.48347871680802)";-0,394820419141701;39,483478716808;NA
"440";"CAMPANAR";"emt";"Vall de la Ballestera - Eduardo Soler i P�rez";"POINT (-0.399075865917901 39.47859775405824)";-0,399075865917901;39,4785977540582;NA
"441";"CAMPANAR";"emt";"Men�ndez Pidal - Estaci� d'autobusos";"POINT (-0.387708771041174 39.480211745011495)";-0,387708771041174;39,4802117450115;NA
"442";"CAMPANAR";"emt";"Men�ndez Pidal - Passarel.la";"POINT (-0.390078507823415 39.47899439120988)";-0,390078507823415;39,4789943912099;NA
"443";"CAMPANAR";"emt";"Joaqu�m Ballester (impar) - Ricardo Mic�";"POINT (-0.38974724691207 39.48269461361884)";-0,38974724691207;39,4826946136188;NA
"444";"CAMPANAR";"emt";"Campanar - Joan Pau II";"POINT (-0.393795328150644 39.480034455596595)";-0,393795328150644;39,4800344555966;NA
"445";"CAMPANAR";"emt";"Pius XII - Men�ndez Pidal";"POINT (-0.391272861002683 39.47946372237302)";-0,391272861002683;39,479463722373;NA
"446";"CAMPANAR";"emt";"Pius XII - Tirso de Molina";"POINT (-0.391689610437985 39.47926794685557)";-0,391689610437985;39,4792679468556;NA
"447";"CAMPANAR";"emt";"Vall de la Ballestera (par) - Mestre Rodrigo";"POINT (-0.39793870801915 39.47932146976907)";-0,39793870801915;39,4793214697691;NA
"448";"CAMPANAR";"emt";"Mestre Rodrigo - Manuel de Falla";"POINT (-0.397794180862273 39.47743602131534)";-0,397794180862273;39,4774360213153;NA
"449";"CAMPANAR";"emt";"Vall de la Ballestera - Pius XII";"POINT (-0.393666851679727 39.48115551303732)";-0,393666851679727;39,4811555130373;NA
"450";"JAUME ROIG";"emt";"Blasco Ib��ez - Jaume Roig";"POINT (-0.365512077026514 39.4796568539785)";-0,365512077026514;39,4796568539785;NA
"451";"JAUME ROIG";"emt";"Jaume Roig - Primat Reig";"POINT (-0.362985361220118 39.483195300672094)";-0,362985361220118;39,4831953006721;NA
"452";"CIUTAT UNIVERSITARIA";"emt";"Primat Reig - X�bia";"POINT (-0.356596047991599 39.47901303343524)";-0,356596047991599;39,4790130334352;NA
"453";"CIUTAT UNIVERSITARIA";"emt";"Blasco Ib��ez - Rub�n Dar�o";"POINT (-0.353911580525752 39.47590868746669)";-0,353911580525752;39,4759086874667;NA
"454";"CIUTAT UNIVERSITARIA";"emt";"Blasco Ib��ez (impar) - Ciutat Universit�ria";"POINT (-0.360046740082699 39.478070425705255)";-0,360046740082699;39,4780704257053;NA
"455";"CIUTAT UNIVERSITARIA";"emt";"Blasco Ib��ez - Rectorat";"POINT (-0.365093518088019 39.47906728917391)";-0,365093518088019;39,4790672891739;NA
"456";"CIUTAT UNIVERSITARIA";"emt";"Dr. G�mez Ferrer - Men�ndez y Pelayo";"POINT (-0.360837062054078 39.4799681466388)";-0,360837062054078;39,4799681466388;NA
"457";"EL BOTANIC";"emt";"Petxina - T�ria";"POINT (-0.384303076079828 39.479607038633)";-0,384303076079828;39,479607038633;NA
"458";"EXPOSICIO";"emt";"Albereda - Passarel.la de l'Exposici�";"POINT (-0.364841091405511 39.474004039710294)";-0,364841091405511;39,4740040397103;NA
"459";"EXPOSICIO";"emt";"Blasco Ib��ez - General El�o";"POINT (-0.365729117326002 39.478760626981355)";-0,365729117326002;39,4787606269814;NA
"460";"EXPOSICIO";"emt";"Blasco Ib��ez (par) - Ciutat Universit�ria";"POINT (-0.363110931742957 39.47798027294985)";-0,363110931742957;39,4779802729498;NA
"461";"EXPOSICIO";"emt";"General El�o - Blasco Ib��ez";"POINT (-0.36687350636297 39.47791226244562)";-0,36687350636297;39,4779122624456;NA
"462";"EXPOSICIO";"emt";"Dr. Moliner - Arts Gr�fiques";"POINT (-0.362724414773413 39.476328211825134)";-0,362724414773413;39,4763282118251;NA
"463";"EXPOSICIO";"emt";"Misser Masc� - Montfort";"POINT (-0.365831475162417 39.476510753952205)";-0,365831475162417;39,4765107539522;NA
"464";"LA SEU";"emt";"Comte de Tr�nor - Pont de Fusta";"POINT (-0.37426775558066 39.47872145226582)";-0,37426775558066;39,4787214522658;NA
"465";"LA SEU";"emt";"Poeta Llorente - Temple";"POINT (-0.371227818347355 39.47697889109753)";-0,371227818347355;39,4769788910975;NA
"466";"LA VEGA BAIXA";"emt";"Blasco Ib��ez - Ramon Llull";"POINT (-0.348547848456439 39.47431538777183)";-0,348547848456439;39,4743153877718;NA
"467";"LA VEGA BAIXA";"emt";"Blasco Ib��ez - Vinalop�";"POINT (-0.350914230527356 39.475027086216436)";-0,350914230527356;39,4750270862164;NA
"468";"LA PETXINA";"emt";"Petxina - Ferran el Cat�lic";"POINT (-0.390681874365857 39.47718392777638)";-0,390681874365857;39,4771839277764;NA
"469";"LA PETXINA";"emt";"Ferran el Cat�lic - S. Ignacio de Loyola";"POINT (-0.388028766619402 39.47411249989191)";-0,388028766619402;39,4741124998919;NA
"470";"LA PETXINA";"emt";"P�rez Gald�s - Mestre Guerrero";"POINT (-0.393799762123642 39.472500393785324)";-0,393799762123642;39,4725003937853;NA
"471";"LA PETXINA";"emt";"Sant Josep de la Muntanya - P�rez Gald�s";"POINT (-0.394184057240903 39.47445239378836)";-0,394184057240903;39,4744523937884;NA
"472";"BETERO";"emt";"Llu�s Peix� - Tarongers";"POINT (-0.33373881396958 39.47527398596268)";-0,33373881396958;39,4752739859627;NA
"473";"CABANYAL-CANYAMELAR";"emt";"Marcos Sopena - Armada Espanyola";"POINT (-0.328610451187002 39.4630940535672)";-0,328610451187002;39,4630940535672;NA
"474";"CABANYAL-CANYAMELAR";"emt";"Dr. Lluch - Pintor Ferrandis";"POINT (-0.327649587167099 39.47166449120733)";-0,327649587167099;39,4716644912073;NA
"475";"CABANYAL-CANYAMELAR";"emt";"Mediterr�nia - Reina";"POINT (-0.329061899524994 39.46779599996213)";-0,329061899524994;39,4677959999621;NA
"476";"CABANYAL-CANYAMELAR";"emt";"Reina - Remonta";"POINT (-0.327898564225143 39.474290944977064)";-0,327898564225143;39,4742909449771;NA
"477";"CABANYAL-CANYAMELAR";"emt";"Reina - Espadan";"POINT (-0.32827268935331 39.47160170398862)";-0,32827268935331;39,4716017039886;NA
"478";"CABANYAL-CANYAMELAR";"emt";"Tarongers - Progr�s";"POINT (-0.329222228460835 39.475064594627604)";-0,329222228460835;39,4750645946276;NA
"479";"CABANYAL-CANYAMELAR";"emt";"Passeig Mar�tim - Pavia";"POINT (-0.324609406492709 39.47426436253219)";-0,324609406492709;39,4742643625322;NA
"480";"CABANYAL-CANYAMELAR";"emt";"Pintor Ferrandis - Progr�s";"POINT (-0.328732143408533 39.47204279357181)";-0,328732143408533;39,4720427935718;NA
"481";"CABANYAL-CANYAMELAR";"emt";"Mercat el Cabanyal - Mart� Grajales";"POINT (-0.332411892465772 39.46831536607808)";-0,332411892465772;39,4683153660781;NA
"482";"MESTALLA";"emt";"Ernest Ferrer - Arag�";"POINT (-0.35697463430232 39.472352817684516)";-0,35697463430232;39,4723528176845;NA
"483";"MESTALLA";"emt";"Arag� - Amadeu de Savoia";"POINT (-0.357819425629538 39.472798683721834)";-0,357819425629538;39,4727986837218;NA
"484";"MESTALLA";"emt";"Arag� - Xile";"POINT (-0.358289489297972 39.47017268350677)";-0,358289489297972;39,4701726835068;NA
"485";"MESTALLA";"emt";"Albereda - Palau de la M�sica";"POINT (-0.359467842659036 39.46525950138647)";-0,359467842659036;39,4652595013865;NA
"486";"MESTALLA";"emt";"Albereda (riu) - Illes Can�ries";"POINT (-0.360470678437358 39.467253674118794)";-0,360470678437358;39,4672536741188;NA
"487";"MESTALLA";"emt";"Albereda - Davant Palau de la M�sica";"POINT (-0.35939660698916 39.46578165322785)";-0,35939660698916;39,4657816532279;NA
"488";"MESTALLA";"emt";"Finl�ndia - Arag�";"POINT (-0.358757194676282 39.47149418095158)";-0,358757194676282;39,4714941809516;NA
"489";"MESTALLA";"emt";"Arag� (impar) - Blasco Ib��ez";"POINT (-0.356501246842752 39.475383949666764)";-0,356501246842752;39,4753839496668;NA
"490";"MESTALLA";"emt";"Cardenal Benlloch - Ciutat de Mula";"POINT (-0.353158847702181 39.47432546203922)";-0,353158847702181;39,4743254620392;NA
"491";"MESTALLA";"emt";"Ernest Ferrer - Polo y Peyrol�n";"POINT (-0.35521143181568 39.47181893178729)";-0,35521143181568;39,4718189317873;NA
"492";"LA XEREA";"emt";"Porta de la Mar - General Palanca";"POINT (-0.368841670803937 39.47262121275729)";-0,368841670803937;39,4726212127573;NA
"493";"EL PILAR";"emt";"Encarnaci� - Guillem de Castro";"POINT (-0.383807029917227 39.47391357148914)";-0,383807029917227;39,4739135714891;NA
"494";"SANT FRANCESC";"emt";"Poeta Querol - Barques";"POINT (-0.374245330671284 39.470560604384474)";-0,374245330671284;39,4705606043845;NA
"495";"SANT FRANCESC";"emt";"Sant Vicent M�rtir - �nimes";"POINT (-0.378918931360079 39.46928740237652)";-0,378918931360079;39,4692874023765;NA
"496";"SANT FRANCESC";"emt";"Pl. de l'Ajuntament - Correus";"POINT (-0.375985749242587 39.46989173420719)";-0,375985749242587;39,4698917342072;NA
"497";"SANT FRANCESC";"emt";"Col�n - Pascual i Gen�s";"POINT (-0.373574512121349 39.46819478071168)";-0,373574512121349;39,4681947807117;NA
"498";"SANT FRANCESC";"emt";"X�tiva - Marqu�s de Sotelo";"POINT (-0.378030069941764 39.46788314894137)";-0,378030069941764;39,4678831489414;NA
"499";"SANT FRANCESC";"emt";"Pintor Sorolla - A. Magn�nim";"POINT (-0.371312720622999 39.47137878859787)";-0,371312720622999;39,4713787885979;NA
"500";"SANT FRANCESC";"emt";"Sant Agust� - X�tiva";"POINT (-0.379457111503051 39.46867369786261)";-0,379457111503051;39,4686736978626;NA
"501";"SANT FRANCESC";"emt";"Sant Pau - Institut";"POINT (-0.377826679789436 39.46839341295044)";-0,377826679789436;39,4683934129504;NA
"502";"SANT FRANCESC";"emt";"Periodista Azzati - Pl. de l'Ajuntament";"POINT (-0.37762694686826 39.46944365646617)";-0,37762694686826;39,4694436564662;NA
"503";"SANT FRANCESC";"emt";"Roger de Lloria - Col�n";"POINT (-0.37259578109118 39.46913236388559)";-0,37259578109118;39,4691323638856;NA
"504";"SANT FRANCESC";"emt";"Marqu�s de Dosaig�es - Pau";"POINT (-0.374325753165209 39.473317400270446)";-0,374325753165209;39,4733174002704;NA
"505";"EL PLA DEL REMEI";"emt";"Comte de Salvatierra - Col�n";"POINT (-0.36907984840658 39.47108520211377)";-0,36907984840658;39,4710852021138;NA
"506";"EL PLA DEL REMEI";"emt";"Porta de la Mar - Carrer del Just�cia";"POINT (-0.367666010182396 39.47230756808778)";-0,367666010182396;39,4723075680878;NA
"507";"EL PLA DEL REMEI";"emt";"Marqu�s del T�ria - Jorge Juan";"POINT (-0.367606848765426 39.46778552941558)";-0,367606848765426;39,4677855294156;NA
"508";"ALBORS";"emt";"Dr. Manuel Candela (impar) - Port";"POINT (-0.351272000494607 39.465908014466876)";-0,351272000494607;39,4659080144669;NA
"509";"ARRANCAPINS";"emt";"Ram�n i Cajal - Conca";"POINT (-0.384010224159553 39.46846367368373)";-0,384010224159553;39,4684636736837;NA
"510";"ARRANCAPINS";"emt";"Jes�s - Sant Francesc de Borja";"POINT (-0.383676069478828 39.466137193221314)";-0,383676069478828;39,4661371932213;NA
"511";"ARRANCAPINS";"emt";"Conca - Bisbe Amig�";"POINT (-0.38666032399459 39.46600380267773)";-0,38666032399459;39,4660038026777;NA
"512";"ARRANCAPINS";"emt";"Conca - Alzira";"POINT (-0.384772307855256 39.46831596468554)";-0,384772307855256;39,4683159646855;NA
"513";"ARRANCAPINS";"emt";"Sant Josep de Calassan� - Alberic";"POINT (-0.387617473810455 39.4664227012239)";-0,387617473810455;39,4664227012239;NA
"514";"ARRANCAPINS";"emt";"Sant Francesc de Borja - Jes�s";"POINT (-0.385132102750124 39.46600239959658)";-0,385132102750124;39,4660023995966;NA
"515";"AIORA";"emt";"Sants Just i Pastor - Peris Brell";"POINT (-0.346417225121283 39.468987174130916)";-0,346417225121283;39,4689871741309;NA
"516";"AIORA";"emt";"Sants Just i Pastor - Serradora";"POINT (-0.337014473485646 39.466320087324696)";-0,337014473485646;39,4663200873247;NA
"517";"LA ROQUETA";"emt";"Jes�s - Pare Jofr�";"POINT (-0.381809738131439 39.46817214262142)";-0,381809738131439;39,4681721426214;NA
"518";"LA ROQUETA";"emt";"Sant Vicent M�rtir - Espanya";"POINT (-0.380890094048544 39.46662676959071)";-0,380890094048544;39,4666267695907;NA
"519";"LA GRAN VIA";"emt";"Marqu�s del T�ria - Joaqu�n Costa";"POINT (-0.367448320986315 39.46732906662571)";-0,367448320986315;39,4673290666257;NA
"520";"LA GRAN VIA";"emt";"Marqu�s del T�ria (par) - C�novas";"POINT (-0.36559783942756 39.46814521997615)";-0,36559783942756;39,4681452199762;NA
"521";"LA GRAN VIA";"emt";"Joaqu�n Costa - Regne de Val�ncia";"POINT (-0.365483609409741 39.463598147620424)";-0,365483609409741;39,4635981476204;NA
"522";"TRES FORQUES";"emt";"Tres Creus - Music Ayll�n";"POINT (-0.405601180158529 39.46696547016703)";-0,405601180158529;39,466965470167;NA
"523";"TRES FORQUES";"emt";"Tres Creus - Jurats";"POINT (-0.405497083530324 39.46866572704529)";-0,405497083530324;39,4686657270453;NA
"524";"TRES FORQUES";"emt";"Tres Creus (carril bus) - M�sic Ayll�n";"POINT (-0.405782477734394 39.46703483142625)";-0,405782477734394;39,4670348314262;NA
"525";"CAMI FONDO";"emt";"Illes Can�ries - Riu Escalona";"POINT (-0.353412722431775 39.46590642712483)";-0,353412722431775;39,4659064271248;NA
"526";"CAMI FONDO";"emt";"Illes Can�ries - Eduard Bosc�";"POINT (-0.356254771091134 39.46641398733385)";-0,356254771091134;39,4664139873339;NA
"527";"CAMI FONDO";"emt";"Port - Eduard Bosc�";"POINT (-0.355979384433254 39.46676194715075)";-0,355979384433254;39,4667619471508;NA
"528";"CAMI FONDO";"emt";"Port -Tom�s Monta�ana";"POINT (-0.350846652499252 39.465236084655565)";-0,350846652499252;39,4652360846556;NA
"529";"PATRAIX";"emt";"P�rez Gald�s - Tres Forques";"POINT (-0.388546681137181 39.464599569726396)";-0,388546681137181;39,4645995697264;NA
"530";"PATRAIX";"emt";"Aiora - Xiva";"POINT (-0.39197800912322 39.4664474878531)";-0,39197800912322;39,4664474878531;NA
"531";"RUSSAFA";"emt";"Peris i Valero - Duc de Cal�bria";"POINT (-0.365675065888811 39.461292813562906)";-0,365675065888811;39,4612928135629;NA
"532";"RUSSAFA";"emt";"Castell� - Estaci� Nord";"POINT (-0.376804360379351 39.466285434328626)";-0,376804360379351;39,4662854343286;NA
"533";"RUSSAFA";"emt";"Filipines - Literat Azor�n";"POINT (-0.377000083368454 39.45825039183051)";-0,377000083368454;39,4582503918305;NA
"534";"RUSSAFA";"emt";"Filipines (impar) - Manuel Sanchis Guarner";"POINT (-0.376438672865142 39.45830861925012)";-0,376438672865142;39,4583086192501;NA
"535";"RUSSAFA";"emt";"Filipines - Manuel Sanchis Guarner";"POINT (-0.376472098694484 39.45790451777505)";-0,376472098694484;39,457904517775;NA
"536";"RUSSAFA";"emt";"Mercat de Russafa";"POINT (-0.370447132978719 39.46173132777786)";-0,370447132978719;39,4617313277779;NA
"537";"PENYA-ROJA";"emt";"Tom�s Monta�ana - Fran�a";"POINT (-0.352851518657927 39.46106737536648)";-0,352851518657927;39,4610673753665;NA
"538";"PENYA-ROJA";"emt";"Fran�a-Vicente Beltr�n";"POINT (-0.350093700250792 39.46009220750367)";-0,350093700250792;39,4600922075037;NA
"539";"PENYA-ROJA";"emt";"Fran�a-Pare Tomas Monta�ana";"POINT (-0.352411410246372 39.46059501953213)";-0,352411410246372;39,4605950195321;NA
"540";"PENYA-ROJA";"emt";"Fran�a-Pintor Maella";"POINT (-0.348837344468298 39.459312943302635)";-0,348837344468298;39,4593129433026;NA
"541";"PENYA-ROJA";"emt";"Albereda - Museu de les Ci�ncies";"POINT (-0.350032016850949 39.45771788987931)";-0,350032016850949;39,4577178898793;NA
"542";"PENYA-ROJA";"emt";"Albereda - L'Hemisf�ric";"POINT (-0.352594359632777 39.45952146730291)";-0,352594359632777;39,4595214673029;NA
"543";"PENYA-ROJA";"emt";"Pintor Maella (par) - Fran�a";"POINT (-0.348530890551315 39.45900361768457)";-0,348530890551315;39,4590036176846;NA
"544";"PENYA-ROJA";"emt";"Pintor Maella - Menorca";"POINT (-0.347464562168122 39.45696726583407)";-0,347464562168122;39,4569672658341;NA
"545";"PENYA-ROJA";"emt";"Fran�a - Cam� Fondo del Grao";"POINT (-0.341810630552637 39.45784373416175)";-0,341810630552637;39,4578437341617;NA
"546";"LA CREU DEL GRAU";"emt";"Illes Can�ries - Noguera";"POINT (-0.341652686306522 39.46183118294285)";-0,341652686306522;39,4618311829429;NA
"547";"LA CREU DEL GRAU";"emt";"Port - Cases Carbonell";"POINT (-0.348057764552815 39.464414479344924)";-0,348057764552815;39,4644144793449;NA
"548";"LA CREU DEL GRAU";"emt";"Menorca - Eivissa";"POINT (-0.340554574519584 39.460429250685785)";-0,340554574519584;39,4604292506858;NA
"549";"LA CREU DEL GRAU";"emt";"Pere II El Cerimonios - Vicente Beltr�n Grimalt";"POINT (-0.347192200939177 39.462558738135655)";-0,347192200939177;39,4625587381357;NA
"550";"LA CREU DEL GRAU";"emt";"Pintor Maella - Vicent Vidal (Cronista)";"POINT (-0.347784587951831 39.46106527221894)";-0,347784587951831;39,4610652722189;NA
"551";"LA CREU DEL GRAU";"emt";"Pintor Maella - Balears";"POINT (-0.347507645623996 39.461092644483244)";-0,347507645623996;39,4610926444833;NA
"552";"LA CREU DEL GRAU";"emt";"Pintor Maella - Illes Can�ries";"POINT (-0.34632803993471 39.463474659223436)";-0,34632803993471;39,4634746592234;NA
"553";"LA CREU DEL GRAU";"emt";"Port - Trafalgar";"POINT (-0.344192002025576 39.46330622836274)";-0,344192002025576;39,4633062283627;NA
"554";"LA CREU DEL GRAU";"emt";"Eivissa (par) - Illes Can�ries";"POINT (-0.339866593764769 39.46125231062092)";-0,339866593764769;39,4612523106209;NA
"555";"MONT-OLIVET";"emt";"Regne de Val�ncia (par) - Alcalde Reig";"POINT (-0.360861801972986 39.46205674200951)";-0,360861801972986;39,4620567420095;NA
"556";"MONT-OLIVET";"emt";"Amado Granell Mesado (par) - Llu�s Oliag";"POINT (-0.365698775997272 39.45972771263839)";-0,365698775997272;39,4597277126384;NA
"557";"MONT-OLIVET";"emt";"Amado Granell Mesado (impar) - Llu�s Oliag";"POINT (-0.365188601651173 39.459798127536935)";-0,365188601651173;39,4597981275369;NA
"558";"MONT-OLIVET";"emt";"Llu�s Oliag - Bisbe Jaume P�rez";"POINT (-0.366503316914953 39.45967910093495)";-0,366503316914953;39,4596791009349;NA
"559";"MONT-OLIVET";"emt";"Escultor J. Capuz (impar) - la Plata";"POINT (-0.360270253347098 39.45834547029357)";-0,360270253347098;39,4583454702936;NA
"560";"MONT-OLIVET";"emt";"Escultor J. Capuz (par) - Pere Aleixandre";"POINT (-0.361809563153264 39.4603467716203)";-0,361809563153264;39,4603467716203;NA
"561";"MONT-OLIVET";"emt";"Escultor J. Capuz (par) - la Plata";"POINT (-0.36061727810455 39.45855740095576)";-0,36061727810455;39,4585574009558;NA
"562";"LA RAIOSA";"emt";"Giorgeta - Carcaixent";"POINT (-0.385752339609987 39.460661691722756)";-0,385752339609987;39,4606616917228;NA
"563";"LA RAIOSA";"emt";"Uruguai - Marques de Bellet";"POINT (-0.386851537514251 39.455670297322364)";-0,386851537514251;39,4556702973224;NA
"564";"LA RAIOSA";"emt";"Jes�s - Callosa d'en Sarri�";"POINT (-0.387347750329346 39.46184619314258)";-0,387347750329346;39,4618461931426;NA
"565";"LA RAIOSA";"emt";"Uruguai - Misser Rabassa";"POINT (-0.387065325695897 39.45692318712928)";-0,387065325695897;39,4569231871293;NA
"566";"CIUTAT DE LES ARTS I DE LES CIENCIES";"emt";"Inst. Obrer de Val. (par) - Autopista Saler";"POINT (-0.35673571867709 39.45607627068371)";-0,35673571867709;39,4560762706837;NA
"567";"CIUTAT DE LES ARTS I DE LES CIENCIES";"emt";"Professor L�pez Pi�ero (par) - Institut Obrer de Val�ncia";"POINT (-0.356763979789018 39.45674509515294)";-0,356763979789018;39,4567450951529;NA
"568";"CIUTAT DE LES ARTS I DE LES CIENCIES";"emt";"Professor L�pez Pi�ero (par)  - Ciutat de la Just�cia";"POINT (-0.354344066684529 39.454617111813654)";-0,354344066684529;39,4546171118137;NA
"569";"CIUTAT DE LES ARTS I DE LES CIENCIES";"emt";"Professor L�pez Pi�ero - Museu de les Ci�ncies";"POINT (-0.353524347460191 39.45488979304579)";-0,353524347460191;39,4548897930458;NA
"570";"CIUTAT DE LES ARTS I DE LES CIENCIES";"emt";"Amado Granell Mesado (par) - Antonio Sacramento";"POINT (-0.360597503631021 39.45262583269337)";-0,360597503631021;39,4526258326934;NA
"571";"CIUTAT DE LES ARTS I DE LES CIENCIES";"emt";"Amado Granell Mesado (par) - Antonio Ferrandis";"POINT (-0.359201447726759 39.450648670837715)";-0,359201447726759;39,4506486708377;NA
"572";"EN CORTS";"emt";"Font de la Figuera - Dr. Waksman";"POINT (-0.372717415059002 39.45658369156844)";-0,372717415059002;39,4565836915684;NA
"573";"EN CORTS";"emt";"Fonteta Sant Llu�s - Lle� XIII";"POINT (-0.371777939475956 39.45760648079091)";-0,371777939475956;39,4576064807909;NA
"574";"EN CORTS";"emt";"Fonteta Sant Llu�s - Dr. Waksman";"POINT (-0.371584179986081 39.45571439346042)";-0,371584179986081;39,4557143934604;NA
"575";"EN CORTS";"emt";"Ausi�s March - Alg�mia d'Alfara";"POINT (-0.371655207616269 39.45160636033444)";-0,371655207616269;39,4516063603344;NA
"576";"NA ROVELLA";"emt";"Amado Granell Mesado (impar) - Arabista Ambrosio Huici";"POINT (-0.362376031895238 39.45559505898075)";-0,362376031895238;39,4555950589807;NA
"577";"NA ROVELLA";"emt";"Germans Maristes (impar) - Poliesportiu";"POINT (-0.365797048012775 39.4525003782325)";-0,365797048012775;39,4525003782325;NA
"578";"SANT ISIDRE";"emt";"Cam� nou de Picanya - Arquitecte Segura de Lago";"POINT (-0.404016803650748 39.4563030744885)";-0,404016803650748;39,4563030744885;NA
"579";"SANT ISIDRE";"emt";"Tres Creus - Campos Crespo";"POINT (-0.399827206903122 39.45426612097)";-0,399827206903122;39,45426612097;NA
"580";"SANT ISIDRE";"emt";"Arquitecte Segura de Lago - Prof. �ngel Lacalle";"POINT (-0.404278439023082 39.45542947381295)";-0,404278439023082;39,4554294738129;NA
"581";"MALILLA";"emt";"Olt� - Ausi�s March";"POINT (-0.373953748786886 39.45315693381298)";-0,373953748786886;39,453156933813;NA
"582";"MALILLA";"emt";"Ausi�s March - Na Rovella";"POINT (-0.371329211439704 39.450137668003656)";-0,371329211439704;39,4501376680037;NA
"583";"MALILLA";"emt";"Malilla - Olt�";"POINT (-0.378887043923193 39.4525496613637)";-0,378887043923193;39,4525496613637;NA
"584";"MALILLA";"emt";"Malilla (par) - Illa Cabrera";"POINT (-0.379702193818332 39.44884829758458)";-0,379702193818332;39,4488482975846;NA
"585";"MALILLA";"emt";"Malilla (par) - Illa Formentera";"POINT (-0.380204050954882 39.44693649564668)";-0,380204050954882;39,4469364956467;NA
"586";"FAVARA";"emt";"Gaspar Aguilar - Montesa";"POINT (-0.391998467019731 39.454170711791136)";-0,391998467019731;39,4541707117911;NA
"587";"FAVARA";"emt";"Gaspar Aguilar (par) - Dr. Tomas Sala";"POINT (-0.394520842077528 39.45042357046084)";-0,394520842077528;39,4504235704608;NA
"588";"L'HORT DE SENABRE";"emt";"Dr. Tom�s Sala - Gaspar Aguilar";"POINT (-0.394472449686389 39.44910395069711)";-0,394472449686389;39,4491039506971;NA
"589";"L'HORT DE SENABRE";"emt";"Gaspar Aguilar (impar) - Dr.Tomas Sala";"POINT (-0.394329519176221 39.450291085522686)";-0,394329519176221;39,4502910855227;NA
"590";"L'HORT DE SENABRE";"emt";"Gaspar Aguilar - Costa i Borr�s";"POINT (-0.390608897130784 39.4558711107876)";-0,390608897130784;39,4558711107876;NA
"591";"L'HORT DE SENABRE";"emt";"Sant Vicent M�rtir - Joaqu�n Navarro";"POINT (-0.384697664357251 39.45279100566093)";-0,384697664357251;39,4527910056609;NA
"592";"NATZARET";"emt";"Manuel Carboneres - Sant Francesc de Paula";"POINT (-0.330581737672094 39.44621118499722)";-0,330581737672094;39,4462111849972;NA
"593";"NATZARET";"emt";"Castell de Pop - Jes�s Natzar�";"POINT (-0.331775998821652 39.44747010572517)";-0,331775998821652;39,4474701057252;NA
"594";"NATZARET";"emt";"Parc Natzaret - Pont de les Drassanes";"POINT (-0.332064535390959 39.451856968710686)";-0,332064535390959;39,4518569687107;NA
"595";"NATZARET";"emt";"Major de Natzaret - Castell de Pop";"POINT (-0.334608866201914 39.44853859228057)";-0,334608866201914;39,4485385922806;NA
"596";"NATZARET";"emt";"Major de Natzaret - Vilanova i Piera";"POINT (-0.333682589153175 39.45193797315206)";-0,333682589153175;39,4519379731521;NA
"597";"NATZARET";"emt";"Major de Natzaret - Moraira";"POINT (-0.334156182410294 39.45023717244767)";-0,334156182410294;39,4502371724477;NA
"598";"NATZARET";"emt";"Parc Natzaret - Moraira";"POINT (-0.332428780160046 39.450558969411105)";-0,332428780160046;39,4505589694111;NA
"599";"LA CREU COBERTA";"emt";"Sant Vicent M�rtir - Almudaina";"POINT (-0.38445874951967 39.452986436164814)";-0,38445874951967;39,4529864361648;NA
"600";"LA CREU COBERTA";"emt";"Carters - Pl. Santiago Su�rez";"POINT (-0.388417598488706 39.45281672531728)";-0,388417598488706;39,4528167253173;NA
"601";"CAMI REAL";"emt";"Cam� vell Picassent - Acc. Cementeri";"POINT (-0.396916159692237 39.44577840410031)";-0,396916159692237;39,4457784041003;NA
"602";"LA FONTETA S.LLUIS";"emt";"Actor Antonio Ferrandis (par) - Font de St. Llu�s";"POINT (-0.36781041750795 39.44687485715085)";-0,36781041750795;39,4468748571509;NA
"603";"LA FONTETA S.LLUIS";"emt";"Fonteta Sant Llu�s - Riu Sec";"POINT (-0.367126690154071 39.44627451885186)";-0,367126690154071;39,4462745188519;NA
"604";"LA FONTETA S.LLUIS";"emt";"Gravador Jord�n - Alabau i Arce";"POINT (-0.36772615333451 39.44433408445445)";-0,36772615333451;39,4443340844544;NA
"605";"LA FONTETA S.LLUIS";"emt";"Gravador Jord�n - Riu Sec";"POINT (-0.366935429075377 39.44636099500625)";-0,366935429075377;39,4463609950063;NA
"606";"SANT MARCEL.LI";"emt";"Bulevard Sud- Pont";"POINT (-0.386450641383966 39.446218041855104)";-0,386450641383966;39,4462180418551;NA
"607";"SANT MARCEL.LI";"emt";"Sant Vicent M�rtir - Enginyer Josep Sirera";"POINT (-0.386778832074388 39.44558894639808)";-0,386778832074388;39,4455889463981;NA
"608";"SANT MARCEL.LI";"emt";"Sant Vicent M�rtir (par) - Arquebisbe Olaechea";"POINT (-0.387533412756806 39.44368648482228)";-0,387533412756806;39,4436864848223;NA
"609";"L'AMISTAT";"emt";"Dr. Manuel Candela (impar) - Sants Just i Pastor";"POINT (-0.349458333146017 39.47048356363175)";-0,349458333146017;39,4704835636318;NA
"610";"L'AMISTAT";"emt";"Blasco Ib��ez - Dr. Manuel Candela";"POINT (-0.348583117113503 39.47404484882669)";-0,348583117113503;39,4740448488267;NA
"611";"L'AMISTAT";"emt";"Cardenal Benlloch - Santos Justo y Pastor";"POINT (-0.353867161813027 39.472140752604254)";-0,353867161813027;39,4721407526043;NA
"612";"LA PUNTA";"emt";"Jes�s Morante Borr�s (I)";"POINT (-0.34543454617281 39.451014763936406)";-0,34543454617281;39,4510147639364;NA
"613";"LA PUNTA";"emt";"Jes�s Morante Borr�s (II)";"POINT (-0.344468125480009 39.44948254551931)";-0,344468125480009;39,4494825455193;NA
"614";"LA PUNTA";"emt";"Jes�s Morante Borr�s (IV)";"POINT (-0.343987470114561 39.44414737315194)";-0,343987470114561;39,4441473731519;NA
"615";"LA PUNTA";"emt";"Jes�s Morante Borr�s (V)";"POINT (-0.343951826489541 39.44134365522657)";-0,343951826489541;39,4413436552266;NA
"616";"LA PUNTA";"emt";"Jes�s Morante Borr�s (VI)";"POINT (-0.343673891666949 39.44134721337514)";-0,343673891666949;39,4413472133751;NA
"617";"LA PUNTA";"emt";"Jes�s Morante Borr�s (VII)";"POINT (-0.343668951912674 39.444179012050185)";-0,343668951912674;39,4441790120502;NA
"618";"LA PUNTA";"emt";"Font d'en Corts (impar) - Alqueria Reial";"POINT (-0.359573860055988 39.447479277853326)";-0,359573860055988;39,4474792778533;NA
"619";"LA PUNTA";"emt";"Eduardo Primo Y�fera - Front �gora";"POINT (-0.350364659615895 39.45290433590392)";-0,350364659615895;39,4529043359039;NA
"620";"LA PUNTA";"emt";"Barraques del Figuero - Ignacio Zuloaga";"POINT (-0.336285942039902 39.44962656180663)";-0,336285942039902;39,4496265618066;NA
"621";"LA PUNTA";"emt";"Carrera del Riu (impar) - Rotonda Autovia";"POINT (-0.338686340635425 39.42987952832489)";-0,338686340635425;39,4298795283249;NA
"622";"LA PUNTA";"emt";"Ignacio de Zuloaga - Castell de Pop";"POINT (-0.335878820089905 39.44759007768305)";-0,335878820089905;39,4475900776831;NA
"623";"LA PUNTA";"emt";"Actor Antonio Ferrandis (impar) - En Corts";"POINT (-0.362438859370409 39.44855160315186)";-0,362438859370409;39,4485516031519;NA
"624";"LA PUNTA";"emt";"Actor Antonio Ferrandis (impar) - Amado Granell Mesado";"POINT (-0.357938263758094 39.450475551689074)";-0,357938263758094;39,4504755516891;NA
"625";"LA PUNTA";"emt";"Actor Antonio Ferrandis (impar) - Centre Comercial";"POINT (-0.352843934712378 39.45263642524334)";-0,352843934712378;39,4526364252433;NA
"626";"LA PUNTA";"emt";"Font d'en Corts (impar) - Roig de lagarda";"POINT (-0.358223645523762 39.44566971842341)";-0,358223645523762;39,4456697184234;NA
"627";"LA PUNTA";"emt";"Carrera del Riu - Entrada Sanques";"POINT (-0.343624154323741 39.43543901289565)";-0,343624154323741;39,4354390128956;NA
"628";"LA PUNTA";"emt";"Carrera del Riu - Cam� dels Anouers";"POINT (-0.34316952495317 39.43210536775452)";-0,34316952495317;39,4321053677545;NA
"629";"LA PUNTA";"emt";"Carrera del Riu - Casa Andr�s";"POINT (-0.343478697165563 39.435457489915464)";-0,343478697165563;39,4354574899155;NA
"630";"LA CARRASCA";"emt";"Ramon Llull - Albalat dels Tarongers";"POINT (-0.345736634674573 39.47940898836499)";-0,345736634674573;39,479408988365;NA
"631";"LA CARRASCA";"emt";"Tarongers - Davant Acc.Pta.Prin.Universitats";"POINT (-0.347228893969785 39.480107009168684)";-0,347228893969785;39,4801070091687;NA
"632";"LA CARRASCA";"emt";"Tarongers - Facultat de Dret";"POINT (-0.343761147965183 39.47915421447323)";-0,343761147965183;39,4791542144732;NA
"633";"LA CARRASCA";"emt";"Clariano - Pal�ncia";"POINT (-0.35159249885719 39.47784544034611)";-0,35159249885719;39,4778454403461;NA
"634";"EL GRAU";"emt";"Joan Verdaguer - Port";"POINT (-0.333827834981509 39.45919569562686)";-0,333827834981509;39,4591956956269;NA
"635";"EL GRAU";"emt";"Port - Illes Can�ries";"POINT (-0.338157169281801 39.4615288367351)";-0,338157169281801;39,4615288367351;NA
"636";"EL GRAU";"emt";"Manuel Soto Enginyer - Pont de les Drassanes";"POINT (-0.330657883344658 39.45449378354283)";-0,330657883344658;39,4544937835428;NA
"637";"EL GRAU";"emt";"Dr. J.J.D�mine - Port (Porta Principal)";"POINT (-0.33249604901236 39.460356902380674)";-0,33249604901236;39,4603569023807;NA
"638";"CIUTAT JARDI";"emt";"Dr. Manuel Candela (par) - Sants Just i Pastor";"POINT (-0.349102027828559 39.4703685023733)";-0,349102027828559;39,4703685023733;NA
"639";"CIUTAT JARDI";"emt";"Ramon Llull - Escultor Alfons Gabino";"POINT (-0.347130176262539 39.475132017053085)";-0,347130176262539;39,4751320170531;NA
"640";"CIUTAT JARDI";"emt";"Blasco Ib��ez - Jos� Mar�a Orense";"POINT (-0.340052571835651 39.47216382223461)";-0,340052571835651;39,4721638222346;NA
"641";"CIUTAT JARDI";"emt";"Blasco Ib��ez - Actor Enrique Rambal";"POINT (-0.342481122811223 39.47294197718646)";-0,342481122811223;39,4729419771865;NA
"642";"NOU MOLES";"emt";"Petxina - Torres";"POINT (-0.39931499969683 39.474126983052926)";-0,39931499969683;39,4741269830529;NA
"643";"NOU MOLES";"emt";"Nou d'Octubre - Conselleries (II)";"POINT (-0.405338496283972 39.472451033014984)";-0,405338496283972;39,472451033015;NA
"644";"NOU MOLES";"emt";"Democr�cia - Vel�zquez";"POINT (-0.400440555250746 39.47343740645908)";-0,400440555250746;39,4734374064591;NA
"645";"NOU MOLES";"emt";"Democr�cia - Conselleries";"POINT (-0.402808944830523 39.472715782732344)";-0,402808944830523;39,4727157827323;NA
"646";"NOU MOLES";"emt";"Brasil - Vel�zquez";"POINT (-0.400645780786843 39.47246183662952)";-0,400645780786843;39,4724618366295;NA
"647";"NOU MOLES";"emt";"Cid - Burgos";"POINT (-0.400003366934972 39.46909969453237)";-0,400003366934972;39,4690996945324;NA
"648";"NOU MOLES";"emt";"Cid - Passatge Vidal";"POINT (-0.40320986184401 39.46960957765724)";-0,40320986184401;39,4696095776572;NA
"649";"BENIMAMET";"emt";"Fires(impar) - Cementeri";"POINT (-0.424637747743913 39.50561809109986)";-0,424637747743913;39,5056180910999;NA
"650";"BENIMAMET";"emt";"Cam� Nou de Paterna - Aldaia";"POINT (-0.418449469193259 39.49675463785362)";-0,418449469193259;39,4967546378536;NA
"651";"BENIMAMET";"emt";"Campament - Canonge Fenollera";"POINT (-0.424501916622049 39.50069392066463)";-0,424501916622049;39,5006939206646;NA
"652";"BENIMAMET";"emt";"Moss�n Miguel Tarin (impar) - Carretera de Paterna";"POINT (-0.41605315867945 39.49713514707277)";-0,41605315867945;39,4971351470728;NA
"653";"BENIMAMET";"emt";"Dr. Soriano Benlloch - Rafael Tenes Escrich";"POINT (-0.417328311539866 39.4995553389785)";-0,417328311539866;39,4995553389785;NA
"654";"BENIMAMET";"emt";"Llu�s Cano";"POINT (-0.41875476657235 39.501456006682275)";-0,41875476657235;39,5014560066823;NA
"655";"BENIMAMET";"emt";"Polvor� - Sinarques";"POINT (-0.425226666976004 39.50099159928176)";-0,425226666976004;39,5009915992818;NA
"656";"BENIMAMET";"emt";"Fires - Fira de Mostres";"POINT (-0.426283585583573 39.503679376141974)";-0,426283585583573;39,503679376142;NA
"657";"BENIMAMET";"emt";"Felipe Valls - Llu�s Cano";"POINT (-0.419123746077022 39.50142771757369)";-0,419123746077022;39,5014277175737;NA
"658";"BENIMAMET";"emt";"Moss�n Miguel Tarin (par) - Miquel Agra�t";"POINT (-0.416448734907151 39.49877075582299)";-0,416448734907151;39,498770755823;NA
"659";"SOTERNES";"emt";"Cid - Marcelino Oreja";"POINT (-0.41610761544393 39.469710488874846)";-0,41610761544393;39,4697104888748;NA
"660";"LA LLUM";"emt";"Alqueria Nova - Cortes d'Aren�s";"POINT (-0.417148712393974 39.46845725730708)";-0,417148712393974;39,4684572573071;NA
"661";"BENIFERRI";"emt";"Camp de T�ria (par) - Corts Valencianes";"POINT (-0.404004187615992 39.49432518723976)";-0,404004187615992;39,4943251872398;NA
"662";"BENIFERRI";"emt";"Camp de T�ria - Mestre Rodrigo";"POINT (-0.406615190994853 39.493069827971695)";-0,406615190994853;39,4930698279717;NA
"663";"EL PALMAR";"emt";"Embarcador de l'Albufera (I)";"POINT (-0.323574373094097 39.34941882224265)";-0,323574373094097;39,3494188222426;NA
"664";"EL PALMAR";"emt";"Carretera del Palmar (par) - Cementeri";"POINT (-0.317918229861889 39.321440546921934)";-0,317918229861889;39,3214405469219;NA
"665";"EL PALMAR";"emt";"Vicent Baldov� - Novelda";"POINT (-0.31783455536592 39.31399086993666)";-0,31783455536592;39,3139908699367;NA
"666";"EL PALMAR";"emt";"Vicent Baldov� - el Palmar";"POINT (-0.317766141027853 39.31173238146455)";-0,317766141027853;39,3117323814646;NA
"667";"EL PALMAR";"emt";"Gavines (impar) - Camping";"POINT (-0.309458542560524 39.323238310853334)";-0,309458542560524;39,3232383108533;NA
"668";"EL SALER";"emt";"Pinars (par) - El Saler";"POINT (-0.332545457778714 39.383208609952334)";-0,332545457778714;39,3832086099523;NA
"669";"EL SALER";"emt";"Gola de Puchol (I)";"POINT (-0.320997044854026 39.357225570163415)";-0,320997044854026;39,3572255701634;NA
"670";"EL SALER";"emt";"Pinars - Carretera del Palmar";"POINT (-0.319720310728622 39.3413976672225)";-0,319720310728622;39,3413976672225;NA
"671";"EL SALER";"emt";"Carretera del Palmar - Pinars";"POINT (-0.319556472891387 39.341461908552084)";-0,319556472891387;39,3414619085521;NA
"672";"EL SALER";"emt";"Embarcador de l'Albufera (II)";"POINT (-0.322878703041059 39.34795562620243)";-0,322878703041059;39,3479556262024;NA
"673";"EL SALER";"emt";"Pinars (impar) - El Saler";"POINT (-0.332318585972998 39.38322475611489)";-0,332318585972998;39,3832247561149;NA
"674";"LA FONTSANTA";"emt";"Tres Creus (carril bus) - Pare Esteban Pernet";"POINT (-0.406336543082277 39.46697539775092)";-0,406336543082277;39,4669753977509;NA
"675";"LA FONTSANTA";"emt";"Tres Creus - Hospital";"POINT (-0.406562494125416 39.468643112133265)";-0,406562494125416;39,4686431121333;NA
"676";"LA FONTSANTA";"emt";"Tres Creus - Rei Saud";"POINT (-0.406379829667762 39.46600412941613)";-0,406379829667762;39,4660041294161;NA
"677";"LA FONTSANTA";"emt";"Tres Creus (central) - Pare Esteban Pernet";"POINT (-0.406125012012792 39.46738193031628)";-0,406125012012792;39,4673819303163;NA
"678";"LA FONTSANTA";"emt";"Pare Esteban Pernet - Miseric�rdia";"POINT (-0.409471433344904 39.46723045082299)";-0,409471433344904;39,467230450823;NA
"679";"LA FONTSANTA";"emt";"Tres Creus - Pr�nceps de M�naco";"POINT (-0.406279199489884 39.4646581243076)";-0,406279199489884;39,4646581243076;NA
"680";"LA FONTSANTA";"emt";"Cid - Hospital";"POINT (-0.409895565270382 39.46957679889281)";-0,409895565270382;39,4695767988928;NA
"681";"LA FONTSANTA";"emt";"Tres Creus (carril bus) - Rei Saud";"POINT (-0.406169113565693 39.465459616693856)";-0,406169113565693;39,4654596166939;NA
"682";"SANT LLORENS";"emt";"Duc de Mandas - Motilla del Palancar";"POINT (-0.365690928777728 39.49086663988773)";-0,365690928777728;39,4908666398877;NA
"683";"SANT LLORENS";"emt";"Alfahuir - Germans Machado";"POINT (-0.359175005012701 39.493578647357154)";-0,359175005012701;39,4935786473572;NA
"684";"ELS ORRIOLS";"emt";"Constituci� - Duc de Mandas";"POINT (-0.371912773010713 39.494580047380545)";-0,371912773010713;39,4945800473805;NA
"685";"ELS ORRIOLS";"emt";"Constituci� - Sant Miquel dels Reis";"POINT (-0.370230030948598 39.49887608667386)";-0,370230030948598;39,4988760866739;NA
"686";"ELS ORRIOLS";"emt";"Constituci� (par) - Tavernes Blanques";"POINT (-0.367802113815058 39.50420113229385)";-0,367802113815058;39,5042011322939;NA
"687";"EL PERELLONET";"emt";"Gavines - Entrada Filero";"POINT (-0.29178942215192 39.301964284270916)";-0,29178942215192;39,3019642842709;NA
"688";"EL PERELLONET";"emt";"Gavines - Front Entrada Ventura";"POINT (-0.2837736524701 39.28838310341201)";-0,2837736524701;39,288383103412;NA
"689";"EL PERELLONET";"emt";"Gavines - Botavara";"POINT (-0.29455187153811 39.30528454783461)";-0,29455187153811;39,3052845478346;NA
"690";"VARA DE QUART";"emt";"Tres Creus - Tres Forques";"POINT (-0.405469942016894 39.46280270652696)";-0,405469942016894;39,462802706527;NA
"691";"VARA DE QUART";"emt";"Arxiduc Carles - Fontanars dels Alforins";"POINT (-0.397702680204929 39.46255030879815)";-0,397702680204929;39,4625503087981;NA
"692";"VARA DE QUART";"emt";"Tres Forques - Casa Miseric�rdia";"POINT (-0.408786559295022 39.46311336368846)";-0,408786559295022;39,4631133636885;NA
"693";"VARA DE QUART";"emt";"Tres Forques - Mare de D�u de la Cabe�a";"POINT (-0.399846943429008 39.46368098437057)";-0,399846943429008;39,4636809843706;NA
"694";"CIUTAT FALLERA";"emt";"Foc - Amadeu Desfilis";"POINT (-0.394656469591617 39.50004095583489)";-0,394656469591617;39,5000409558349;NA
"695";"CIUTAT FALLERA";"emt";"Ninot - Foc";"POINT (-0.39310266524878 39.500442579545215)";-0,39310266524878;39,5004425795452;NA
"696";"CIUTAT FALLERA";"emt";"Quartell - Burjassot";"POINT (-0.397432577906963 39.49557436216479)";-0,397432577906963;39,4955743621648;NA
"697";"LA MALVA-ROSA";"emt";"Passeig Mar�tim - Vicent la Roda";"POINT (-0.324629067649737 39.479030876792066)";-0,324629067649737;39,4790308767921;NA
"698";"LA MALVA-ROSA";"emt";"Passeig Mar�tim - Font d'en Carr�s";"POINT (-0.324674524066685 39.48126554354994)";-0,324674524066685;39,4812655435499;NA
"699";"LA MALVA-ROSA";"emt";"Isabel de Villena - Riu Tajo";"POINT (-0.325827734429778 39.4768457472625)";-0,325827734429778;39,4768457472625;NA
"700";"LA MALVA-ROSA";"emt";"Cavite - Riu Tajo";"POINT (-0.326508677823352 39.47620891425335)";-0,326508677823352;39,4762089142533;NA
"701";"LA MALVA-ROSA";"emt";"la Malva-rosa - Fuerteventura";"POINT (-0.328145881768807 39.48110253985274)";-0,328145881768807;39,4811025398527;NA
"702";"LA MALVA-ROSA";"emt";"Mendiz�bal - Gran Can�ria";"POINT (-0.329226500985133 39.48387395960358)";-0,329226500985133;39,4838739596036;NA
"703";"LA MALVA-ROSA";"emt";"Doctor �lvaro L�pez - Illa de Hierro";"POINT (-0.330537974004767 39.482771249957594)";-0,330537974004767;39,4827712499576;NA
"704";"LA MALVA-ROSA";"emt";"Cavite - Mendiz�bal";"POINT (-0.326565786952219 39.48309919315736)";-0,326565786952219;39,4830991931574;NA
"705";"CARPESA";"emt";"Palmaret - Reverend J. Valero";"POINT (-0.377314323612795 39.5150988211986)";-0,377314323612795;39,5150988211986;NA
"706";"POBLE NOU";"emt";"Constituci� (impar) - Campaneta";"POINT (-0.368618323972441 39.502427150824914)";-0,368618323972441;39,5024271508249;NA
"707";"POBLE NOU";"emt";"Cam� de Montcada - Casa d'�ngel";"POINT (-0.383969242666214 39.506847748626626)";-0,383969242666214;39,5068477486266;NA
"708";"POBLE NOU";"emt";"Cami de Montcada - Alqueria Ballester";"POINT (-0.385830401725528 39.51026954818403)";-0,385830401725528;39,510269548184;NA
"709";"POBLE NOU";"emt";"Cam� de Montcada - Ctra. Carpesa";"POINT (-0.382646475954951 39.50273122159947)";-0,382646475954951;39,5027312215995;NA
"710";"LES CASES DE BARCENA";"emt";"Cases de B�rcena VI";"POINT (-0.361516942636015 39.51649502725575)";-0,361516942636015;39,5164950272558;NA
"711";"SANT PAU";"emt";"Hern�ndez L�zaro -Centre Comercial";"POINT (-0.403329583103665 39.47678391283117)";-0,403329583103665;39,4767839128312;NA
"712";"SANT PAU";"emt";"Hern�ndez L�zaro - Vall de la Ballestera";"POINT (-0.403201562595528 39.478931188398455)";-0,403201562595528;39,4789311883985;NA
"713";"SANT PAU";"emt";"Mestre Rodrigo - la Safor";"POINT (-0.404199102657675 39.48710321459099)";-0,404199102657675;39,487103214591;NA
"714";"SANT PAU";"emt";"Mestre Rodrigo (Impar) - General Avil�s";"POINT (-0.402209691092545 39.48370063014647)";-0,402209691092545;39,4837006301465;NA
"715";"SANT PAU";"emt";"Camp del T�ria - Marina Baixa";"POINT (-0.406692380255878 39.49258237229527)";-0,406692380255879;39,4925823722953;NA
"716";"SANT PAU";"emt";"Mestre Rodrigo - Canal de Navarr�s";"POINT (-0.407025070879727 39.49092046389964)";-0,407025070879727;39,4909204638996;NA
"717";"SANT PAU";"emt";"Manuel de Falla - Hern�ndez L�zaro";"POINT (-0.404597915802819 39.474946428263856)";-0,404597915802819;39,4749464282639;NA
"718";"SANT PAU";"emt";"Vall de la Ballestera - Luis Bu�uel";"POINT (-0.400494398210217 39.47853355107625)";-0,400494398210217;39,4785335510762;NA
"719";"PINEDO";"emt";"Carrera del Riu (par) - Coll Vert";"POINT (-0.332468850915316 39.39637128088112)";-0,332468850915316;39,3963712808811;NA
"720";"PINEDO";"emt";"Moss�n Cuenca - Major";"POINT (-0.339794769243552 39.42221724106132)";-0,339794769243552;39,4222172410613;NA
"721";"CASTELLAR-L'OLIVERAL";"emt";"Rib�s (impar) - Ador";"POINT (-0.360710304211078 39.432437760712595)";-0,360710304211078;39,4324377607126;NA
"722";"CASTELLAR-L'OLIVERAL";"emt";"Mare de D�u de Lepant (impar) - Esc. F. Siurana";"POINT (-0.363666011019813 39.42950300271201)";-0,363666011019813;39,429503002712;NA
"723";"CASTELLAR-L'OLIVERAL";"emt";"Vicent Puchol - Font de Bonet";"POINT (-0.3641950897005 39.42660821111482)";-0,3641950897005;39,4266082111148;NA
"724";"CASTELLAR-L'OLIVERAL";"emt";"Vicent Puchol - Carrera dels Bales";"POINT (-0.363971551348239 39.42824229930336)";-0,363971551348239;39,4282422993034;NA
"725";"CASTELLAR-L'OLIVERAL";"emt";"Crist del Refugi - del Remol�";"POINT (-0.363936542365806 39.42470337611242)";-0,363936542365806;39,4247033761124;NA
"726";"CASTELLAR-L'OLIVERAL";"emt";"el Tremolar - Guadiana";"POINT (-0.350352702939432 39.422290086268745)";-0,350352702939432;39,4222900862687;NA
"727";"CASTELLAR-L'OLIVERAL";"emt";"el Tremolar - Cam� del Cavall�";"POINT (-0.360994215606882 39.42349799051801)";-0,360994215606882;39,423497990518;NA
"728";"EL FORN D'ALCEDO";"emt";"Guadalquivir - Forn d'Alcedo";"POINT (-0.37640523980149 39.43234226030631)";-0,37640523980149;39,4323422603063;NA
"729";"EL FORN D'ALCEDO";"emt";"Guadalquivir - Karl Marx";"POINT (-0.377034266220772 39.43051973246068)";-0,377034266220772;39,4305197324607;NA
"730";"LA TORRE";"emt";"Real de Madrid - Entrada Pinet";"POINT (-0.392607083445265 39.43031414641771)";-0,392607083445265;39,4303141464177;NA
"731";"LA TORRE";"emt";"Real de Madrid - Carretera d'Alba";"POINT (-0.391038497658278 39.434817347149)";-0,391038497658278;39,434817347149;NA
"732";"LA TORRE";"emt";"Manuel Iranzo - Real de Madrid";"POINT (-0.393471532760472 39.427384118604174)";-0,393471532760472;39,4273841186042;NA
"733";"LA TORRE";"emt";"Real de Madrid - Hell�n";"POINT (-0.39112144117618 39.43395841200274)";-0,39112144117618;39,4339584120027;NA
"734";"LA TORRE";"emt";"Real de Madrid - Concepci�n Arenal";"POINT (-0.390723344880305 39.435077926470704)";-0,390723344880305;39,4350779264707;NA
"735";"BENIFARAIG";"emt";"Palma de Gandia - Venta del Moro";"POINT (-0.383968464891415 39.52960581243864)";-0,383968464891415;39,5296058124386;NA
"736";"BENIFARAIG";"emt";"Ferrer i Bign� - Nelo el Fariner";"POINT (-0.385478056821558 39.530788592451074)";-0,385478056821558;39,5307885924511;NA
"737";"BENIFARAIG";"emt";"Cam� de Montcada (par) - Alqueria Senent";"POINT (-0.386469163088177 39.52156810554163)";-0,386469163088177;39,5215681055416;NA
"738";"BENIFARAIG";"emt";"Cam� de Montcada (impar) - Alqueria Senent";"POINT (-0.386546174915786 39.52158650424355)";-0,386546174915786;39,5215865042436;NA
"739";"BENICALAP";"emt";"General Avil�s - Miguel Servet (par)";"POINT (-0.394024109694734 39.48692321465886)";-0,394024109694734;39,4869232146589;NA
"740";"BENICALAP";"emt";"Bon Rec�s - Florista";"POINT (-0.392439395215926 39.49042109406889)";-0,392439395215926;39,4904210940689;NA
"741";"BENICALAP";"emt";"Dr. Nicasi Benlloch - Emili Nadal";"POINT (-0.392265929623066 39.48887507560184)";-0,392265929623066;39,4888750756018;NA
"742";"BENICALAP";"emt";"General Avil�s - Pius XII";"POINT (-0.395295859811078 39.486021299760495)";-0,395295859811078;39,4860212997605;NA
"743";"BENICALAP";"emt";"Joan XXIII - Pere Cabanes";"POINT (-0.383142319828898 39.49350911954965)";-0,383142319828898;39,4935091195496;NA
"744";"BENICALAP";"emt";"Equador - Salvador Tuset";"POINT (-0.39285705953393 39.495966909233424)";-0,39285705953393;39,4959669092334;NA
"745";"BENICALAP";"emt";"Poeta Serrano Clavero - Equador";"POINT (-0.38831223980589 39.4935230092711)";-0,38831223980589;39,4935230092711;NA
"746";"BENICALAP";"emt";"Federico Alcacer Aguilar - Joan XXIII";"POINT (-0.384275416363942 39.49520783357964)";-0,384275416363942;39,4952078335796;NA
"747";"BENICALAP";"emt";"Castellonet - Alfara del Patriarca";"POINT (-0.386073804463618 39.49266819004043)";-0,386073804463618;39,4926681900404;NA
"748";"BENICALAP";"emt";"Burjassot - Mond�ver";"POINT (-0.390290521696087 39.48948881854547)";-0,390290521696087;39,4894888185455;NA
"749";"BENICALAP";"emt";"Burjassot - Salvador Tuset";"POINT (-0.395602664231572 39.49457959905589)";-0,395602664231572;39,4945795990559;NA
"750";"BENICALAP";"emt";"Dr. Nicasi Benlloch - General Avil�s";"POINT (-0.390568642072737 39.48821410419426)";-0,390568642072737;39,4882141041943;NA
"751";"BENICALAP";"emt";"Corts Valencianes - Davant Esc. Prof. Sant Josep";"POINT (-0.396419900049413 39.486989442097055)";-0,396419900049413;39,4869894420971;NA
"752";"BENICALAP";"emt";"Joan XXIII - Periodista Gil Sumbiela";"POINT (-0.383197645749131 39.49264804526985)";-0,383197645749131;39,4926480452699;NA
"753";"BENICALAP";"emt";"Dr. Peset Aleixandre - Mond�ver";"POINT (-0.386764443103566 39.4893414650637)";-0,386764443103566;39,4893414650637;NA
"754";"TORREFIEL";"emt";"Pere Cabanes - Mont Carmel";"POINT (-0.372785287173998 39.49542308982539)";-0,372785287173998;39,4954230898254;NA
"755";"TORREFIEL";"emt";"Comte de Torrefiel - Mestre Mar�al";"POINT (-0.375937084695655 39.493253111665446)";-0,375937084695655;39,4932531116654;NA
"756";"TORREFIEL";"emt";"Comte de Torrefiel - Josep Esteve";"POINT (-0.376812257522438 39.495825687541426)";-0,376812257522438;39,4958256875414;NA
"757";"TORREFIEL";"emt";"Comte de Torrefiel - Riu Bidasoa";"POINT (-0.377216536944675 39.49791628936195)";-0,377216536944675;39,497916289362;NA
"758";"TORREFIEL";"emt";"Pere Patrici Mey - Felip Rinaldi";"POINT (-0.377088599029096 39.492515437863055)";-0,377088599029096;39,4925154378631;NA
"759";"TORREFIEL";"emt";"Pintor Jacomart - Sant Dom�nec Savio";"POINT (-0.375981987604044 39.49680060674762)";-0,375981987604044;39,4968006067476;NA
"760";"TORREFIEL";"emt";"Comte de Torrefiel - Escultor Piquer";"POINT (-0.375465365729967 39.49211284810277)";-0,375465365729967;39,4921128481028;NA
"761";"TORREFIEL";"emt";"Joan XXIII (par) - F�lix del R�o";"POINT (-0.382308913832187 39.49122148612193)";-0,382308913832187;39,4912214861219;NA
"762";"TORREFIEL";"emt";"Sant Dom�nec Savio - Mestre Mar�al";"POINT (-0.374533776423062 39.493478972011324)";-0,374533776423062;39,4934789720113;NA
"763";"TORREFIEL";"emt";"Cam� de Montcada - Dr. Peset Aleixandre";"POINT (-0.37857641860951 39.491466339360834)";-0,37857641860951;39,4914663393608;NA
"764";"TORREFIEL";"emt";"Cam� de Montcada (par) - Alemany";"POINT (-0.380957266863288 39.49649233130628)";-0,380957266863288;39,4964923313063;NA
"765";"TORMOS";"emt";"Dr. Peset Aleixandre - Constituci�";"POINT (-0.374852644156916 39.4917537906104)";-0,374852644156916;39,4917537906104;NA
"766";"SANT ANTONI";"emt";"Sagunt - Pare Urb�";"POINT (-0.375014708431509 39.48882816007786)";-0,375014708431509;39,4888281600779;NA
"767";"SANT ANTONI";"emt";"Sagunt - Don Bosco";"POINT (-0.373954300036993 39.49157574754545)";-0,373954300036993;39,4915757475454;NA
"768";"BENIMACLET";"emt";"Dolores Marqu�s - Reverend Jos� Mar�a Pinazo";"POINT (-0.362841300755677 39.48667157492595)";-0,362841300755677;39,4866715749259;NA
"769";"BENIMACLET";"emt";"Primat Reig - Viver";"POINT (-0.365636460074075 39.486086528096564)";-0,365636460074075;39,4860865280966;NA
"770";"BENIMACLET";"emt";"Emili Bar� - Manuel Castellanos";"POINT (-0.361264240829015 39.48670468902817)";-0,361264240829015;39,4867046890282;NA
"771";"BENIMACLET";"emt";"Catalunya - Vicent Zaragoz�";"POINT (-0.352682726190476 39.48119613406527)";-0,352682726190476;39,4811961340653;NA
"772";"BENIMACLET";"emt";"Alboraia - Primat Reig";"POINT (-0.367890711262683 39.48699362595993)";-0,367890711262683;39,4869936259599;NA
"773";"BENIMACLET";"emt";"Jaume Esteve Cubells - Dr. Vicent Zaragoz�";"POINT (-0.358503463421856 39.48332151477854)";-0,358503463421856;39,4833215147785;NA
"774";"MARXALENES";"emt";"Dr. Peset Aleixandre - En Guillem Ferrer";"POINT (-0.387211374789352 39.48902161372383)";-0,387211374789352;39,4890216137238;NA
"775";"MARXALENES";"emt";"Reus (impar) - Poeta Fdez. Heredia";"POINT (-0.380030529388524 39.48577504733034)";-0,380030529388524;39,4857750473303;NA
"776";"MARXALENES";"emt";"Reus - Periodista Llorente";"POINT (-0.383548762983995 39.48579459216533)";-0,383548762983995;39,4857945921653;NA
"777";"MARXALENES";"emt";"Reus (par) - Poeta Fdez. Heredia";"POINT (-0.379385311673959 39.4855359988057)";-0,379385311673959;39,4855359988057;NA
"778";"EL CALVARI";"emt";"Dr. Nicasi Benlloch - Alcubles";"POINT (-0.388599782696296 39.48723665241967)";-0,388599782696296;39,4872366524197;NA
"779";"MORVEDRE";"emt";"Ruaya (impar) - Visitaci�";"POINT (-0.376401882174122 39.48532804888433)";-0,376401882174122;39,4853280488843;NA
"780";"MORVEDRE";"emt";"Argenter Su�rez - Miraculosa";"POINT (-0.372874706001232 39.485268897192846)";-0,372874706001232;39,4852688971928;NA
"781";"MORVEDRE";"emt";"Almassora - Pintor Vilar";"POINT (-0.372695190701497 39.482860936855275)";-0,372695190701497;39,4828609368553;NA
"782";"MORVEDRE";"emt";"Sagunt - Fra Pere Vives";"POINT (-0.374656151745395 39.48622967662349)";-0,374656151745395;39,4862296766235;NA
"783";"TRINITAT";"emt";"Cabanilles - Primat Reig";"POINT (-0.364204613827461 39.48399951911224)";-0,364204613827461;39,4839995191122;NA
"784";"TRINITAT";"emt";"Molinell (impar) - Alboraia";"POINT (-0.370042900557365 39.48520312720345)";-0,370042900557365;39,4852031272034;NA
"785";"TRINITAT";"emt";"Molinell (impar) - Pintor Genaro Lahuerta";"POINT (-0.366966346405066 39.48494715283876)";-0,366966346405066;39,4849471528388;NA
"786";"LES TENDETES";"emt";"Men�ndez Pidal (par) - Pare Ferr�s";"POINT (-0.384438079805534 39.481746152952034)";-0,384438079805534;39,481746152952;NA
"787";"LES TENDETES";"emt";"Men�ndez Pidal (impar) - Pare Ferr�s";"POINT (-0.384358747939369 39.48145896866638)";-0,384358747939369;39,4814589686664;NA
"788";"CAMPANAR";"emt";"Mestre Rodrigo - Marqu�s de Sant Joan";"POINT (-0.397308989693821 39.477528937043594)";-0,397308989693821;39,4775289370436;NA
"789";"CAMPANAR";"emt";"Tirso de Molina - Mestre Rodrigo";"POINT (-0.396420849777026 39.47688428047436)";-0,396420849777026;39,4768842804744;NA
"790";"CAMPANAR";"emt";"Campanar - Conchita Piquer";"POINT (-0.390939178760981 39.485975630760876)";-0,390939178760981;39,4859756307609;NA
"791";"CAMPANAR";"emt";"Campanar - Ricardo Mic�";"POINT (-0.390687942293629 39.48589161287325)";-0,390687942293629;39,4858916128733;NA
"792";"CAMPANAR";"emt";"Campanar - Pius XII";"POINT (-0.393231958999557 39.4804208192536)";-0,393231958999557;39,4804208192536;NA
"793";"CAMPANAR";"emt";"Pius XII (par) - Monestir de Poblet";"POINT (-0.394693289622059 39.484395755727704)";-0,394693289622059;39,4843957557277;NA
"794";"CAMPANAR";"emt";"Pius XII - Bisbe Soler";"POINT (-0.393394967569827 39.481693096134286)";-0,393394967569827;39,4816930961343;NA
"795";"CAMPANAR";"emt";"Manuel de Falla - Mestre Rodrigo";"POINT (-0.397808718741346 39.47632276676767)";-0,397808718741346;39,4763227667677;NA
"796";"JAUME ROIG";"emt";"Jaume Roig - �lvaro de Baz�n";"POINT (-0.36391047063047 39.48127030780663)";-0,36391047063047;39,4812703078066;NA
"797";"JAUME ROIG";"emt";"Primat Reig - Emili Bar�";"POINT (-0.363328508867615 39.48440233392414)";-0,363328508867615;39,4844023339241;NA
"798";"EL CARME";"emt";"Guillem de Castro - Lliria";"POINT (-0.380981010745894 39.48107496865323)";-0,380981010745894;39,4810749686532;NA
"799";"EL CARME";"emt";"Guillem de Castro - Corona";"POINT (-0.383694113064675 39.47784075822326)";-0,383694113064675;39,4778407582233;NA
"800";"CIUTAT UNIVERSITARIA";"emt";"Primat Reig - Campus Universitari";"POINT (-0.358121458581932 39.48012472099756)";-0,358121458581932;39,4801247209976;NA
"801";"EL BOTANIC";"emt";"�ngel Guimer� - Ferran el Cat�lic";"POINT (-0.384448691332355 39.47040773428877)";-0,384448691332355;39,4704077342888;NA
"802";"EL BOTANIC";"emt";"Espinosa - Ferran el Cat�lic";"POINT (-0.384395967170865 39.472122004683534)";-0,384395967170865;39,4721220046835;NA
"803";"EL BOTANIC";"emt";"Ferran el Cat�lic - Petxina";"POINT (-0.38958803122332 39.47714575801253)";-0,38958803122332;39,4771457580125;NA
"804";"EL BOTANIC";"emt";"Ferran el Cat�lic (par) - �ngel Guimer�";"POINT (-0.384685053362044 39.47025729150695)";-0,384685053362044;39,4702572915069;NA
"805";"EXPOSICIO";"emt";"Albereda - Pla del Real";"POINT (-0.366829006452509 39.476445075888684)";-0,366829006452509;39,4764450758887;NA
"806";"EXPOSICIO";"emt";"Blasco Ib��ez - Facultat de Filologia";"POINT (-0.359204334389527 39.47683753380196)";-0,359204334389527;39,476837533802;NA
"807";"EXPOSICIO";"emt";"Misser Masc� - Dr. Rodr�guez Forn�s";"POINT (-0.36033216760344 39.47494050747461)";-0,36033216760344;39,4749405074746;NA
"808";"LA VEGA BAIXA";"emt";"Clariano - Albalat dels Tarongers";"POINT (-0.351271594194492 39.47782569405226)";-0,351271594194492;39,4778256940523;NA
"809";"LA PETXINA";"emt";"Petxina - Terol";"POINT (-0.393586504611119 39.475973374373616)";-0,393586504611119;39,4759733743736;NA
"810";"LA PETXINA";"emt";"P�rez Gald�s - Sant Josep de la Muntanya";"POINT (-0.3948889482134 39.47399451415705)";-0,3948889482134;39,473994514157;NA
"811";"LA PETXINA";"emt";"P�rez Gald�s - Dr. Zamenhof";"POINT (-0.395314804629995 39.47462197483714)";-0,395314804629995;39,4746219748371;NA
"812";"LA PETXINA";"emt";"Ferran el Cat�lic - Dr. Zamenhof";"POINT (-0.390097790646978 39.47699288725083)";-0,390097790646978;39,4769928872508;NA
"813";"LA PETXINA";"emt";"Ferran el Cat�lic (impar) - Quart";"POINT (-0.388891306805918 39.475348343105786)";-0,388891306805918;39,4753483431058;NA
"814";"LA PETXINA";"emt";"Quart - Ferr�n el Cat�lic";"POINT (-0.389320849164641 39.47493746261246)";-0,389320849164641;39,4749374626125;NA
"815";"BETERO";"emt";"Blasco Ib��ez (par) - Jos� Mar�a Haro";"POINT (-0.338255281402575 39.47065892844218)";-0,338255281402575;39,4706589284422;NA
"816";"BETERO";"emt";"Blasco Ib��ez - Serradora";"POINT (-0.335187805498138 39.470267556093475)";-0,335187805498138;39,4702675560935;NA
"817";"BETERO";"emt";"Blasco Ib��ez - Manuela Estelles";"POINT (-0.335623759549611 39.46992747262708)";-0,335623759549611;39,4699274726271;NA
"818";"CABANYAL-CANYAMELAR";"emt";"Mediterr�nia - Vicent Brull";"POINT (-0.331699700183597 39.467778400639034)";-0,331699700183597;39,467778400639;NA
"819";"CABANYAL-CANYAMELAR";"emt";"Eug�nia Vi�es - Mare de D�u del Sufragi";"POINT (-0.32533499743841 39.46688913638225)";-0,32533499743841;39,4668891363822;NA
"820";"CABANYAL-CANYAMELAR";"emt";"Dr. Lluch - Pescadors";"POINT (-0.327974641033582 39.46940068511278)";-0,327974641033582;39,4694006851128;NA
"821";"CABANYAL-CANYAMELAR";"emt";"Passeig Mar�tim - S�quia de la Cadena";"POINT (-0.324666430662337 39.4735075015017)";-0,324666430662337;39,4735075015017;NA
"822";"CABANYAL-CANYAMELAR";"emt";"Dr. Lluch - Vicent Guillot";"POINT (-0.327376960664833 39.47346915545767)";-0,327376960664833;39,4734691554577;NA
"823";"CABANYAL-CANYAMELAR";"emt";"Mar� Blas de Lezo - Felip Gauna";"POINT (-0.334007717619885 39.47225105896485)";-0,334007717619885;39,4722510589649;NA
"824";"CABANYAL-CANYAMELAR";"emt";"Reina - Armada Espanyola";"POINT (-0.329473995709623 39.463786402976126)";-0,329473995709623;39,4637864029761;NA
"825";"CABANYAL-CANYAMELAR";"emt";"Dr. Lluch - Armada Espanyola";"POINT (-0.328745444275734 39.46373956971578)";-0,328745444275734;39,4637395697158;NA
"826";"CABANYAL-CANYAMELAR";"emt";"Reina - Vicent Gallart";"POINT (-0.329133219387544 39.465609687609025)";-0,329133219387544;39,465609687609;NA
"827";"CABANYAL-CANYAMELAR";"emt";"Serradora - Fco. Cubells";"POINT (-0.336123838328521 39.464019831425766)";-0,336123838328521;39,4640198314258;NA
"828";"CABANYAL-CANYAMELAR";"emt";"Mar� Blas de Lezo(impar) -Estaci� Cabanyal";"POINT (-0.334661476207832 39.470910510842266)";-0,334661476207832;39,4709105108423;NA
"829";"CABANYAL-CANYAMELAR";"emt";"Mar� Blas de Lezo(par) -Estaci� Cabanyal";"POINT (-0.33439009238985 39.46968621457271)";-0,33439009238985;39,4696862145727;NA
"830";"CABANYAL-CANYAMELAR";"emt";"Estaci� del Cabanyal";"POINT (-0.334197284720944 39.47015132722144)";-0,334197284720944;39,4701513272214;NA
"831";"CABANYAL-CANYAMELAR";"emt";"Passeig Mar�tim - Pescadors";"POINT (-0.324631524726627 39.47048174906106)";-0,324631524726627;39,4704817490611;NA
"832";"CABANYAL-CANYAMELAR";"emt";"Pintor Ferrandis - �ngels";"POINT (-0.331709566314987 39.47223975267974)";-0,331709566314987;39,4722397526797;NA
"833";"CABANYAL-CANYAMELAR";"emt";"Reina - Columbretes";"POINT (-0.328805856296755 39.468114699511595)";-0,328805856296755;39,4681146995116;NA
"834";"CABANYAL-CANYAMELAR";"emt";"Dr. Lluch - Vicent Gallart";"POINT (-0.328484010096865 39.4656271966117)";-0,328484010096865;39,4656271966117;NA
"835";"MESTALLA";"emt";"Arag� - Finl�ndia";"POINT (-0.358644851954837 39.470826059497384)";-0,358644851954837;39,4708260594974;NA
"836";"MESTALLA";"emt";"Arag� - Saragossa";"POINT (-0.359977266563209 39.46864963721426)";-0,359977266563209;39,4686496372143;NA
"837";"MESTALLA";"emt";"Arag� - Blasco Ib��ez";"POINT (-0.355779094526059 39.47506320359846)";-0,355779094526059;39,4750632035985;NA
"838";"MESTALLA";"emt";"Albereda - Illes Can�ries";"POINT (-0.360447509467594 39.46788493350332)";-0,360447509467594;39,4678849335033;NA
"839";"MESTALLA";"emt";"Blasco Ib��ez - B�lgica";"POINT (-0.354840026967575 39.47583171984323)";-0,354840026967575;39,4758317198432;NA
"840";"MESTALLA";"emt";"Cardenal Benlloch - Dr. Ferran";"POINT (-0.355406359258442 39.469622165753435)";-0,355406359258442;39,4696221657534;NA
"841";"MESTALLA";"emt";"Ernest Ferrer - Polo y Peirol�n";"POINT (-0.355901795534392 39.47184869539602)";-0,355901795534392;39,471848695396;NA
"842";"MESTALLA";"emt";"Arag� - Passeig Albereda";"POINT (-0.360204828097074 39.469483163573415)";-0,360204828097074;39,4694831635734;NA
"843";"MESTALLA";"emt";"Cardenal Benlloch (impar) - Port";"POINT (-0.35641474912217 39.467662008449686)";-0,35641474912217;39,4676620084497;NA
"844";"MESTALLA";"emt";"Eduard Bosc� - Passeig de l'Albereda";"POINT (-0.357835295720367 39.46463097002357)";-0,357835295720367;39,4646309700236;NA
"845";"LA XEREA";"emt";"Carrer de la Pau";"POINT (-0.37230662588319 39.473192123839745)";-0,37230662588319;39,4731921238397;NA
"846";"LA XEREA";"emt";"Porta de la Mar - Pla�a";"POINT (-0.36834819298744 39.472403557237925)";-0,36834819298744;39,4724035572379;NA
"847";"LA XEREA";"emt";"Porta de la Mar - Glorieta";"POINT (-0.368889932317389 39.472164208791256)";-0,368889932317389;39,4721642087913;NA
"848";"EL MERCAT";"emt";"Mercat Central - Llotja";"POINT (-0.379623808507389 39.47377932063826)";-0,379623808507389;39,4737793206383;NA
"849";"EL MERCAT";"emt";"Av. de l'Oest - Beata";"POINT (-0.379849670294247 39.47252498332397)";-0,379849670294247;39,472524983324;NA
"850";"EL PILAR";"emt";"Guillem de Castro - Hospital";"POINT (-0.383567223938069 39.470921033084934)";-0,383567223938069;39,4709210330849;NA
"851";"SANT FRANCESC";"emt";"Pl. de l'Ajuntament - Barques";"POINT (-0.375855078189587 39.470198506056455)";-0,375855078189587;39,4701985060565;NA
"852";"SANT FRANCESC";"emt";"Col�n - els Pinazo";"POINT (-0.370976594850268 39.46995212040537)";-0,370976594850268;39,4699521204054;NA
"853";"SANT FRANCESC";"emt";"Marqu�s de Sotelo - X�tiva";"POINT (-0.376882508823579 39.46807544542191)";-0,376882508823579;39,4680754454219;NA
"854";"SANT FRANCESC";"emt";"Marqu�s de Sotelo - Pl. de l'Ajuntament";"POINT (-0.376792908886701 39.46888862928017)";-0,376792908886701;39,4688886292802;NA
"855";"SANT FRANCESC";"emt";"Barques - Pl. de l'Ajuntament";"POINT (-0.375493841662065 39.470306201581394)";-0,375493841662065;39,4703062015814;NA
"856";"SANT FRANCESC";"emt";"Sant Pau - Sant Agust�";"POINT (-0.37897462772531 39.46868623993769)";-0,37897462772531;39,4686862399377;NA
"857";"SANT FRANCESC";"emt";"Pascual i Gen�s - Roger de Lloria";"POINT (-0.373945930312805 39.468461996960656)";-0,373945930312805;39,4684619969607;NA
"858";"SANT FRANCESC";"emt";"Quevedo - Av. de l'Oest";"POINT (-0.380306610495882 39.47006858503474)";-0,380306610495882;39,4700685850347;NA
"859";"EL PLA DEL REMEI";"emt";"Porta de la Mar (par) - Navarro Reverter";"POINT (-0.367746372581993 39.471674539463336)";-0,367746372581993;39,4716745394633;NA
"860";"EL PLA DEL REMEI";"emt";"Marqu�s del T�ria - Russafa";"POINT (-0.373282851077547 39.46538140788541)";-0,373282851077547;39,4653814078854;NA
"861";"EL PLA DEL REMEI";"emt";"Am�rica - Pont d'Arag�";"POINT (-0.364137670315806 39.469289468049226)";-0,364137670315806;39,4692894680492;NA
"862";"EL PLA DEL REMEI";"emt";"Russafa - Ciril Amor�s";"POINT (-0.37415620496074 39.46575762261177)";-0,37415620496074;39,4657576226118;NA
"863";"L'ILLA PERDUDA";"emt";"Blasco Ib��ez - Enginyer Rafael Janini";"POINT (-0.340259130773682 39.47124848700544)";-0,340259130773682;39,4712484870054;NA
"864";"L'ILLA PERDUDA";"emt";"Serradora - Ambulatori";"POINT (-0.335099633107121 39.46812271509932)";-0,335099633107121;39,4681227150993;NA
"865";"L'ILLA PERDUDA";"emt";"Sants Just i Pastor - Fusta";"POINT (-0.336863306594542 39.46656877805656)";-0,336863306594542;39,4665687780566;NA
"866";"L'ILLA PERDUDA";"emt";"Sants Just i Pastor - Music Gin�s";"POINT (-0.342658660059044 39.46824473105302)";-0,342658660059044;39,468244731053;NA
"867";"L'ILLA PERDUDA";"emt";"Sants Just i Pastor - Jose Maria Haro";"POINT (-0.339811179155725 39.46743825390262)";-0,339811179155725;39,4674382539026;NA
"868";"L'ILLA PERDUDA";"emt";"Serradora - Sants Just i Pastor";"POINT (-0.335415642288211 39.46629605139407)";-0,335415642288211;39,4662960513941;NA
"869";"ALBORS";"emt";"Dr. Manuel Candela (impar) - Rodr�guez de Cepeda";"POINT (-0.350267461778232 39.46837612812195)";-0,350267461778232;39,468376128122;NA
"870";"ALBORS";"emt";"Cardenal Benlloch (par) - Port";"POINT (-0.356096978144311 39.467526944885634)";-0,356096978144311;39,4675269448856;NA
"871";"ALBORS";"emt";"Cardenal Benlloch - Pobla Farnals";"POINT (-0.354919290458837 39.46994260317333)";-0,354919290458837;39,4699426031733;NA
"872";"ARRANCAPINS";"emt";"Ram�n i Cajal - Pintor Benedito";"POINT (-0.382265335358574 39.466015336900554)";-0,382265335358574;39,4660153369006;NA
"873";"ARRANCAPINS";"emt";"P�rez Gald�s - Conca";"POINT (-0.388386531926406 39.46492560370926)";-0,388386531926406;39,4649256037093;NA
"874";"ARRANCAPINS";"emt";"Ram�n i Cajal (impar) - Jes�s";"POINT (-0.383029383123465 39.46709216090813)";-0,383029383123465;39,4670921609081;NA
"875";"ARRANCAPINS";"emt";"Espanya - Sant Vicent M�rtir";"POINT (-0.381752078538855 39.46526829538058)";-0,381752078538855;39,4652682953806;NA
"876";"ARRANCAPINS";"emt";"Sant Vicent M�rtir - Ro�s de Corella";"POINT (-0.383109218974062 39.45890224268825)";-0,383109218974062;39,4589022426882;NA
"877";"ARRANCAPINS";"emt";"Sant Vicent M�rtir - Dr. Gil i Morte";"POINT (-0.382298672418641 39.46161050778483)";-0,382298672418641;39,4616105077848;NA
"878";"ARRANCAPINS";"emt";"Jes�s - Pintor Segrelles";"POINT (-0.38556997369239 39.4638253607591)";-0,38556997369239;39,4638253607591;NA
"879";"ARRANCAPINS";"emt";"Albacete - Mestre Sosa";"POINT (-0.385407728547201 39.461397978025815)";-0,385407728547201;39,4613979780258;NA
"880";"ARRANCAPINS";"emt";"�ngel Guimer� - Bon Ordre";"POINT (-0.388104270327202 39.46986104697125)";-0,388104270327202;39,4698610469713;NA
"881";"ARRANCAPINS";"emt";"Ram�n i Cajal - Bail�n";"POINT (-0.37962350048752 39.463088385786634)";-0,37962350048752;39,4630883857866;NA
"882";"LA ROQUETA";"emt";"Ram�n i Cajal - Pla�a Espanya";"POINT (-0.381949992907317 39.466449755164376)";-0,381949992907317;39,4664497551644;NA
"883";"LA ROQUETA";"emt";"Espanya - Ermita";"POINT (-0.381037233440005 39.46526975540243)";-0,381037233440005;39,4652697554024;NA
"884";"LA ROQUETA";"emt";"Ram�n i Cajal (par) - Jes�s";"POINT (-0.382753299872638 39.467632688241345)";-0,382753299872638;39,4676326882413;NA
"885";"LA GRAN VIA";"emt";"Regne de Val�ncia - Ciscar";"POINT (-0.363133701052573 39.462853248624675)";-0,363133701052573;39,4628532486247;NA
"886";"LA GRAN VIA";"emt";"Jacinto Benavente - Peris i Valero";"POINT (-0.361268175224138 39.46345125047803)";-0,361268175224138;39,463451250478;NA
"887";"LA GRAN VIA";"emt";"Jacinto Benavente - Pont Angel Custodi";"POINT (-0.361134861231653 39.46431865212691)";-0,361134861231653;39,4643186521269;NA
"888";"LA GRAN VIA";"emt";"Joaqu�n Costa - Comte d'Altea";"POINT (-0.36712020561918 39.46601301675472)";-0,36712020561918;39,4660130167547;NA
"889";"LA GRAN VIA";"emt";"Mestre Racional - Regne de Val�ncia";"POINT (-0.363291361054336 39.46343636103609)";-0,363291361054336;39,4634363610361;NA
"890";"LA GRAN VIA";"emt";"Marqu�s del T�ria - Gregori Mayans";"POINT (-0.372258232652269 39.46530338106287)";-0,372258232652269;39,4653033810629;NA
"891";"LA GRAN VIA";"emt";"Marqu�s del T�ria - Mestre Gozalbo";"POINT (-0.369502802585984 39.46646804265443)";-0,369502802585984;39,4664680426544;NA
"892";"LA GRAN VIA";"emt";"Regne de Val�ncia - Gregori Mayans";"POINT (-0.37200999392269 39.46479642825968)";-0,37200999392269;39,4647964282597;NA
"893";"TRES FORQUES";"emt";"Cid - Santa Cruz de Tenerife";"POINT (-0.399923356462128 39.46855467191308)";-0,399923356462128;39,4685546719131;NA
"894";"TRES FORQUES";"emt";"Tres Forques (par) - Arxiduc Carles";"POINT (-0.396898707317904 39.46405479689724)";-0,396898707317904;39,4640547968972;NA
"895";"TRES FORQUES";"emt";"Tres Forques - Josep Maestre";"POINT (-0.402853870084971 39.463822002238295)";-0,402853870084971;39,4638220022383;NA
"896";"CAMI FONDO";"emt";"Illes Can�ries - Lebon";"POINT (-0.350460328983485 39.46504286806911)";-0,350460328983485;39,4650428680691;NA
"897";"PATRAIX";"emt";"Arxiduc Carles - Xiva";"POINT (-0.393419293338743 39.466446040187975)";-0,393419293338743;39,466446040188;NA
"898";"PATRAIX";"emt";"Arxiduc Carles - �nguera";"POINT (-0.394917643431936 39.46508335859468)";-0,394917643431936;39,4650833585947;NA
"899";"PATRAIX";"emt";"Tres Forques - Xiva";"POINT (-0.389492484118372 39.46436118441269)";-0,389492484118372;39,4643611844127;NA
"900";"PATRAIX";"emt";"Tres Forques - Mestre Bellver";"POINT (-0.393359492015465 39.46420609549468)";-0,393359492015465;39,4642060954947;NA
"901";"PATRAIX";"emt";"Beat Nicolau Factor - Lladr� i Mall�";"POINT (-0.389915454582269 39.46057634741373)";-0,389915454582269;39,4605763474137;NA
"902";"PATRAIX";"emt";"Humanista Mariner - Beat Nicolau Factor";"POINT (-0.392713581303658 39.46173913299349)";-0,392713581303658;39,4617391329935;NA
"903";"PATRAIX";"emt";"Pius XI - Manuel Sim�";"POINT (-0.392194634331807 39.459766627474146)";-0,392194634331807;39,4597666274741;NA
"904";"PATRAIX";"emt";"Gaspar Aguilar - Fontanars dels Alforins";"POINT (-0.390244296391372 39.45685209429294)";-0,390244296391372;39,4568520942929;NA
"905";"RUSSAFA";"emt";"Sueca - Puerto Rico";"POINT (-0.374913070818613 39.46134617379494)";-0,374913070818613;39,4613461737949;NA
"906";"RUSSAFA";"emt";"Sueca - G.V. Germanies";"POINT (-0.376350063232228 39.46333056135542)";-0,376350063232228;39,4633305613554;NA
"907";"RUSSAFA";"emt";"Sueca - Peris i Valero";"POINT (-0.373164372506197 39.45888536508175)";-0,373164372506197;39,4588853650817;NA
"908";"RUSSAFA";"emt";"Germanies - Cuba";"POINT (-0.377201032733749 39.46306482077388)";-0,377201032733749;39,4630648207739;NA
"909";"RUSSAFA";"emt";"Filipines - Puerto Rico";"POINT (-0.378220747704611 39.4605641914056)";-0,378220747704611;39,4605641914056;NA
"910";"RUSSAFA";"emt";"Maties Perell� - Lluis de Santangel";"POINT (-0.366451887367127 39.462143012081526)";-0,366451887367127;39,4621430120815;NA
"911";"RUSSAFA";"emt";"Maties Perell� - Mestre Aguilar";"POINT (-0.369335090160438 39.4609243776537)";-0,369335090160438;39,4609243776537;NA
"912";"RUSSAFA";"emt";"dels Centelles - Sueca";"POINT (-0.372790683137205 39.4594522205754)";-0,372790683137205;39,4594522205754;NA
"913";"RUSSAFA";"emt";"Cadis - D�nia";"POINT (-0.374898673292691 39.46361498632987)";-0,374898673292691;39,4636149863299;NA
"914";"RUSSAFA";"emt";"Russafa - Sant Valero";"POINT (-0.371780127583942 39.46323640148862)";-0,371780127583942;39,4632364014886;NA
"915";"RUSSAFA";"emt";"Regne de Val�ncia - Russafa";"POINT (-0.372852029449368 39.46467637044058)";-0,372852029449368;39,4646763704406;NA
"916";"RUSSAFA";"emt";"Regne de Val�ncia - Llu�s Sant�ngel";"POINT (-0.369186679075408 39.463864192123694)";-0,369186679075408;39,4638641921237;NA
"917";"RUSSAFA";"emt";"Regne de Val�ncia - Peris i Valero";"POINT (-0.363917375790073 39.46272724678607)";-0,363917375790073;39,4627272467861;NA
"918";"RUSSAFA";"emt";"Peris i Valero - Cuba";"POINT (-0.373732283042966 39.45793750049406)";-0,373732283042966;39,4579375004941;NA
"919";"RUSSAFA";"emt";"Pintor Salvador Abril - Maties Perell�";"POINT (-0.369504873914215 39.4617268506914)";-0,369504873914215;39,4617268506914;NA
"920";"PENYA-ROJA";"emt";"Tom�s Monta�ana - Albereda";"POINT (-0.35333938540265 39.46105560452673)";-0,35333938540265;39,4610556045267;NA
"921";"PENYA-ROJA";"emt";"Fran�a - Higinio Noja";"POINT (-0.34627743383737 39.45929235520013)";-0,34627743383737;39,4592923552001;NA
"922";"PENYA-ROJA";"emt";"Fran�a-Albereda";"POINT (-0.352146696557467 39.46005170530687)";-0,352146696557467;39,4600517053069;NA
"923";"PENYA-ROJA";"emt";"Menorca (impar) - Centre Comercial";"POINT (-0.345022958158241 39.45758473958636)";-0,345022958158241;39,4575847395864;NA
"924";"PENYA-ROJA";"emt";"Pintor Maella (impar) - Fran�a";"POINT (-0.348246311700249 39.458978296449324)";-0,348246311700249;39,4589782964493;NA
"925";"LA CREU DEL GRAU";"emt";"Menorca - Balears";"POINT (-0.342799851322775 39.45903452224491)";-0,342799851322775;39,4590345222449;NA
"926";"LA CREU DEL GRAU";"emt";"Illes Can�ries - Vicente Beltr�n";"POINT (-0.347461997713385 39.46415755599065)";-0,347461997713385;39,4641575559907;NA
"927";"LA CREU DEL GRAU";"emt";"Port - Eivissa";"POINT (-0.339188726604824 39.46181866806311)";-0,339188726604824;39,4618186680631;NA
"928";"MONT-OLIVET";"emt";"Alcalde Reig  - LLu�s Oliag";"POINT (-0.360423879204009 39.461657166512374)";-0,360423879204009;39,4616571665124;NA
"929";"MONT-OLIVET";"emt";"Amado Granell Mesado (par) - la Plata";"POINT (-0.363860947085473 39.4571533079936)";-0,363860947085473;39,4571533079936;NA
"930";"MONT-OLIVET";"emt";"Amado Granell Mesado (impar) - la Plata";"POINT (-0.363664879705385 39.45730462265758)";-0,363664879705385;39,4573046226576;NA
"931";"MONT-OLIVET";"emt";"Escultor Jos� Capuz - Benissa";"POINT (-0.361968230597396 39.46098279030533)";-0,361968230597396;39,4609827903053;NA
"932";"MONT-OLIVET";"emt";"Peris i Valero - Bisbe Jaume P�rez";"POINT (-0.367703736899375 39.46016880773685)";-0,367703736899375;39,4601688077368;NA
"933";"MONT-OLIVET";"emt";"Sapadors - la Plata";"POINT (-0.366847163509829 39.45561446415216)";-0,366847163509829;39,4556144641522;NA
"934";"MONT-OLIVET";"emt";"Sapadors - Dos d'Abril";"POINT (-0.367982622639279 39.457363657850344)";-0,367982622639279;39,4573636578503;NA
"935";"MONT-OLIVET";"emt";"Sapadors - Sant Gregori";"POINT (-0.368892941274527 39.459090446964105)";-0,368892941274527;39,4590904469641;NA
"936";"MONT-OLIVET";"emt";"la Plata - Amado Granell Mesado";"POINT (-0.362844279925114 39.457068262762284)";-0,362844279925114;39,4570682627623;NA
"937";"LA RAIOSA";"emt";"Uruguai - Vene�uela";"POINT (-0.387084463625119 39.45553562704458)";-0,387084463625119;39,4555356270446;NA
"938";"LA RAIOSA";"emt";"Uruguai - Crta. Escriv�";"POINT (-0.386756159021019 39.45798963774463)";-0,386756159021019;39,4579896377446;NA
"939";"LA RAIOSA";"emt";"Giorgeta - Mora de Rubielos";"POINT (-0.384609009418489 39.459078342637085)";-0,384609009418489;39,4590783426371;NA
"940";"LA RAIOSA";"emt";"Uruguai (impar) - Jeroni Muny�s";"POINT (-0.385954254755795 39.459732198689316)";-0,385954254755795;39,4597321986893;NA
"941";"LA RAIOSA";"emt";"Giorgeta (par) - Ro�s de Corella";"POINT (-0.384919135377888 39.459523600437734)";-0,384919135377888;39,4595236004377;NA
"942";"LA RAIOSA";"emt";"Giorgeta - Ro�s de Corella";"POINT (-0.38424871831644 39.45908203573662)";-0,38424871831644;39,4590820357366;NA
"943";"LA RAIOSA";"emt";"Sant Vicent M�rtir - Millars";"POINT (-0.383577038955687 39.45668903770944)";-0,383577038955687;39,4566890377094;NA
"944";"LA RAIOSA";"emt";"Jaime Beltr�n - Misser Rabassa";"POINT (-0.387952074143366 39.45660492836918)";-0,387952074143366;39,4566049283692;NA
"945";"SAFRANAR";"emt";"Fontanars dels Alforins - Humanista Mariner";"POINT (-0.394026981683686 39.45968070354599)";-0,394026981683686;39,459680703546;NA
"946";"CIUTAT DE LES ARTS I DE LES CIENCIES";"emt";"Inst. Obrer de Val. (impar) - Amado Granell Mesado";"POINT (-0.360715192440413 39.45457945012266)";-0,360715192440413;39,4545794501227;NA
"947";"CIUTAT DE LES ARTS I DE LES CIENCIES";"emt";"Inst. Obrer de Val. (par) - Amado Granell Mesado";"POINT (-0.36059438130675 39.45441526896926)";-0,36059438130675;39,4544152689693;NA
"948";"CIUTAT DE LES ARTS I DE LES CIENCIES";"emt";"Eduardo Primo Y�fera - Oceanogr�fic";"POINT (-0.347419081163478 39.45223157555012)";-0,347419081163478;39,4522315755501;NA
"949";"CIUTAT DE LES ARTS I DE LES CIENCIES";"emt";"Eduardo Primo Y�fera - �gora";"POINT (-0.350199798539768 39.453029042534126)";-0,350199798539768;39,4530290425341;NA
"950";"CIUTAT DE LES ARTS I DE LES CIENCIES";"emt";"Professor L�pez Pi�ero (impar) - Institut Obrer de Val�ncia";"POINT (-0.356172764356559 39.45709019710618)";-0,356172764356559;39,4570901971062;NA
"951";"CIUTAT DE LES ARTS I DE LES CIENCIES";"emt";"Actor Antonio Ferrandis (par) - Centre Comercial";"POINT (-0.353155236365033 39.45298629948874)";-0,353155236365033;39,4529862994887;NA
"952";"CIUTAT DE LES ARTS I DE LES CIENCIES";"emt";"Amado Granell Mesado (impar) - Antonio Sacramento";"POINT (-0.360244412504244 39.452741234088066)";-0,360244412504244;39,4527412340881;NA
"953";"EN CORTS";"emt";"la Plata - Alberola";"POINT (-0.369458927419798 39.45428589104666)";-0,369458927419798;39,4542858910467;NA
"954";"EN CORTS";"emt";"Ausi�s March - Dr. Waksman";"POINT (-0.374865544921116 39.45609620762131)";-0,374865544921116;39,4560962076213;NA
"955";"EN CORTS";"emt";"Peris i Valero - Ausi�s March";"POINT (-0.374775983099648 39.45719280922539)";-0,374775983099648;39,4571928092254;NA
"956";"EN CORTS";"emt";"Peris i Valero - Sapadors";"POINT (-0.370748608099981 39.45888839439698)";-0,370748608099981;39,458888394397;NA
"957";"EN CORTS";"emt";"B�rnia - Ausi�s March";"POINT (-0.372705499868521 39.454033478402884)";-0,372705499868521;39,4540334784029;NA
"958";"NA ROVELLA";"emt";"Germans Maristes (impar) - Fonteta Sant Llu�s";"POINT (-0.367827986296235 39.45162370927048)";-0,367827986296235;39,4516237092705;NA
"959";"NA ROVELLA";"emt";"Fonteta Sant Llu�s - Ebenista Caselles";"POINT (-0.369640985299165 39.45000046659349)";-0,369640985299165;39,4500004665935;NA
"960";"NA ROVELLA";"emt";"Germans Maristes (par) - Fonteta Sant Llu�s";"POINT (-0.368655145793597 39.45103380398765)";-0,368655145793597;39,4510338039876;NA
"961";"SANT ISIDRE";"emt";"Campos Crespo - Arquitecte Segura de Lago";"POINT (-0.402689518057409 39.45121296698807)";-0,402689518057409;39,4512129669881;NA
"962";"SANT ISIDRE";"emt";"Tres Creus - Bol�via";"POINT (-0.401072632351477 39.456333039909445)";-0,401072632351477;39,4563330399094;NA
"963";"SANT ISIDRE";"emt";"Tres Creus - Arxiduc Carles";"POINT (-0.402044273268071 39.4572016851054)";-0,402044273268071;39,4572016851054;NA
"964";"SANT ISIDRE";"emt";"Tres Creus - Mari� de C�via";"POINT (-0.400588094536275 39.454838716765394)";-0,400588094536275;39,4548387167654;NA
"965";"MALILLA";"emt";"Bernat Descoll - Joaqu�n Benlloch";"POINT (-0.37446555286677 39.45184825467761)";-0,37446555286677;39,4518482546776;NA
"966";"MALILLA";"emt";"Malilla (impar) - Bernat Descoll";"POINT (-0.378838257780329 39.45095733264283)";-0,378838257780329;39,4509573326428;NA
"967";"MALILLA";"emt";"Ausi�s March - Manuel Sanchis Guarner";"POINT (-0.37516089247376 39.4556061323697)";-0,37516089247376;39,4556061323697;NA
"968";"MALILLA";"emt";"Ausi�s March - Bernat Descoll";"POINT (-0.372732814462234 39.45204053555977)";-0,372732814462234;39,4520405355598;NA
"969";"MALILLA";"emt";"Bulevard Sud (par) - Malilla";"POINT (-0.381749948673 39.445515502049666)";-0,381749948673;39,4455155020497;NA
"970";"MALILLA";"emt";"Bulevard Sud (par) - Hospital la Fe";"POINT (-0.375654096157016 39.44489407071309)";-0,375654096157017;39,4448940707131;NA
"971";"MALILLA";"emt";"Bulevard Sud (impar) - Juan Ram�n Jim�nez";"POINT (-0.370038432770232 39.44594026868422)";-0,370038432770232;39,4459402686842;NA
"972";"MALILLA";"emt";"Bulevard Sud (impar) - Malilla";"POINT (-0.38127426797545 39.4458623463723)";-0,38127426797545;39,4458623463723;NA
"973";"MALILLA";"emt";"Ausi�s March - Olt�";"POINT (-0.373088225478405 39.452561170640784)";-0,373088225478405;39,4525611706408;NA
"974";"MALILLA";"emt";"Vicent Marco Miranda - Llu�s Alcany�s";"POINT (-0.373789899233067 39.44797640448956)";-0,373789899233067;39,4479764044896;NA
"975";"MALILLA";"emt";"Malilla - Pianista Empar Iturbi";"POINT (-0.378292990054785 39.45430865807703)";-0,378292990054785;39,454308658077;NA
"976";"MALILLA";"emt";"Joaqu�n Benlloch - Illa Cabrera";"POINT (-0.373773522575231 39.44975050171036)";-0,373773522575231;39,4497505017104;NA
"977";"MALILLA";"emt";"Joaqu�n Benlloch - Olt�";"POINT (-0.375567501367751 39.45231556558823)";-0,375567501367751;39,4523155655882;NA
"978";"MALILLA";"emt";"Joaqu�n Benlloch - Pianista Empar Iturbi";"POINT (-0.376751764221728 39.454004428003465)";-0,376751764221728;39,4540044280035;NA
"979";"MALILLA";"emt";"Pianista Empar Iturbi - Ausi�s March";"POINT (-0.375109738280597 39.45499444974422)";-0,375109738280597;39,4549944497442;NA
"980";"FAVARA";"emt";"Gaspar Aguilar - Hospital Peset";"POINT (-0.393310798124315 39.45223388240422)";-0,393310798124315;39,4522338824042;NA
"981";"L'HORT DE SENABRE";"emt";"Gaspar Aguilar - M�sic Penella";"POINT (-0.392899895595749 39.452448806061106)";-0,392899895595749;39,4524488060611;NA
"982";"L'HORT DE SENABRE";"emt";"Carters - Llanera de Ranes";"POINT (-0.388729134095896 39.452751744499096)";-0,388729134095896;39,4527517444991;NA
"983";"L'HORT DE SENABRE";"emt";"Carters - Calvo Acacio";"POINT (-0.38930104136477 39.45007608464773)";-0,38930104136477;39,4500760846477;NA
"984";"L'HORT DE SENABRE";"emt";"Carters (par) - Primer de Maig";"POINT (-0.38968702871894 39.44826694995558)";-0,38968702871894;39,4482669499556;NA
"985";"NATZARET";"emt";"Ares d'Alpont - Castell de Pop";"POINT (-0.333133155712254 39.44845348063821)";-0,333133155712254;39,4484534806382;NA
"986";"LA CREU COBERTA";"emt";"Sant Vicent M�rtir - Moss�n Febrer";"POINT (-0.385065751143765 39.45097328762902)";-0,385065751143765;39,450973287629;NA
"987";"LA CREU COBERTA";"emt";"Sant Vicent M�rtir - Primer de Maig";"POINT (-0.385797468847936 39.448368176749526)";-0,385797468847936;39,4483681767495;NA
"988";"LA CREU COBERTA";"emt";"Sant Vicent M�rtir - Fern�ndez de Mesa";"POINT (-0.384786513498501 39.45133654715024)";-0,384786513498501;39,4513365471502;NA
"989";"CAMI REAL";"emt";"Tres Creus (par) - Campos Crespo";"POINT (-0.399153414437809 39.45278413403888)";-0,399153414437809;39,4527841340389;NA
"990";"CAMI REAL";"emt";"Sant Dom�nec de Guzman - Cementeri";"POINT (-0.396223352912086 39.44806230593138)";-0,396223352912086;39,4480623059314;NA
"991";"CAMI REAL";"emt";"Jos� Soto Mic� - Alcal� de Xivert";"POINT (-0.388946030193096 39.44011423623236)";-0,388946030193096;39,4401142362324;NA
"992";"LA FONTETA S.LLUIS";"emt";"Gravador Jord�n - M�sic Cuesta";"POINT (-0.368161763070375 39.44250759126867)";-0,368161763070375;39,4425075912687;NA
"993";"LA FONTETA S.LLUIS";"emt";"M�sic Cuesta - Pare Presentat";"POINT (-0.368757084869046 39.441835588378666)";-0,368757084869046;39,4418355883787;NA
"994";"LA FONTETA S.LLUIS";"emt";"Actor Antonio Ferrandis (impar) - Font de St. Llu�s";"POINT (-0.367588370623613 39.446421459654275)";-0,367588370623613;39,4464214596543;NA
"995";"SANT MARCEL.LI";"emt";"Dr. Tom�s Sala - Sant Marcel.l�";"POINT (-0.391191982840993 39.447297153607266)";-0,391191982840993;39,4472971536073;NA
"996";"SANT MARCEL.LI";"emt";"Dr. Tom�s Sala (par) - Sant Vicent M�rtir";"POINT (-0.387226065502032 39.446393580570685)";-0,387226065502032;39,4463935805707;NA
"997";"SANT MARCEL.LI";"emt";"Dr. Tom�s Sala (impar) - Sant Vicent M�rtir";"POINT (-0.387277050577243 39.44692246459968)";-0,387277050577243;39,4469224645997;NA
"998";"L'AMISTAT";"emt";"Sants Just i Pastor - Dr. Manuel Candela";"POINT (-0.349845064454584 39.47030851490735)";-0,349845064454584;39,4703085149074;NA
"999";"LA PUNTA";"emt";"Jes�s Morante Borr�s (VIII)";"POINT (-0.343864925659023 39.44789357710909)";-0,343864925659023;39,4478935771091;NA
"1000";"LA PUNTA";"emt";"Jes�s Morante Borr�s (X)";"POINT (-0.345267220861017 39.45101157271057)";-0,345267220861017;39,4510115727106;NA
"1001";"LA PUNTA";"emt";"Punta al Mar (par) - Riu";"POINT (-0.340442094050262 39.445495274335165)";-0,340442094050262;39,4454952743352;NA
"1002";"LA PUNTA";"emt";"Punta al Mar (impar) - Canal";"POINT (-0.338255849285019 39.445338924075045)";-0,338255849285019;39,445338924075;NA
"1003";"LA PUNTA";"emt";"Punta al Mar (impar) - Riu";"POINT (-0.340578480510681 39.44555388914851)";-0,340578480510681;39,4455538891485;NA
"1004";"LA PUNTA";"emt";"Eduardo Primo Y�fera - Front Centre Investigaci�";"POINT (-0.34480387463782 39.45149286744768)";-0,34480387463782;39,4514928674477;NA
"1005";"LA PUNTA";"emt";"Barraques del Figuero (par) - Llauradors";"POINT (-0.340462396319933 39.45056912008153)";-0,340462396319933;39,4505691200815;NA
"1006";"LA PUNTA";"emt";"Barraques del Figuero - Cocoters";"POINT (-0.336228648843038 39.449760830637)";-0,336228648843038;39,449760830637;NA
"1007";"LA PUNTA";"emt";"Eduardo Primo Y�fera - Centre d'Investigaci�";"POINT (-0.346238882985 39.45189293002347)";-0,346238882985;39,4518929300235;NA
"1008";"LA PUNTA";"emt";"Carrera del Riu (par) - Rotonda Autovia";"POINT (-0.342193768871575 39.43080489305159)";-0,342193768871575;39,4308048930516;NA
"1009";"LA PUNTA";"emt";"Font d'en Corts (par) - Mercavalencia";"POINT (-0.355211180387676 39.43703545874697)";-0,355211180387676;39,437035458747;NA
"1010";"LA PUNTA";"emt";"Font d'en Corts (par) - Moss�n Palanca";"POINT (-0.35751199784811 39.44449212645261)";-0,35751199784811;39,4444921264526;NA
"1011";"LA PUNTA";"emt";"Font d'en Corts - Cam� dels Rocs";"POINT (-0.357163842488991 39.44406944536657)";-0,357163842488991;39,4440694453666;NA
"1012";"LA CARRASCA";"emt";"Ramon Llull - Campus Tarongers";"POINT (-0.345328033011881 39.479277225631726)";-0,345328033011881;39,4792772256317;NA
"1013";"LA CARRASCA";"emt";"Tarongers - Junt Entrada Universitats";"POINT (-0.347541029339502 39.48082258216649)";-0,347541029339502;39,4808225821665;NA
"1014";"LA CARRASCA";"emt";"Albalat dels Tarongers - Vinalop�";"POINT (-0.347678506263697 39.47831273057908)";-0,347678506263697;39,4783127305791;NA
"1015";"LA CARRASCA";"emt";"Fausto Elio (impar) - Universitat Polit�cnica";"POINT (-0.33300402733411 39.47921078468439)";-0,33300402733411;39,4792107846844;NA
"1016";"LA CARRASCA";"emt";"Tarongers - Fausto Elio";"POINT (-0.334360799437157 39.476951627610376)";-0,334360799437157;39,4769516276104;NA
"1017";"LA CARRASCA";"emt";"Tarongers - Facultat de Magisteri";"POINT (-0.345999426018917 39.479816780648505)";-0,345999426018917;39,4798167806485;NA
"1018";"LA CARRASCA";"emt";"Catalunya - Santa Cruz de la Zarza";"POINT (-0.353855495552623 39.478969937292874)";-0,353855495552623;39,4789699372929;NA
"1019";"EL GRAU";"emt";"Manuel Soto Enginyer (impar) - Pont de les Drassanes";"POINT (-0.329974576005837 39.45506248505863)";-0,329974576005837;39,4550624850586;NA
"1020";"EL GRAU";"emt";"Dr. J.J.D�mine - Port";"POINT (-0.332714240515973 39.46048028527012)";-0,332714240515973;39,4604802852701;NA
"1021";"EL GRAU";"emt";"Joan Verdaguer - Pare Porta";"POINT (-0.336108320164745 39.45880277794505)";-0,336108320164745;39,4588027779451;NA
"1022";"EL GRAU";"emt";"Joan Verdaguer - Issac Peral";"POINT (-0.339331126714195 39.459048222014)";-0,339331126714195;39,459048222014;NA
"1023";"EL GRAU";"emt";"Port - Pare Porta";"POINT (-0.33581059474837 39.46077328443827)";-0,33581059474837;39,4607732844383;NA
"1024";"EL GRAU";"emt";"Serradora - Port";"POINT (-0.337986553581609 39.46208689482078)";-0,337986553581609;39,4620868948208;NA
"1025";"EL GRAU";"emt";"Cam� del Canal -Club N�utico";"POINT (-0.334743712790858 39.42797365386958)";-0,334743712790858;39,4279736538696;NA
"1026";"EL GRAU";"emt";"Manuel Soto Enginyer - Estaci�";"POINT (-0.3322696967079 39.45831455836524)";-0,3322696967079;39,4583145583652;NA
"1027";"EL GRAU";"emt";"Manuel Soto Enginyer - Comand�ncia Marina";"POINT (-0.330844817170453 39.45635288869753)";-0,330844817170453;39,4563528886975;NA
"1028";"CIUTAT JARDI";"emt";"Blasco Ib��ez - M�sic Gin�s";"POINT (-0.342960989817413 39.472049372816706)";-0,342960989817413;39,4720493728167;NA
"1029";"CIUTAT JARDI";"emt";"Sants Just i Pastor - Lleons";"POINT (-0.347998000359093 39.46975143729836)";-0,347998000359093;39,4697514372984;NA
"1030";"CIUTAT JARDI";"emt";"Dr. Manuel Candela (par) - Blasco Ib��ez";"POINT (-0.348108972200699 39.472811902005915)";-0,348108972200699;39,4728119020059;NA
"1031";"NOU MOLES";"emt";"Nou d'Octubre - Conselleries (I)";"POINT (-0.405044250815775 39.47064179502794)";-0,405044250815775;39,4706417950279;NA
"1032";"NOU MOLES";"emt";"P�rez Gald�s - Democr�cia";"POINT (-0.395598328212218 39.47446283734379)";-0,395598328212218;39,4744628373438;NA
"1033";"NOU MOLES";"emt";"P�rez Gald�s - Olimpia Arozena Torres";"POINT (-0.392451626853189 39.47006083353131)";-0,392451626853189;39,4700608335313;NA
"1034";"NOU MOLES";"emt";"Llorca - P�rez Gald�s";"POINT (-0.392074975697128 39.46848160378663)";-0,392074975697128;39,4684816037866;NA
"1035";"NOU MOLES";"emt";"Brasil - Francisco Moreno Usedo";"POINT (-0.397484636363187 39.471474618746676)";-0,397484636363187;39,4714746187467;NA
"1036";"NOU MOLES";"emt";"Linares - P�rez Gald�s";"POINT (-0.392337261248353 39.46898081244961)";-0,392337261248353;39,4689808124496;NA
"1037";"NOU MOLES";"emt";"Cid - Germans Rivas";"POINT (-0.396895908607681 39.46854104175906)";-0,396895908607681;39,4685410417591;NA
"1038";"BENIMAMET";"emt";"Polvor� - Cullera";"POINT (-0.426394141896968 39.50230662782634)";-0,426394141896968;39,5023066278263;NA
"1039";"BENIMAMET";"emt";"Rafael Tenes Escrich - Mercat";"POINT (-0.417785124390129 39.4990923489037)";-0,417785124390129;39,4990923489037;NA
"1040";"BENIMAMET";"emt";"Campament - Felipe Valls";"POINT (-0.420339836398102 39.502639023083084)";-0,420339836398102;39,5026390230831;NA
"1041";"BENIMAMET";"emt";"Fires - Senda del Polvor�";"POINT (-0.42639460026524 39.50316067467632)";-0,42639460026524;39,5031606746763;NA
"1042";"BENIMAMET";"emt";"Polvor� - Vel�drom Lluis Puig";"POINT (-0.426272520998375 39.50168863098296)";-0,426272520998375;39,501688630983;NA
"1043";"BENIMAMET";"emt";"Campament (impar) - Joaqu�n Mar�n";"POINT (-0.422694132483158 39.50148688074938)";-0,422694132483158;39,5014868807494;NA
"1044";"BENIMAMET";"emt";"Pintor Garnelo - Campament";"POINT (-0.420093388077815 39.50241986193507)";-0,420093388077815;39,5024198619351;NA
"1045";"SOTERNES";"emt";"Alc�sser - Ciutat de Mislata";"POINT (-0.410785970162071 39.471584171582066)";-0,410785970162071;39,4715841715821;NA
"1046";"SOTERNES";"emt";"Alc�sser - Poeta Alberto Lista";"POINT (-0.407774944201721 39.47087102279316)";-0,407774944201721;39,4708710227932;NA
"1047";"SOTERNES";"emt";"Cid - Nou d'Octubre";"POINT (-0.405578547309509 39.47013301351056)";-0,405578547309509;39,4701330135106;NA
"1048";"SOTERNES";"emt";"Cid - Particular";"POINT (-0.411555919985487 39.46986955322794)";-0,411555919985487;39,4698695532279;NA
"1049";"LA LLUM";"emt";"Pare Esteban Pernet (par) - Miquel Adlert";"POINT (-0.412865087639419 39.46706803444212)";-0,412865087639419;39,4670680344421;NA
"1050";"EL PALMAR";"emt";"Carretera del Palmar (impar) - Cementeri";"POINT (-0.317836060505737 39.321450994518024)";-0,317836060505737;39,321450994518;NA
"1051";"EL PALMAR";"emt";"Gavines (par) - Camping";"POINT (-0.309423854103581 39.322966251096396)";-0,309423854103581;39,3229662510964;NA
"1052";"EL SALER";"emt";"Gola de Puchol (II)";"POINT (-0.322313681199919 39.354643953865754)";-0,322313681199919;39,3546439538658;NA
"1053";"EL SALER";"emt";"Gola de Puchol (III)";"POINT (-0.322280321726378 39.35454516937051)";-0,322280321726378;39,3545451693705;NA
"1054";"EL SALER";"emt";"Gola de Puchol (IV)";"POINT (-0.320860549402591 39.357493412177575)";-0,320860549402591;39,3574934121776;NA
"1055";"EL SALER";"emt";"Carrera del Riu (impar) - Camping Valencia";"POINT (-0.331506948123472 39.38815810989121)";-0,331506948123472;39,3881581098912;NA
"1056";"LA FONTSANTA";"emt";"Escultor Salzillo - Llu�s Fenollet";"POINT (-0.4091221308239 39.465815572243514)";-0,4091221308239;39,4658155722435;NA
"1057";"LA FONTSANTA";"emt";"Cid (illeta) - Tres Creus";"POINT (-0.405752751392614 39.46951141878311)";-0,405752751392614;39,4695114187831;NA
"1058";"SANT LLORENS";"emt";"Valladolid - Dolores Marqu�s";"POINT (-0.36242882609929 39.48971546039692)";-0,36242882609929;39,4897154603969;NA
"1059";"SANT LLORENS";"emt";"Duc de Mandas - Alfahuir";"POINT (-0.365960179846421 39.491243003844644)";-0,365960179846421;39,4912430038446;NA
"1060";"SANT LLORENS";"emt";"Alfahuir - Actor Ismael Merlo";"POINT (-0.359361867351885 39.49303164911855)";-0,359361867351885;39,4930316491185;NA
"1061";"ELS ORRIOLS";"emt";"Primat Reig - Motilla del Palancar";"POINT (-0.36924719668818 39.48875573986675)";-0,36924719668818;39,4887557398667;NA
"1062";"ELS ORRIOLS";"emt";"Primat Reig - Constituci�";"POINT (-0.373387499171339 39.491856351728984)";-0,373387499171339;39,491856351729;NA
"1063";"ELS ORRIOLS";"emt";"Duc de Mandas - Constituci�";"POINT (-0.370859928570733 39.494690459343474)";-0,370859928570733;39,4946904593435;NA
"1064";"ELS ORRIOLS";"emt";"Duc de Mandas (par) - Arquitecto Rodr�guez";"POINT (-0.368398803682074 39.49289506275777)";-0,368398803682075;39,4928950627578;NA
"1065";"ELS ORRIOLS";"emt";"Constituci� - Reig Genov�s";"POINT (-0.373158546166837 39.49327086726744)";-0,373158546166837;39,4932708672674;NA
"1066";"ELS ORRIOLS";"emt";"Primat Reig - Sant Vicent de Pa�l";"POINT (-0.371046633430377 39.490140934542204)";-0,371046633430377;39,4901409345422;NA
"1067";"ELS ORRIOLS";"emt";"Pare Vi�as - Duc de Mandas";"POINT (-0.370438995117352 39.49412653481216)";-0,370438995117352;39,4941265348122;NA
"1068";"ELS ORRIOLS";"emt";"Pare Vi�as - Daroca";"POINT (-0.368858177835769 39.495906913627024)";-0,368858177835769;39,495906913627;NA
"1069";"ELS ORRIOLS";"emt";"Sant Joan Bosco - Daroca";"POINT (-0.369998559634142 39.496463618045254)";-0,369998559634142;39,4964636180453;NA
"1070";"ELS ORRIOLS";"emt";"Constituci� (par) - Campaneta";"POINT (-0.368529513375782 39.50234306971556)";-0,368529513375782;39,5023430697156;NA
"1071";"EL PERELLONET";"emt";"Gavines - Sotavent";"POINT (-0.297416285324123 39.3075621758294)";-0,297416285324123;39,3075621758294;NA
"1072";"EL PERELLONET";"emt";"Gavines - Entrada Ventura";"POINT (-0.283942232155407 39.28841866004103)";-0,283942232155407;39,288418660041;NA
"1073";"EL PERELLONET";"emt";"Gavines - Entrada a la Baixada del Pant�";"POINT (-0.280126898336116 39.28178935302075)";-0,280126898336116;39,2817893530207;NA
"1074";"EL PERELLONET";"emt";"Gavines - Bit�cora";"POINT (-0.279952733705068 39.28179672295016)";-0,279952733705068;39,2817967229502;NA
"1075";"EL PERELLONET";"emt";"Gavines - Dofins";"POINT (-0.28571075700583 39.29171646310104)";-0,28571075700583;39,291716463101;NA
"1076";"VARA DE QUART";"emt";"Tres Creus - Dr. P�rez Feliu";"POINT (-0.40399477216841 39.46060070476653)";-0,40399477216841;39,4606007047665;NA
"1077";"VARA DE QUART";"emt";"Tres Creus - dels Hostalers";"POINT (-0.403912658165311 39.46024914710061)";-0,403912658165311;39,4602491471006;NA
"1078";"VARA DE QUART";"emt";"Fra Jun�per Serra -Torrent";"POINT (-0.400894813696579 39.46197932094408)";-0,400894813696579;39,4619793209441;NA
"1079";"VARA DE QUART";"emt";"Tres Forques - Emili Lluch";"POINT (-0.402833838178941 39.46354813622314)";-0,402833838178941;39,4635481362231;NA
"1080";"VARA DE QUART";"emt";"Cam� nou de Picanya - Tres Creus";"POINT (-0.403365924425763 39.45752157601315)";-0,403365924425763;39,4575215760131;NA
"1081";"CIUTAT FALLERA";"emt";"Sant Josep Artes� - Luis Mart� Alegre";"POINT (-0.393799801418366 39.49831097490892)";-0,393799801418366;39,4983109749089;NA
"1082";"CIUTAT FALLERA";"emt";"Louis Braille - Burjassot";"POINT (-0.396287708886782 39.495798797019596)";-0,396287708886782;39,4957987970196;NA
"1083";"LA MALVA-ROSA";"emt";"Gran Can�ria - Mendiz�bal";"POINT (-0.328802463205066 39.48350179184397)";-0,328802463205066;39,483501791844;NA
"1084";"LA MALVA-ROSA";"emt";"Beat Juan Grande - Sant Joan de D�u";"POINT (-0.329760880542244 39.47724636444391)";-0,329760880542244;39,4772463644439;NA
"1085";"LA MALVA-ROSA";"emt";"Cavite - Font d'en Carr�s";"POINT (-0.326695366886658 39.481528532457205)";-0,326695366886658;39,4815285324572;NA
"1086";"LA MALVA-ROSA";"emt";"Beat Juan Grande - Vicent la Roda";"POINT (-0.329638893060238 39.47976303037859)";-0,329638893060238;39,4797630303786;NA
"1087";"LA MALVA-ROSA";"emt";"Fausto Elio (par) - Universitat Polit�cnica";"POINT (-0.332672615619992 39.478991472770744)";-0,332672615619992;39,4789914727707;NA
"1088";"LA MALVA-ROSA";"emt";"Doctor �lvaro L�pez - Vicent La Roda";"POINT (-0.331027207358887 39.480566793626984)";-0,331027207358887;39,480566793627;NA
"1089";"CARPESA";"emt";"Palmaret - Montcada";"POINT (-0.386332354987282 39.51769811169825)";-0,386332354987282;39,5176981116983;NA
"1090";"CARPESA";"emt";"Palmaret (par) - Montcada";"POINT (-0.386440506474391 39.517611808592534)";-0,386440506474391;39,5176118085925;NA
"1091";"CARPESA";"emt";"Cam� de Montcada (par) - Matador";"POINT (-0.386860993935148 39.51564159358838)";-0,386860993935148;39,5156415935884;NA
"1092";"POBLE NOU";"emt";"Cam� de Montcada - Gasolinera";"POINT (-0.386464272534238 39.512294384355066)";-0,386464272534238;39,5122943843551;NA
"1093";"POBLE NOU";"emt";"Cam� de Montcada - Ctra. Daniel";"POINT (-0.384106086279084 39.50643957973753)";-0,384106086279084;39,5064395797375;NA
"1094";"POBLE NOU";"emt";"Cam� de Montcada - Cam� a Poble Nou";"POINT (-0.38380437841027 39.50503048213634)";-0,38380437841027;39,5050304821363;NA
"1095";"LES CASES DE BARCENA";"emt";"Cases de B�rcena III";"POINT (-0.357310710319173 39.52233985526308)";-0,357310710319173;39,5223398552631;NA
"1096";"LES CASES DE BARCENA";"emt";"Cases de B�rcena IV";"POINT (-0.357753383342335 39.522022007639706)";-0,357753383342335;39,5220220076397;NA
"1097";"SANT PAU";"emt";"Mestre Rodrigo - La Plana Baixa";"POINT (-0.405802456441288 39.48932392916209)";-0,405802456441288;39,4893239291621;NA
"1098";"SANT PAU";"emt";"Marina Baixa - Hospital Arnau de Vilanova";"POINT (-0.404302125107915 39.49009959506515)";-0,404302125107915;39,4900995950652;NA
"1099";"SANT PAU";"emt";"P�o Baroja - Parc de cap�alera";"POINT (-0.406590941588672 39.476462515936525)";-0,406590941588672;39,4764625159365;NA
"1100";"SANT PAU";"emt";"Vall de la Ballestera - P�o Baroja";"POINT (-0.404093200729158 39.47867787231965)";-0,404093200729158;39,4786778723197;NA
"1101";"SANT PAU";"emt";"Terrateig - Poeta Rafael Alberti";"POINT (-0.403855812921626 39.48098738631293)";-0,403855812921626;39,4809873863129;NA
"1102";"SANT PAU";"emt";"P�o Baroja - Manuel de Falla";"POINT (-0.405886955775162 39.475787086305715)";-0,405886955775162;39,4757870863057;NA
"1103";"SANT PAU";"emt";"Corts Valencianes - Esc. Prof. de Sant Josep";"POINT (-0.397110506002036 39.486602850882385)";-0,397110506002036;39,4866028508824;NA
"1104";"PINEDO";"emt";"Carrera del Riu (impar) - Coll Vert";"POINT (-0.332465236069302 39.39682866609349)";-0,332465236069302;39,3968286660935;NA
"1105";"PINEDO";"emt";"Travessia de Pinedo al Mar Pintor Manuel Sig�enza";"POINT (-0.337615105455713 39.421522760958226)";-0,337615105455713;39,4215227609582;NA
"1106";"PINEDO";"emt";"Carrera del Riu (par) - Canal";"POINT (-0.341102602828416 39.42352614255958)";-0,341102602828416;39,4235261425596;NA
"1107";"PINEDO";"emt";"Carrera del Riu (impar) - Canal";"POINT (-0.340901123652803 39.423564505921114)";-0,340901123652803;39,4235645059211;NA
"1108";"PINEDO";"emt";"el Tremolar - Cam� del Bracet";"POINT (-0.345044431243637 39.421318269953126)";-0,345044431243637;39,4213182699531;NA
"1109";"CASTELLAR-L'OLIVERAL";"emt";"Rib�s(impar) - Dr. Ruiz Comes";"POINT (-0.359715889646342 39.431065746363345)";-0,359715889646342;39,4310657463633;NA
"1110";"CASTELLAR-L'OLIVERAL";"emt";"Crist del Refugi - Ctra. Del P�";"POINT (-0.364130865758974 39.426284328675955)";-0,364130865758974;39,426284328676;NA
"1111";"CASTELLAR-L'OLIVERAL";"emt";"Mare de D�u de Lepant (par) - Esc. F. Siurana";"POINT (-0.363421967715829 39.429647194370794)";-0,363421967715829;39,4296471943708;NA
"1112";"CASTELLAR-L'OLIVERAL";"emt";"Gl�ria (impar) - Oliveral";"POINT (-0.364172521563006 39.422097875840905)";-0,364172521563006;39,4220978758409;NA
"1113";"CASTELLAR-L'OLIVERAL";"emt";"el Tremolar - Cam� Rac�";"POINT (-0.345024792914368 39.42143169283155)";-0,345024792914368;39,4214316928315;NA
"1114";"CASTELLAR-L'OLIVERAL";"emt";"el Tremolar - Barraca de Troia";"POINT (-0.35618915245405 39.422709361937876)";-0,35618915245405;39,4227093619379;NA
"1115";"CASTELLAR-L'OLIVERAL";"emt";"el Tremolar - Casa Rabot";"POINT (-0.359477586194826 39.42342976732207)";-0,359477586194826;39,4234297673221;NA
"1116";"CASTELLAR-L'OLIVERAL";"emt";"el Tremolar - S�quia de l'Or";"POINT (-0.356200846181228 39.42261512528987)";-0,356200846181228;39,4226151252899;NA
"1117";"EL FORN D'ALCEDO";"emt";"Karl Marx - Guadalquivir";"POINT (-0.377148456626886 39.43130625891077)";-0,377148456626886;39,4313062589108;NA
"1118";"Mas del Rosari";"metrovalencia";NA;"POINT (-0.435824990305418 39.52495960421599)";-0,435824990305418;39,524959604216;4
"1119";"La Cova";"metrovalencia";NA;"POINT (-0.4844444397042972 39.49888996240954)";-0,484444439704297;39,4988899624095;9
"1120";"Aeroport";"metrovalencia";NA;"POINT (-0.4749194388141947 39.49236683054559)";-0,474919438814195;39,4923668305456;35
"1121";"Almàssera";"metrovalencia";NA;"POINT (-0.3542666730314796 39.512256661843445)";-0,35426667303148;39,5122566618434;3
"1122";"Colón";"metrovalencia";NA;"POINT (-0.3709277814305924 39.47014621855607)";-0,370927781430592;39,4701462185561;3579
"1123";"Ayora";"metrovalencia";NA;"POINT (-0.3429694478792123 39.466426888957855)";-0,342969447879212;39,4664268889579;57
"1124";"Bétera";"metrovalencia";NA;"POINT (-0.4575305577359146 39.5906067291247)";-0,457530557735915;39,5906067291247;1
"1125";"Torrent Avinguda";"metrovalencia";NA;"POINT (-0.4728333352276692 39.431812326102154)";-0,472833335227669;39,4318123261022;27
"1126";"Alberic";"metrovalencia";NA;"POINT (-0.5235260124730562 39.11705020984888)";-0,523526012473056;39,1170502098489;1
"1127";"Carlet";"metrovalencia";NA;"POINT (-0.5249416827217579 39.22679905059184)";-0,524941682721758;39,2267990505918;1
"1128";"Col·legi El Vedat";"metrovalencia";NA;"POINT (-0.460652768267218 39.423133889334935)";-0,460652768267218;39,4231338893349;1
"1129";"Moreres";"metrovalencia";NA;"POINT (-0.3384079998144471 39.450150039275506)";-0,338407999814447;39,4501500392755;10
"1130";"Sant Isidre";"metrovalencia";NA;"POINT (-0.4028027651123522 39.45103458536643)";-0,402802765112352;39,4510345853664;127
"1131";"Sant Miquel dels Reis";"metrovalencia";NA;"POINT (-0.3684949876810832 39.49721912509855)";-0,368494987681083;39,4972191250986;16
"1132";"La Presa";"metrovalencia";NA;"POINT (-0.5158333181519046 39.517223397451374)";-0,515833318151905;39,5172233974514;9
"1133";"Masia de Traver";"metrovalencia";NA;"POINT (-0.546666681316191 39.53805545992607)";-0,546666681316191;39,5380554599261;9
"1134";"Jesús";"metrovalencia";NA;"POINT (-0.3845416610541635 39.45920185236387)";-0,384541661054164;39,4592018523639;127
"1135";"Patraix";"metrovalencia";NA;"POINT (-0.3905083240820051 39.45645145583467)";-0,390508324082005;39,4564514558347;127
"1136";"Omet";"metrovalencia";NA;"POINT (-0.4736869934735695 39.35324482140709)";-0,47368699347357;39,3532448214071;1
"1137";"Paiporta";"metrovalencia";NA;"POINT (-0.4180611073753368 39.43226246036189)";-0,418061107375337;39,4322624603619;127
"1138";"Burjassot - Godella";"metrovalencia";NA;"POINT (-0.4119972293308535 39.513530771164035)";-0,411997229330854;39,513530771164;1
"1139";"Godella";"metrovalencia";NA;"POINT (-0.4144555629587507 39.51950458696169)";-0,414455562958751;39,5195045869617;1
"1140";"Horta Vella";"metrovalencia";NA;"POINT (-0.4431444406472527 39.58193210726515)";-0,443144440647253;39,5819321072652;1
"1141";"Alfauir";"metrovalencia";NA;"POINT (-0.366032988194516 39.489299813868165)";-0,366032988194516;39,4892998138682;16
"1142";"Parc Científic";"metrovalencia";NA;"POINT (-0.4226219955791658 39.51514057309938)";-0,422621995579166;39,5151405730994;4
"1143";"Tomás y Valiente";"metrovalencia";NA;"POINT (-0.4256361123531358 39.5197716152865)";-0,425636112353136;39,5197716152865;4
"1144";"Francesc Cubells";"metrovalencia";NA;"POINT (-0.3339729906818728 39.46324543123338)";-0,333972990681873;39,4632454312334;68
"1145";"Grau - La Marina";"metrovalencia";NA;"POINT (-0.3294720054933794 39.463100473242235)";-0,329472005493379;39,4631004732422;68
"1146";"Tossal del Rei";"metrovalencia";NA;"POINT (-0.3725369875330207 39.49595264605946)";-0,372536987533021;39,4959526460595;16
"1147";"Av. del Cid";"metrovalencia";NA;"POINT (-0.3975749912937578 39.468219796211656)";-0,397574991293758;39,4682197962117;359
"1148";"Llíria";"metrovalencia";NA;"POINT (-0.5902777912103784 39.62284092097164)";-0,590277791210378;39,6228409209716;2
"1149";"Àngel Guimerà";"metrovalencia";NA;"POINT (-0.3850361106717916 39.4703026212431)";-0,385036110671792;39,4703026212431;12359
"1150";"Campament";"metrovalencia";NA;"POINT (-0.4353230003048908 39.495845834205404)";-0,435323000304891;39,4958458342054;2
"1151";"Picanya";"metrovalencia";NA;"POINT (-0.4371583466428395 39.43312076720112)";-0,43715834664284;39,4331207672011;127
"1152";"Albalat dels Sorells";"metrovalencia";NA;"POINT (-0.3482888941423446 39.54526523737024)";-0,348288894142345;39,5452652373702;3
"1153";"Reus";"metrovalencia";NA;"POINT (-0.3817070127981355 39.4859657684198)";-0,381707012798136;39,4859657684198;4
"1154";"Trànsits";"metrovalencia";NA;"POINT (-0.3872583214747722 39.4895630282213)";-0,387258321474772;39,4895630282213;4
"1155";"Benicalap";"metrovalencia";NA;"POINT (-0.3909277913244516 39.49002842050058)";-0,390927791324452;39,4900284205006;4
"1156";"La Carrasca";"metrovalencia";NA;"POINT (-0.3448249995342744 39.479660074044666)";-0,344824999534274;39,4796600740447;146
"1157";"Dr. Lluch";"metrovalencia";NA;"POINT (-0.3281527763083297 39.46930698572537)";-0,32815277630833;39,4693069857254;46
"1158";"Universitat Politècnica";"metrovalencia";NA;"POINT (-0.3504999876195505 39.48131565217615)";-0,350499987619551;39,4813156521761;146
"1159";"Alboraia Peris Aragó";"metrovalencia";NA;"POINT (-0.3523277634823597 39.50076297918577)";-0,35232776348236;39,5007629791858;39
"1160";"Fondo de Benaguasil";"metrovalencia";NA;"POINT (-0.5780805350632693 39.59272388566321)";-0,578080535063269;39,5927238856632;2
"1161";"Gallipont - Torre del Virrei";"metrovalencia";NA;"POINT (-0.5419166688737088 39.56866459072798)";-0,541916668873709;39,568664590728;2
"1162";"Fuente del Jarro";"metrovalencia";NA;"POINT (-0.4645166693571574 39.5111732875743)";-0,464516669357157;39,5111732875743;2
"1163";"L'Alcúdia";"metrovalencia";NA;"POINT (-0.5102638606951693 39.193813363569774)";-0,510263860695169;39,1938133635698;1
"1164";"Sant Ramon";"metrovalencia";NA;"POINT (-0.4672611054062144 39.384864846247936)";-0,467261105406214;39,3848648462479;1
"1165";"Garbí";"metrovalencia";NA;"POINT (-0.3945111033066965 39.4922905363387)";-0,394511103306696;39,4922905363387;4
"1166";"Florista";"metrovalencia";NA;"POINT (-0.396816670526207 39.49443439623788)";-0,396816670526207;39,4944343962379;4
"1167";"Neptú";"metrovalencia";NA;"POINT (-0.3258508438284417 39.463253060287585)";-0,325850843828442;39,4632530602876;8
"1168";"Machado";"metrovalencia";NA;"POINT (-0.3587944504398191 39.49243168035884)";-0,358794450439819;39,4924316803588;3579
"1169";"Roses";"metrovalencia";NA;"POINT (-0.4672361011828295 39.49264911773043)";-0,46723610118283;39,4926491177304;359
"1170";"Amistat";"metrovalencia";NA;"POINT (-0.3503944579110447 39.47033313859402)";-0,350394457911045;39,470333138594;57
"1171";"Aragó";"metrovalencia";NA;"POINT (-0.3581166561927953 39.47262577229274)";-0,358116656192795;39,4726257722927;57
"1172";"Castelló";"metrovalencia";NA;"POINT (-0.5160138604081964 39.08400730254416)";-0,516013860408196;39,0840073025442;1
"1173";"Alginet";"metrovalencia";NA;"POINT (-0.4748859996779908 39.26293949225646)";-0,474885999677991;39,2629394922565;1
"1174";"Quatre Carreres";"metrovalencia";NA;"POINT (-0.3601250002310422 39.452447039546065)";-0,360125000231042;39,4524470395461;10
"1175";"Oceanogràfic";"metrovalencia";NA;"POINT (-0.3473420005329418 39.4520380392216)";-0,347342000532942;39,4520380392216;10
"1176";"Palau de Congressos";"metrovalencia";NA;"POINT (-0.400141656549996 39.497180977837964)";-0,400141656549996;39,497180977838;4
"1177";"Campus";"metrovalencia";NA;"POINT (-0.4174583255801421 39.5072212611679)";-0,417458325580142;39,5072212611679;4
"1178";"Entrepins";"metrovalencia";NA;"POINT (-0.5139539842919837 39.54333500081282)";-0,513953984291984;39,5433350008128;2
"1179";"Burjassot";"metrovalencia";NA;"POINT (-0.4067361054400869 39.508415261654285)";-0,406736105440087;39,5084152616543;1
"1180";"Mislata";"metrovalencia";NA;"POINT (-0.4183055461360697 39.473823587168184)";-0,41830554613607;39,4738235871682;359
"1181";"Túria";"metrovalencia";NA;"POINT (-0.391205548747755 39.47886661649007)";-0,391205548747755;39,4788666164901;12
"1182";"La Vallesa";"metrovalencia";NA;"POINT (-0.4979777639374245 39.53784183692217)";-0,497977763937424;39,5378418369222;2
"1183";"Montortal";"metrovalencia";NA;"POINT (-0.5158861281369649 39.17379764708401)";-0,515886128136965;39,173797647084;1
"1184";"Rocafort";"metrovalencia";NA;"POINT (-0.4075777828732151 39.52870945118481)";-0,407577782873215;39,5287094511848;1
"1185";"Moncada - Alfara";"metrovalencia";NA;"POINT (-0.3884611127603637 39.54352955038101)";-0,388461112760364;39,543529550381;1
"1186";"Masies";"metrovalencia";NA;"POINT (-0.4053777748647457 39.566581765432026)";-0,405377774864746;39,566581765432;1
"1187";"Russafa";"metrovalencia";NA;"POINT (-0.3695310001644055 39.46391303921369)";-0,369531000164406;39,4639130392137;10
"1188";"Orriols";"metrovalencia";NA;"POINT (-0.367663622109971 39.49314884351592)";-0,367663622109971;39,4931488435159;16
"1189";"Pont de Fusta";"metrovalencia";NA;"POINT (-0.3731805686023085 39.481781045417804)";-0,373180568602308;39,4817810454178;4
"1190";"Vicent Andrés Estellés";"metrovalencia";NA;"POINT (-0.4198839965021366 39.50856022050974)";-0,419883996502137;39,5085602205097;4
"1191";"À Punt";"metrovalencia";NA;"POINT (-0.4247489864954702 39.51220325625923)";-0,42474898649547;39,5122032562592;4
"1192";"La Coma";"metrovalencia";NA;"POINT (-0.4317069942770743 39.521572152247394)";-0,431706994277074;39,5215721522474;4
"1193";"Estadi Ciutat de València";"metrovalencia";NA;"POINT (-0.3655419949094195 39.494918863018285)";-0,365541994909419;39,4949188630183;16
"1194";"Xàtiva";"metrovalencia";NA;"POINT (-0.377375006091083 39.46718601400712)";-0,377375006091083;39,4671860140071;359
"1195";"Quart de Poblet";"metrovalencia";NA;"POINT (-0.4418805541345874 39.48108677099763)";-0,441880554134587;39,4810867709976;359
"1196";"Meliana";"metrovalencia";NA;"POINT (-0.3518194551700547 39.52803043467392)";-0,351819455170055;39,5280304346739;3
"1197";"Foios";"metrovalencia";NA;"POINT (-0.3538694381672806 39.537223855758896)";-0,353869438167281;39,5372238557589;3
"1198";"Les Carolines - Fira";"metrovalencia";NA;"POINT (-0.4254194497239249 39.49873737508498)";-0,425419449723925;39,498737375085;2
"1199";"Canyamelar";"metrovalencia";NA;"POINT (-0.3279320004180729 39.46652225619434)";-0,327932000418073;39,4665222561943;68
"1200";"Font Almaguer";"metrovalencia";NA;"POINT (-0.4640861159260068 39.289405862125854)";-0,464086115926007;39,2894058621259;1
"1201";"Sagunt";"metrovalencia";NA;"POINT (-0.3749722238203376 39.486499825901895)";-0,374972223820338;39,4864998259019;4
"1202";"Campanar";"metrovalencia";NA;"POINT (-0.3950361010065258 39.48463062443623)";-0,395036101006526;39,4846306244362;12
"1203";"Massamagrell";"metrovalencia";NA;"POINT (-0.333033323500629 39.57056049493916)";-0,333033323500629;39,5705604949392;3
"1204";"Massarrojos";"metrovalencia";NA;"POINT (-0.402877778128583 39.53660968895581)";-0,402877778128583;39,5366096889558;1
"1205";"La Pobla de Farnals";"metrovalencia";NA;"POINT (-0.3304361109078244 39.57941822166075)";-0,330436110907824;39,5794182216608;3
"1206";"Facultats - Manuel Broseta";"metrovalencia";NA;"POINT (-0.3619055444301701 39.47800449481189)";-0,36190554443017;39,4780044948119;3579
"1207";"El Clot";"metrovalencia";NA;"POINT (-0.5279861091158305 39.54986576262979)";-0,527986109115831;39,5498657626298;2
"1208";"Safranar";"metrovalencia";NA;"POINT (-0.3983833189002929 39.45457080974115)";-0,398383318900293;39,4545708097411;127
"1209";"Ll. Llarga - Terramelar";"metrovalencia";NA;"POINT (-0.4304472209592373 39.50989917913695)";-0,430447220959237;39,509899179137;4
"1210";"Salt de l'Aigua";"metrovalencia";NA;"POINT (-0.4505681992431328 39.4848328033487)";-0,450568199243133;39,4848328033487;359
"1211";"Bailén";"metrovalencia";NA;"POINT (-0.3794222170303012 39.463977853566156)";-0,379422217030301;39,4639778535662;7
"1212";"Rafelbunyol";"metrovalencia";NA;"POINT (-0.3310583234452487 39.588523904516435)";-0,331058323445249;39,5885239045164;3
"1213";"Alacant";"metrovalencia";NA;"POINT (-0.3774770005122519 39.46472103939357)";-0,377477000512252;39,4647210393936;10
"1214";"Faitanar";"metrovalencia";NA;"POINT (-0.4331833418083208 39.47761921077863)";-0,433183341808321;39,4776192107786;359
"1215";"L'Eliana";"metrovalencia";NA;"POINT (-0.5359194284163187 39.561832467826335)";-0,535919428416319;39,5618324678263;2
"1216";"Riba-roja de Túria";"metrovalencia";NA;"POINT (-0.5594444275774598 39.54333500017424)";-0,55944442757746;39,5433350001742;9
"1217";"Montesol";"metrovalencia";NA;"POINT (-0.5316972140071671 39.55557254933344)";-0,531697214007167;39,5555725493334;2
"1218";"Picassent";"metrovalencia";NA;"POINT (-0.464858323278585 39.36303714856912)";-0,464858323278585;39,3630371485691;1
"1219";"Torrent";"metrovalencia";NA;"POINT (-0.4609861070856414 39.434646646064856)";-0,460986107085641;39,4346466460649;127
"1220";"Ciutat Arts i Ciències - Justícia";"metrovalencia";NA;"POINT (-0.3532159997794547 39.45259203991893)";-0,353215999779455;39,4525920399189;10
"1221";"Natzaret";"metrovalencia";NA;"POINT (-0.3346740002450643 39.44988903943966)";-0,334674000245064;39,4498890394397;10
"1222";"La Granja";"metrovalencia";NA;"POINT (-0.4124779998061252 39.50403217479327)";-0,412477999806125;39,5040321747933;4
"1223";"Sant Joan";"metrovalencia";NA;"POINT (-0.416323989122466 39.50529102481966)";-0,416323989122466;39,5052910248197;4
"1224";"Museros";"metrovalencia";NA;"POINT (-0.3408555689097638 39.56157688255019)";-0,340855568909764;39,5615768825502;3
"1225";"Alboraia Palmaret";"metrovalencia";NA;"POINT (-0.3552222251891727 39.49566272842113)";-0,355222225189173;39,4956627284211;39
"1226";"València la Vella";"metrovalencia";NA;"POINT (-0.5342069862551926 39.530483285379376)";-0,534206986255193;39,5304832853794;9
"1227";"València Sud";"metrovalencia";NA;"POINT (-0.4106472133564586 39.440811196343056)";-0,410647213356459;39,4408111963431;127
"1228";"Beniferri";"metrovalencia";NA;"POINT (-0.3993369340966121 39.491031686146925)";-0,399336934096612;39,4910316861469;12
"1229";"Pl. Espanya";"metrovalencia";NA;"POINT (-0.3816333410088131 39.466201822102235)";-0,381633341008813;39,4662018221022;12
"1230";"Benimodo";"metrovalencia";NA;"POINT (-0.5196194643809373 39.216293374118074)";-0,519619464380937;39,2162933741181;1
"1231";"Ausiàs March";"metrovalencia";NA;"POINT (-0.491977215041994 39.24955753451306)";-0,491977215041994;39,2495575345131;1
"1232";"Espioca";"metrovalencia";NA;"POINT (-0.4667472240898878 39.321884194543124)";-0,466747224089888;39,3218841945431;1
"1233";"Seminari - CEU";"metrovalencia";NA;"POINT (-0.3897444302876586 39.5499878326498)";-0,389744430287659;39,5499878326498;1
"1234";"Amado Granell - Montolivet";"metrovalencia";NA;"POINT (-0.365110000429508 39.45937303938424)";-0,365110000429508;39,4593730393842;10
"1235";"Tarongers - Ernest Lluch";"metrovalencia";NA;"POINT (-0.3396222295867718 39.47813800932393)";-0,339622229586772;39,4781380093239;146
"1236";"Mislata Almassil";"metrovalencia";NA;"POINT (-0.4243694542402148 39.47600940862436)";-0,424369454240215;39,4760094086244;359
"1237";"Cabanyal";"metrovalencia";NA;"POINT (-0.3275833432474662 39.47285465383452)";-0,327583343247466;39,4728546538345;46
"1238";"Nou d'Octubre";"metrovalencia";NA;"POINT (-0.4076305632336302 39.47065738808727)";-0,40763056323363;39,4706573880873;359
"1239";"Alameda";"metrovalencia";NA;"POINT (-0.3653166591372722 39.47315601519005)";-0,365316659137272;39,47315601519;3579
"1240";"Manises";"metrovalencia";NA;"POINT (-0.4590654377018195 39.48958973107335)";-0,459065437701819;39,4895897310734;359
"1241";"Paterna";"metrovalencia";NA;"POINT (-0.4419719871267472 39.49880985401933)";-0,441971987126747;39,4988098540193;2
"1242";"Marítim";"metrovalencia";NA;"POINT (-0.3382369870182364 39.46493915696556)";-0,338236987018236;39,4649391569656;5678
"1243";"Benimàmet";"metrovalencia";NA;"POINT (-0.4194111232567788 39.501876870507694)";-0,419411123256779;39,5018768705077;2
"1244";"Cantereria";"metrovalencia";NA;"POINT (-0.4120722112951377 39.50238041102936)";-0,412072211295138;39,5023804110294;2
"1245";"Benaguasil";"metrovalencia";NA;"POINT (-0.5839277509085257 39.598880807680814)";-0,583927750908526;39,5988808076808;2
"1246";"Realón";"metrovalencia";NA;"POINT (-0.4640137851031758 39.39390567874968)";-0,464013785103176;39,3939056787497;1
"1247";"Beteró";"metrovalencia";NA;"POINT (-0.3342027661976934 39.47659305743498)";-0,334202766197693;39,476593057435;146
"1248";"Marxalenes";"metrovalencia";NA;"POINT (-0.3838368950525468 39.48797229915813)";-0,383836895052547;39,4879722991581;4
"1249";"Vicente Zaragozá";"metrovalencia";NA;"POINT (-0.3579472307358761 39.4833717743908)";-0,357947230735876;39,4833717743908;146
"1250";"Trinitat";"metrovalencia";NA;"POINT (-0.367763877448546 39.48627094440176)";-0,367763877448546;39,4862709444018;146
"1251";"La Pobla de Vallbona";"metrovalencia";NA;"POINT (-0.5622777944476075 39.58276371115498)";-0,562277794447608;39,582763711155;2
"1252";"Benimaclet";"metrovalencia";NA;"POINT (-0.3623333272775772 39.48485187642764)";-0,362333327277577;39,4848518764276;1345679
"1253";"La Canyada";"metrovalencia";NA;"POINT (-0.4871222073769305 39.52680591747526)";-0,487122207376931;39,5268059174753;2
"1254";"Santa Rita";"metrovalencia";NA;"POINT (-0.4551055434970949 39.505657235448645)";-0,455105543497095;39,5056572354486;2
"1255";"Massalavés";"metrovalencia";NA;"POINT (-0.5187610983053753 39.143806497062336)";-0,518761098305375;39,1438064970623;1
"1256";"Empalme";"metrovalencia";NA;"POINT (-0.4021083419820373 39.499576608331175)";-0,402108341982037;39,4995766083312;124
"1257";"La Cadena";"metrovalencia";NA;"POINT (-0.3293749993077695 39.47520450774123)";-0,32937499930777;39,4752045077412;468
"1258";"Platja Malva-rosa";"metrovalencia";NA;"POINT (-0.3257277910745404 39.47369007271332)";-0,32572779107454;39,4736900727133;468
"1259";"Platja les Arenes";"metrovalencia";NA;"POINT (-0.325727790999878 39.46892933010812)";-0,325727790999878;39,4689293301081;468
"1260";"AVENIDA VIRGEN ALBUIXECH";"renfe";NA;"POINT (-0.320388 39.5441373)";-0,320388;39,5441373;NA
"1261";"CARRER ESTACIO FERROCARRIL";"renfe";NA;"POINT (-0.0775039 39.9543523)";-0,0775039;39,9543523;NA
"1262";"CALLE ESTACION FERROCARRIL";"renfe";NA;"POINT (-0.2156704 39.7522591)";-0,2156704;39,7522591;NA
"1263";"CALLE ESTACION FERROCARRIL";"renfe";NA;"POINT (-0.7875467 39.4273336)";-0,7875467;39,4273336;NA
"1264";"GLORIETA ESTACION FERROCARRIL";"renfe";NA;"POINT (-0.4547076 39.1182487)";-0,4547076;39,1182487;NA
"1265";"PLAZA JARDIN";"renfe";NA;"POINT (-0.1917555 39.7812077)";-0,1917555;39,7812077;NA
"1266";"CARRETERA CV-5040 - ESTACION FERROCARRIL";"renfe";NA;"POINT (-0.263263 39.177862)";-0,263263;39,177862;NA
"1267";"CALLE DESPOBLADO";"renfe";NA;"POINT (-1.0111342 39.4774601)";-1,0111342;39,4774601;NA
"1268";"CALLE DESPOBLADO";"renfe";NA;"POINT (-0.3202243 39.6793275)";-0,3202243;39,6793275;NA
"1269";"CALLE DESPOBLADO";"renfe";NA;"POINT (-0.2045537 39.7659238)";-0,2045537;39,7659238;NA
"1270";"CALLE DESPOBLADO";"renfe";NA;"POINT (-0.2401644 39.7186018)";-0,2401644;39,7186018;NA
"1271";"CARRER ESTACIO FERROCARRIL";"renfe";NA;"POINT (-0.318312 39.5550512)";-0,318312;39,5550512;NA
"1272";"CARRETERA NACIONAL 234";"renfe";NA;"POINT (-0.4941752 39.8548087)";-0,4941752;39,8548087;NA
"1273";"CALLE XATIVA";"renfe";NA;"POINT (-0.3771506 39.4669226)";-0,3771506;39,4669226;NA
"1274";"AVENIDA AUSIAS MARCH";"renfe";NA;"POINT (-0.3660763 39.4411351)";-0,3660763;39,4411351;NA
"1275";"CALLE ESTACION FERROCARRIL";"renfe";NA;"POINT (-0.2146258 39.0262924)";-0,2146258;39,0262924;NA
"1276";"CARRER DE JOAN FUSTER";"renfe";NA;"POINT (-0.4473898 39.4597864)";-0,4473898;39,4597864;NA
"1277";NA;"renfe";NA;NA;-0,4612243;39,4614203;NA
"1278";NA;"renfe";NA;NA;-0,3672437;39,7460335;NA
"1279";NA;"renfe";NA;NA;-0,572027;39,94733;NA
"1280";NA;"renfe";NA;NA;-0,263263;39,177862;NA
"1281";NA;"renfe";NA;NA;-0,3117602;39,5873418;NA
"1282";NA;"renfe";NA;NA;-0,2401644;39,7186018;NA
"1283";NA;"renfe";NA;NA;-0,5673002;39,4857211;NA
"1284";NA;"renfe";NA;NA;-0,318312;39,5550512;NA
"1285";NA;"renfe";NA;NA;-0,1635392;39,8172732;NA
"1286";NA;"renfe";NA;NA;-0,152227;39,853502;NA
"1287";NA;"renfe";NA;NA;-1,1048262;39,4914373;NA
"1288";NA;"renfe";NA;NA;-0,271815;39,6750135;NA
"1289";NA;"renfe";NA;NA;-1,1505117;39,5228311;NA
"1290";NA;"renfe";NA;NA;-0,9023037;39,4572872;NA
"1291";NA;"renfe";NA;NA;-0,3764178;39,2773128;NA
"1292";NA;"renfe";NA;NA;-0,4306676;39,8120247;NA
"1293";NA;"renfe";NA;NA;-0,2262717;39,0789696;NA
"1294";NA;"renfe";NA;NA;-0,334666;39,4700954;NA
"1295";NA;"renfe";NA;NA;-0,3660763;39,4411351;NA
"1296";"CARRER LLUIS PORTAVELLA";"renfe";NA;"POINT (-0.4612243 39.4614203)";-0,4612243;39,4614203;NA
"1297";"DOCTOR ANTONIO MUÑOZ";"renfe";NA;"POINT (-0.3930134 39.4218996)";-0,3930134;39,4218996;NA
"1298";"CALLE PINTOR OLIET";"renfe";NA;"POINT (-0.052266 39.988259)";-0,052266;39,988259;NA
"1299";"RONDA DEL ESTE";"renfe";NA;"POINT (-0.3994599 39.3994659)";-0,3994599;39,3994659;NA
"1300";"AVENIDA ESTACION";"renfe";NA;"POINT (-0.572027 39.94733)";-0,572027;39,94733;NA
"1301";"PLAZA MAESTRO SERRANO";"renfe";NA;"POINT (-0.6876734 39.4902567)";-0,6876734;39,4902567;NA
"1302";"CALLE CAMINO ESTACION FERROCARRIL";"renfe";NA;"POINT (-0.3117602 39.5873418)";-0,3117602;39,5873418;NA
"1303";"CALLE DESPOBLADO";"renfe";NA;"POINT (-0.3929023 39.3008731)";-0,3929023;39,3008731;NA
"1304";"AVENIDA CAMP DE MORVEDRE";"renfe";NA;"POINT (-0.3482865 39.7063846)";-0,3482865;39,7063846;NA
"1305";"PARC L'ESTACIO FERROCARRIL";"renfe";NA;"POINT (-0.1799097 38.9703239)";-0,1799097;38,9703239;NA
"1306";"CALLE ESTACION DE FERROCARRIL";"renfe";NA;"POINT (-0.5693862 39.9151971)";-0,5693862;39,9151971;NA
"1307";"CALLE PINTOR SOROLLA";"renfe";NA;"POINT (-0.5866583 38.9692953)";-0,5866583;38,9692953;NA
"1308";"POLIGONO NUMERO 2 - ESTACION FERRORACCIL";"renfe";NA;"POINT (-0.5673002 39.4857211)";-0,5673002;39,4857211;NA
"1309";"CALLE ESTACION DE FERROCARRIL";"renfe";NA;"POINT (-0.642235 38.941764)";-0,642235;38,941764;NA
"1310";"CALLE RAMON LLUCH";"renfe";NA;"POINT (-0.152227 39.853502)";-0,152227;39,853502;NA
"1311";"AVINGUDA D'EUROPA";"renfe";NA;"POINT (-0.168872 38.983932)";-0,168872;38,983932;NA
"1312";"CALLE FELIPE SEBASTIAN";"renfe";NA;"POINT (-0.3024345 39.6211074)";-0,3024345;39,6211074;NA
"1313";"CALLE FERROCARRIL";"renfe";NA;"POINT (-1.1048262 39.4914373)";-1,1048262;39,4914373;NA
"1314";"CALLE FERROCARRIL";"renfe";NA;"POINT (-0.320388 39.5441373)";-0,320388;39,5441373;NA
"1315";"CALLE ESTACION FERROCARRIL";"renfe";NA;"POINT (-1.1505117 39.5228311)";-1,1505117;39,5228311;NA
"1316";"CALLE ESTACION DE FERROCARRIL";"renfe";NA;"POINT (-0.9023037 39.4572872)";-0,9023037;39,4572872;NA
"1317";"CALLE ESTACION FERROCARRIL";"renfe";NA;"POINT (-0.4159142 39.3605117)";-0,4159142;39,3605117;NA
"1318";"PASEO ESTACION FERROCARRIL";"renfe";NA;"POINT (-0.307813 39.205606)";-0,307813;39,205606;NA
"1319";"CALLE ESTACION DE FERROCARRIL";"renfe";NA;"POINT (-0.2262717 39.0789696)";-0,2262717;39,0789696;NA
"1320";"CALLE ACTOR RABAL";"renfe";NA;"POINT (-1.2031789 39.5713077)";-1,2031789;39,5713077;NA
"1321";"CALLE DELS GREMIS";"renfe";NA;"POINT (-0.4058084 39.4527445)";-0,4058084;39,4527445;NA
"1322";"AVENIDA BLASCO IBAÑEZ";"renfe";NA;"POINT (-0.334666 39.4700954)";-0,334666;39,4700954;NA
"1323";"AVENIDA DE FRANCIA";"renfe";NA;"POINT (-0.0973214 39.9322174)";-0,0973214;39,9322174;NA
"1324";NA;"renfe";NA;NA;-0,4512296;39,1519351;NA
"1325";NA;"renfe";NA;NA;-0,7875467;39,4273336;NA
"1326";NA;"renfe";NA;NA;-0,4547076;39,1182487;NA
"1327";NA;"renfe";NA;NA;-0,052266;39,988259;NA
"1328";NA;"renfe";NA;NA;-0,6876734;39,4902567;NA
"1329";NA;"renfe";NA;NA;-0,1917555;39,7812077;NA
"1330";NA;"renfe";NA;NA;-0,7232841;39,4706442;NA
"1331";NA;"renfe";NA;NA;-0,624782;39,495419;NA
"1332";NA;"renfe";NA;NA;-1,0111342;39,4774601;NA
"1333";NA;"renfe";NA;NA;-0,3482865;39,7063846;NA
"1334";NA;"renfe";NA;NA;-0,3202243;39,6793275;NA
"1335";NA;"renfe";NA;NA;-0,5866583;38,9692953;NA
"1336";NA;"renfe";NA;NA;-0,3954941;39,4088749;NA
"1337";NA;"renfe";NA;NA;-0,7573129;38,8758648;NA
"1338";NA;"renfe";NA;NA;-0,3024345;39,6211074;NA
"1339";NA;"renfe";NA;NA;-0,4941752;39,8548087;NA
"1340";NA;"renfe";NA;NA;-0,480858;39,8490418;NA
"1341";NA;"renfe";NA;NA;-0,4159142;39,3605117;NA
"1342";NA;"renfe";NA;NA;-0,307813;39,205606;NA
"1343";NA;"renfe";NA;NA;-1,2031789;39,5713077;NA
"1344";NA;"renfe";NA;NA;-0,4058084;39,4527445;NA
"1345";NA;"renfe";NA;NA;-0,0973214;39,9322174;NA
"1346";NA;"renfe";NA;NA;-0,5253742;38,9918333;NA
"1347";NA;"renfe";NA;NA;-0,2146258;39,0262924;NA
"1348";"CALLE ESTACION FERROCARRIL";"renfe";NA;"POINT (-0.4407954 39.1945808)";-0,4407954;39,1945808;NA
"1349";"CARRER PICAIO";"renfe";NA;"POINT (-0.3672437 39.7460335)";-0,3672437;39,7460335;NA
"1350";"CALLE ESTACION FERROCARRIL";"renfe";NA;"POINT (-0.4512296 39.1519351)";-0,4512296;39,1519351;NA
"1351";"PLAZA ESTACION FERROCARRIL";"renfe";NA;"POINT (-0.4300849 39.2865962)";-0,4300849;39,2865962;NA
"1352";"CALLE ESTACION FERROCARRIL";"renfe";NA;"POINT (-0.1056377 39.895253)";-0,1056377;39,895253;NA
"1353";"AVENIDA ESTACION FERROCARRIL";"renfe";NA;"POINT (-0.7232841 39.4706442)";-0,7232841;39,4706442;NA
"1354";"CARRETERA CV-383 - ESTACION FERROCARRIL";"renfe";NA;"POINT (-0.624782 39.495419)";-0,624782;39,495419;NA
"1355";"BARRIO ESTACION FERROCARRIL";"renfe";NA;"POINT (-0.4919616 39.0468553)";-0,4919616;39,0468553;NA
"1356";"CARRER BONAVISTA";"renfe";NA;"POINT (-0.491565 39.046208)";-0,491565;39,046208;NA
"1357";"CALLE GARCIA LORCA";"renfe";NA;"POINT (-0.3954941 39.4088749)";-0,3954941;39,4088749;NA
"1358";"CALLE ESTACION DE FERROCARRIL";"renfe";NA;"POINT (-0.7573129 38.8758648)";-0,7573129;38,8758648;NA
"1359";"CALLE ESTACION DE FERROCARRIL";"renfe";NA;"POINT (-0.1635392 39.8172732)";-0,1635392;39,8172732;NA
"1360";"CALLE ESTACION FERROCARRIL";"renfe";NA;"POINT (-0.5058987 39.8744595)";-0,5058987;39,8744595;NA
"1361";"CARRETERA N-340 - ESTACION FERROCARRIL";"renfe";NA;"POINT (-0.271815 39.6750135)";-0,271815;39,6750135;NA
"1362";"EXPLANADA DE LA ESTACION";"renfe";NA;"POINT (-0.480858 39.8490418)";-0,480858;39,8490418;NA
"1363";"CALLE SAN VICENTE";"renfe";NA;"POINT (-0.3764178 39.2773128)";-0,3764178;39,2773128;NA
"1364";"CALLE ESTACION FERROCARRIL";"renfe";NA;"POINT (-0.4306676 39.8120247)";-0,4306676;39,8120247;NA
"1365";"AVENIDA DE L'ANTIGA ESTACIO";"renfe";NA;"POINT (-0.689953 38.908988)";-0,689953;38,908988;NA
"1366";"CARRETERA N-III - ESTACION DE FERROCARRIL";"renfe";NA;"POINT (-0.870661 39.454073)";-0,870661;39,454073;NA
"1367";"PLAÇA DE L'ESTACIO";"renfe";NA;"POINT (-0.5253742 38.9918333)";-0,5253742;38,9918333;NA
"1368";"AVENIDA RIO TURIA";"renfe";NA;"POINT (-0.420941 39.4639487)";-0,420941;39,4639487;NA
"1369";NA;"renfe";NA;NA;-0,320388;39,5441373;NA
"1370";NA;"renfe";NA;NA;-0,3930134;39,4218996;NA
"1371";NA;"renfe";NA;NA;-0,4407954;39,1945808;NA
"1372";NA;"renfe";NA;NA;-0,0775039;39,9543523;NA
"1373";NA;"renfe";NA;NA;-0,2156704;39,7522591;NA
"1374";NA;"renfe";NA;NA;-0,4300849;39,2865962;NA
"1375";NA;"renfe";NA;NA;-0,1056377;39,895253;NA
"1376";NA;"renfe";NA;NA;-0,3994599;39,3994659;NA
"1377";NA;"renfe";NA;NA;-0,3929023;39,3008731;NA
"1378";NA;"renfe";NA;NA;-0,1799097;38,9703239;NA
"1379";NA;"renfe";NA;NA;-0,5693862;39,9151971;NA
"1380";NA;"renfe";NA;NA;-0,2045537;39,7659238;NA
"1381";NA;"renfe";NA;NA;-0,4919616;39,0468553;NA
"1382";NA;"renfe";NA;NA;-0,491565;39,046208;NA
"1383";NA;"renfe";NA;NA;-0,642235;38,941764;NA
"1384";NA;"renfe";NA;NA;-0,5058987;39,8744595;NA
"1385";NA;"renfe";NA;NA;-0,168872;38,983932;NA
"1386";NA;"renfe";NA;NA;-0,320388;39,5441373;NA
"1387";NA;"renfe";NA;NA;-0,3771506;39,4669226;NA
"1388";NA;"renfe";NA;NA;-0,689953;38,908988;NA
"1389";NA;"renfe";NA;NA;-0,870661;39,454073;NA
"1390";NA;"renfe";NA;NA;-0,4473898;39,4597864;NA
"1391";NA;"renfe";NA;NA;-0,420941;39,4639487;NA
